{"version": 0.6, "generator": "Overpass API 0.7.62.8 e802775f", "osm3s": {"timestamp_osm_base": "2025-12-20T09:17:17Z", "copyright": "The data included in this document is from www.openstreetmap.org. The data is made available under ODbL."}, "elements": [{"type": "node", "id": 1789241409, "lat": 33.8836097, "lon": 10.1012592, "tags": {"addr:city": "\u0642\u0627\u0628\u0633", "addr:street": "\u0634\u0627\u0631\u0639 \u0645\u062d\u0645\u062f \u0639\u0644\u064a", "amenity": "pharmacy", "healthcare": "pharmacy"}}, {"type": "node", "id": 1835325637, "lat": 33.867266, "lon": 10.1117153, "tags": {"addr:city": "\u0642\u0627\u0628\u0633", "amenity": "cafe", "name": "\u0645\u0642\u0647\u0649 \u0634\u0631\u064a\u0641", "name:ar": "\u0645\u0642\u0647\u0649 \u0634\u0631\u064a\u0641", "name:fr": "Caf\u00e9 Echrif"}}, {"type": "node", "id": 1835325641, "lat": 33.8743971, "lon": 10.1100628, "tags": {"addr:city": "\u0642\u0627\u0628\u0633", "amenity": "cafe", "name": "\u0627\u0644\u0634\u0631\u0641\u0629", "name:ar": "\u0627\u0644\u0634\u0631\u0641\u0629", "name:fr": "La Terrasse"}}, {"type": "node", "id": 1835325642, "lat": 33.8746557, "lon": 10.110088, "tags": {"addr:city": "\u0642\u0627\u0628\u0633", "amenity": "cafe", "name": "\u0645\u0642\u0647\u0649 \u0642\u0627\u0628\u0633", "name:ar": "\u0645\u0642\u0647\u0649 \u0642\u0627\u0628\u0633", "name:fr": "Caf\u00e9 Gab\u00e8s"}}, {"type": "node", "id": 1892062481, "lat": 33.9837274, "lon": 9.9644375}, {"type": "node", "id": 1892062483, "lat": 33.9837565, "lon": 9.9643429}, {"type": "node", "id": 1892062485, "lat": 33.9837607, "lon": 9.964484}, {"type": "node", "id": 1895394524, "lat": 33.9818097, "lon": 9.9703873}, {"type": "node", "id": 1895394527, "lat": 33.9818422, "lon": 9.9702697}, {"type": "node", "id": 1895394530, "lat": 33.9819051, "lon": 9.9703768}, {"type": "node", "id": 1895394533, "lat": 33.9819181, "lon": 9.9702644}, {"type": "node", "id": 1897254695, "lat": 33.9871591, "lon": 9.9695785, "tags": {"amenity": "cafe", "name": "\u0645\u0642\u0647\u0649 \u0627\u0644\u0633\u0648\u0642", "name:ar": "\u0645\u0642\u0647\u0649 \u0627\u0644\u0633\u0648\u0642"}}, {"type": "node", "id": 1898074742, "lat": 33.980697, "lon": 9.973963, "tags": {"amenity": "pharmacy", "dispensing": "\u0635\u064a\u062f\u0644\u064a\u0629 \u0627\u0644\u0632\u064a\u062a\u0648\u0646\u064a \u0623\u064a\u0645\u0646", "fax": "+216 75 365 682", "healthcare": "pharmacy", "phone": "+216 75 365 682"}}, {"type": "node", "id": 1898074779, "lat": 33.9810772, "lon": 9.9719293, "tags": {"amenity": "cafe", "name": "\u0627\u0644\u0642\u0647\u0648\u0629 \u0627\u0644\u0639\u0627\u0644\u064a\u0629", "name:ar": "\u0627\u0644\u0642\u0647\u0648\u0629 \u0627\u0644\u0639\u0627\u0644\u064a\u0629"}}, {"type": "node", "id": 1898074780, "lat": 33.981443, "lon": 9.9708615, "tags": {"name": "\u0627\u0644\u0645\u0631\u0637\u0628\u0627\u062a \u0627\u0644\u062a\u0648\u0646\u0633\u064a\u0629", "name:ar": "\u0627\u0644\u0645\u0631\u0637\u0628\u0627\u062a \u0627\u0644\u062a\u0648\u0646\u0633\u064a\u0629", "shop": "convenience"}}, {"type": "node", "id": 1898074781, "lat": 33.9830022, "lon": 9.9706799, "tags": {"name": "\u062d\u0627\u0646\u0648\u062a \u0631\u0634\u0627\u062f", "shop": "convenience"}}, {"type": "node", "id": 1898074785, "lat": 33.9841952, "lon": 9.9624016, "tags": {"name": "\u0633\u0648\u0628\u0631\u0627\u062a \u0627\u0644\u0639\u0627\u0644\u0645\u064a\u0629", "name:ar": "\u0633\u0648\u0628\u0631\u0627\u062a \u0627\u0644\u0639\u0627\u0644\u0645\u064a\u0629", "shop": "convenience"}}, {"type": "node", "id": 1898074786, "lat": 33.9793561, "lon": 9.9772105, "tags": {"amenity": "pharmacy", "dispensing": "no", "healthcare": "pharmacy", "name": "\u0635\u064a\u062f\u0644\u064a\u0629 \u0644\u064a\u0644\u064a\u0629", "name:ar": "\u0635\u064a\u062f\u0644\u064a\u0629 \u0644\u064a\u0644\u064a\u0629"}}, {"type": "node", "id": 1898074842, "lat": 33.982741, "lon": 9.9749347, "tags": {"amenity": "cafe", "name": "\u0645\u0642\u0647\u0649 \u0627\u0644\u0633\u0639\u0627\u062f\u0629", "name:ar": "\u0645\u0642\u0647\u0649 \u0627\u0644\u0633\u0639\u0627\u062f\u0629"}}, {"type": "node", "id": 1898413508, "lat": 33.9822198, "lon": 9.9683938, "tags": {"name": "\u0645\u063a\u0627\u0632\u0629 \u0627\u0644\u062d\u0627\u062c \u0639\u0645\u0631", "name:ar": "\u0645\u063a\u0627\u0632\u0629 \u0627\u0644\u062d\u0627\u062c \u0639\u0645\u0631", "name:en": "Maghazat Haj Omar", "name:fr": "Maghazat Haj Omar", "shop": "supermarket"}}, {"type": "node", "id": 1900792724, "lat": 33.9842754, "lon": 9.9703468, "tags": {"name": "\u062d\u0646\u0627\u0646 \u0644\u0644\u0645\u0648\u0627\u062f \u0627\u0644\u063a\u0630\u0627\u0626\u064a\u0629", "shop": "convenience"}}, {"type": "node", "id": 1906701282, "lat": 33.9819617, "lon": 9.9753452, "tags": {"amenity": "cafe", "name": "\u0645\u0642\u0647\u0649 \u0623\u0645\u064a\u0644\u0643\u0627\u0631", "name:ar": "\u0645\u0642\u0647\u0649 \u0623\u0645\u064a\u0644\u0643\u0627\u0631"}}, {"type": "node", "id": 1909310066, "lat": 33.9830246, "lon": 9.977136, "tags": {"name": "\u0628\u064a\u0639 \u0627\u0644\u0645\u0644\u0627\u0628\u0633 \u0627\u0644\u062c\u0627\u0647\u0632\u0629", "name:ar": "\u0628\u064a\u0639 \u0627\u0644\u0645\u0644\u0627\u0628\u0633 \u0627\u0644\u062c\u0627\u0647\u0632\u0629", "shop": "clothes"}}, {"type": "node", "id": 1909310082, "lat": 33.9836179, "lon": 9.9795482, "tags": {"name": "\u0645\u0631\u0637\u0628\u0627\u062a \u0627\u0644\u062c\u0646\u0648\u0628", "name:ar": "\u0645\u0631\u0637\u0628\u0627\u062a \u0627\u0644\u062c\u0646\u0648\u0628", "shop": "convenience"}}, {"type": "node", "id": 1912202201, "lat": 33.9811498, "lon": 9.9764679, "tags": {"name": "\u0633\u0648\u0628\u0631\u0627\u062a \u0639\u0644\u0627\u0621\u0627\u0644\u062f\u064a\u0646 \u0644\u0644\u0645\u0648\u0627\u062f \u0627\u0644\u063a\u0630\u0627\u0626\u064a\u0629 \u0648\u0627\u0644\u062e\u0636\u0631 \u0648\u0627\u0644\u063a\u0644\u0627\u0644", "name:ar": "\u0633\u0648\u0628\u0631\u0627\u062a \u0639\u0644\u0627\u0621\u0627\u0644\u062f\u064a\u0646 \u0644\u0644\u0645\u0648\u0627\u062f \u0627\u0644\u063a\u0630\u0627\u0626\u064a\u0629 \u0648\u0627\u0644\u062e\u0636\u0631 \u0648\u0627\u0644\u063a\u0644\u0627\u0644", "shop": "convenience"}}, {"type": "node", "id": 1912213076, "lat": 33.9840139, "lon": 9.978796, "tags": {"shop": "convenience"}}, {"type": "node", "id": 1912246828, "lat": 33.986633, "lon": 9.9794623, "tags": {"name": "\u0628\u0642\u0627\u0644\u0629 \u0625\u0634\u0631\u0627\u0642", "name:ar": "\u0628\u0642\u0627\u0644\u0629 \u0625\u0634\u0631\u0627\u0642", "name:fr": "\u00c9picerie Ichrak", "shop": "convenience"}}, {"type": "node", "id": 1912246829, "lat": 33.9856036, "lon": 9.9783559, "tags": {"shop": "convenience"}}, {"type": "node", "id": 1912683928, "lat": 33.9850084, "lon": 9.9598219, "tags": {"name": "\u0633\u0648\u0628\u0631\u0627\u062a \u0628\u0646 \u0633\u0639\u064a\u062f", "name:ar": "\u0633\u0648\u0628\u0631\u0627\u062a \u0628\u0646 \u0633\u0639\u064a\u062f", "shop": "convenience"}}, {"type": "node", "id": 1923650127, "lat": 33.9827597, "lon": 9.9755256, "tags": {"shop": "convenience"}}, {"type": "node", "id": 1925093218, "lat": 33.9834449, "lon": 9.9784616, "tags": {"amenity": "cafe", "name": "\u0645\u0642\u0647\u0649 \u062d\u0646\u0628\u0639\u0644"}}, {"type": "node", "id": 1927658086, "lat": 33.9806654, "lon": 9.9740665, "tags": {"name": "\u0628\u064a\u0639 \u0645\u0648\u0627\u062f \u063a\u0630\u0627\u0626\u064a\u0629", "name:ar": "\u0628\u064a\u0639 \u0645\u0648\u0627\u062f \u063a\u0630\u0627\u0626\u064a\u0629", "shop": "convenience"}}, {"type": "node", "id": 1982205951, "lat": 33.9859297, "lon": 9.9729329, "tags": {"name": "\u0639\u0637\u0631\u064a\u0629 \u0623\u0645\u064a\u0646", "name:ar": "\u0639\u0637\u0631\u064a\u0629 \u0623\u0645\u064a\u0646", "shop": "convenience"}}, {"type": "node", "id": 2195645155, "lat": 33.9746248, "lon": 9.9809059, "tags": {"amenity": "cafe", "name": "Caf\u00e9 Margoum", "name:fr": "Caf\u00e9 Margoum"}}, {"type": "node", "id": 2195675204, "lat": 33.9830348, "lon": 9.9666217, "tags": {"shop": "convenience"}}, {"type": "node", "id": 2195675205, "lat": 33.9823563, "lon": 9.9679683, "tags": {"amenity": "cafe", "name": "\u0645\u0642\u0647\u0649 \u0623\u0645\u064a\u0646", "name:ar": "\u0645\u0642\u0647\u0649 \u0623\u0645\u064a\u0646"}}, {"type": "node", "id": 2203272902, "lat": 33.9819424, "lon": 9.9699561, "tags": {"shop": "convenience"}}, {"type": "node", "id": 2213411527, "lat": 33.9785074, "lon": 9.97856, "tags": {"amenity": "cafe", "name": "\u0645\u0642\u0647\u0649 \u0637\u0627\u0631\u0642", "name:fr": "Caf\u00e9 Tarek Zaid"}}, {"type": "node", "id": 2225438571, "lat": 33.9843158, "lon": 9.9729775, "tags": {"shop": "convenience"}}, {"type": "node", "id": 2259276246, "lat": 33.9790238, "lon": 9.9785997, "tags": {"amenity": "cafe", "name": "\u0645\u0642\u0647\u0649 \u0623\u0628\u064a\u0631\u0627", "name:fr": "Caf\u00e9 Op\u00e9ra"}}, {"type": "node", "id": 2293602875, "lat": 33.8899295, "lon": 10.115751, "tags": {"amenity": "cafe", "cuisine": "regional", "name": "Fast food"}}, {"type": "node", "id": 2293606267, "lat": 33.8896445, "lon": 10.1159171, "tags": {"amenity": "cafe", "name": "Coffe"}}, {"type": "node", "id": 2439042991, "lat": 33.860764, "lon": 10.085642, "tags": {"amenity": "cafe", "name": "\u0639\u0644\u064a \u0628\u0627\u0628\u0627", "name:ar": "\u0639\u0644\u064a \u0628\u0627\u0628\u0627", "name:en": "Ali Baba", "name:fr": "Ali Baba"}}, {"type": "node", "id": 2532027236, "lat": 33.9811452, "lon": 9.9807479, "tags": {"addr:city": "\u0648\u0630\u0631\u0641", "name": "\u0637\u0627\u0631\u0642 \u0628\u062c\u0627\u0633\u0645", "name:ar": "\u0637\u0627\u0631\u0642 \u0628\u062c\u0627\u0633\u0645", "name:fr": "tarek begacem", "shop": "supermarket"}}, {"type": "node", "id": 2532034743, "lat": 33.9793578, "lon": 9.9772717, "tags": {"name": "\u0645\u0631\u0637\u0628\u0627\u062a", "name:ar": "\u0645\u0631\u0637\u0628\u0627\u062a", "name:en": "Mouratibat", "name:fr": "Mouratibat", "shop": "supermarket"}}, {"type": "node", "id": 2671156138, "lat": 33.8886744, "lon": 10.1178446, "tags": {"amenity": "cafe", "name": "beb l 7arra"}}, {"type": "node", "id": 2671156148, "lat": 33.8924764, "lon": 10.1155133, "tags": {"addr:city": "\u0642\u0627\u0628\u0633", "addr:street": "\u0634\u0627\u0631\u0639 \u062d\u0628\u064a\u0628 \u062a\u0627\u0645\u0648\u0631", "amenity": "cafe", "name": "\u0643\u0627\u0632\u064a\u0646\u0648 \u0642\u0627\u0628\u0633", "name:ar": "\u0643\u0627\u0632\u064a\u0646\u0648 \u0642\u0627\u0628\u0633", "name:fr": "Casino Gab\u00e9s", "outdoor_seating": "yes"}}, {"type": "node", "id": 2813107698, "lat": 33.8489259, "lon": 10.1125602}, {"type": "node", "id": 2813107700, "lat": 33.8492614, "lon": 10.112268}, {"type": "node", "id": 2813108703, "lat": 33.8495202, "lon": 10.1126988}, {"type": "node", "id": 2966146822, "lat": 33.8596258, "lon": 10.0696066, "tags": {"amenity": "cafe"}}, {"type": "node", "id": 2967748479, "lat": 33.8886318, "lon": 10.1182679, "tags": {"amenity": "cafe", "name": "beb l7arra Part 2"}}, {"type": "node", "id": 3072220580, "lat": 33.8540266, "lon": 10.0902212, "tags": {"amenity": "cafe"}}, {"type": "node", "id": 3374645110, "lat": 33.8999376, "lon": 9.8728118, "tags": {"amenity": "cafe"}}, {"type": "node", "id": 3610333736, "lat": 33.8890139, "lon": 10.0967259, "tags": {"amenity": "cafe"}}, {"type": "node", "id": 3660352911, "lat": 33.8492737, "lon": 10.1131393}, {"type": "node", "id": 3660352912, "lat": 33.8493755, "lon": 10.1130506}, {"type": "node", "id": 3660352913, "lat": 33.849415, "lon": 10.1131164}, {"type": "node", "id": 3660352914, "lat": 33.8495247, "lon": 10.1130209}, {"type": "node", "id": 3660352915, "lat": 33.8495445, "lon": 10.1130539}, {"type": "node", "id": 3660352916, "lat": 33.8495814, "lon": 10.1126455}, {"type": "node", "id": 3660352917, "lat": 33.8497298, "lon": 10.1128926}, {"type": "node", "id": 3718366981, "lat": 33.8811883, "lon": 10.1004236, "tags": {"amenity": "cafe", "name": "\u0642\u0627\u0639\u0629 \u0634\u0627\u064a \u0645\u0631\u0627\u0643\u0634", "name:ar": "\u0642\u0627\u0639\u0629 \u0634\u0627\u064a \u0645\u0631\u0627\u0643\u0634", "name:fr": "Salon de th\u00e9 Marrakech"}}, {"type": "node", "id": 3718373394, "lat": 33.8875746, "lon": 10.1031427, "tags": {"addr:city": "\u0642\u0627\u0628\u0633", "addr:street": "\u0634\u0627\u0631\u0639 \u0627\u0644\u062d\u0628\u064a\u0628 \u0628\u0648\u0631\u0642\u064a\u0628\u0629", "addr:street:ar": "\u0634\u0627\u0631\u0639 \u0627\u0644\u062d\u0628\u064a\u0628 \u0628\u0648\u0631\u0642\u064a\u0628\u0629", "amenity": "cafe", "name": "\u0645\u0642\u0647\u0649 \u0623\u0648\u0628\u0631\u0627", "name:ar": "\u0645\u0642\u0647\u0649 \u0623\u0648\u0628\u0631\u0627", "name:fr": "Caf\u00e9 Op\u00e9ra"}}, {"type": "node", "id": 4050109329, "lat": 33.8700709, "lon": 10.1086084, "tags": {"addr:city": "\u0642\u0627\u0628\u0633", "brand:wikidata": "Q217599", "name": "\u0643\u0627\u0631\u0641\u0648\u0631", "name:ar": "\u0643\u0627\u0631\u0641\u0648\u0631", "name:en": "Carrefour", "name:fr": "Carrefour", "operator": "\u0643\u0627\u0631\u0641\u0648\u0631", "shop": "supermarket"}}, {"type": "node", "id": 4054376047, "lat": 33.8955475, "lon": 10.0750128}, {"type": "node", "id": 4054376048, "lat": 33.8956461, "lon": 10.0748869}, {"type": "node", "id": 4054376050, "lat": 33.8956973, "lon": 10.0751831}, {"type": "node", "id": 4054376056, "lat": 33.8957959, "lon": 10.0750571}, {"type": "node", "id": 4103924091, "lat": 33.8552299, "lon": 10.0944853, "tags": {"addr:city": "\u0642\u0627\u0628\u0633", "name": "\u0628\u0627\u0644\u0645 \u0645\u0627\u0631\u0643\u062a", "name:ar": "\u0628\u0627\u0644\u0645 \u0645\u0627\u0631\u0643\u062a", "name:en": "palm market", "name:fr": "palm market", "opening_hours": "Mo-Su 08:00-18:30", "shop": "supermarket"}}, {"type": "node", "id": 4191672197, "lat": 33.8856726, "lon": 10.0996403, "tags": {"addr:city": "\u0642\u0627\u0628\u0633", "addr:street": "\u0634\u0627\u0631\u0639 \u0641\u0631\u062d\u0627\u062a \u062d\u0634\u0627\u062f", "amenity": "cafe", "name": "\u0627\u0644\u0627\u062a\u062d\u0627\u062f \u0627\u0644\u062f\u0648\u0644\u064a \u0644\u0644\u0628\u0646\u0648\u0643", "name:ar": "\u0627\u0644\u0627\u062a\u062d\u0627\u062f \u0627\u0644\u062f\u0648\u0644\u064a \u0644\u0644\u0628\u0646\u0648\u0643", "name:fr": "Banque UIB", "opening_hours": "Mo-Fr 08:00-17:00"}}, {"type": "node", "id": 4197839998, "lat": 33.8855923, "lon": 10.0994474, "tags": {"addr:street": "Rue El Aroui", "amenity": "cafe", "name": "Caf\u00e9 Zrigui", "name:ar": "\u0645\u0642\u0647\u0649 \u0627\u0644\u0632\u0631\u064a\u0642\u064a", "name:fr": "Caf\u00e9 Zrigui", "opening_hours": "Mo-Su 04:00-21:00"}}, {"type": "node", "id": 4320453389, "lat": 33.8473169, "lon": 10.112511, "tags": {"addr:city": "\u0642\u0627\u0628\u0633", "addr:postcode": "6032", "addr:street": "\u0627\u0644\u0637\u0631\u064a\u0642 \u0627\u0644\u0648\u0637\u0646\u064a\u0629 \u0631\u0642\u0645 1", "amenity": "cafe", "cuisine": "lebanese;kebab;italian;sandwich;arab;italian_pizza;pizza", "name": "\u0647\u0627\u0641\u0627\u0646\u0627", "name:ar": "\u0647\u0627\u0641\u0627\u0646\u0627", "name:en": "Havana", "name:fr": "Caf\u00e9 Havana"}}, {"type": "node", "id": 4385671761, "lat": 33.8851945, "lon": 10.1207, "tags": {"amenity": "cafe"}}, {"type": "node", "id": 4386938026, "lat": 33.8869039, "lon": 10.1189501, "tags": {"amenity": "cafe"}}, {"type": "node", "id": 4386938046, "lat": 33.8874082, "lon": 10.1186287, "tags": {"amenity": "cafe"}}, {"type": "node", "id": 4387067747, "lat": 33.8874351, "lon": 10.1079388, "tags": {"amenity": "cafe"}}, {"type": "node", "id": 4387124222, "lat": 33.8630749, "lon": 10.0633807, "tags": {"amenity": "cafe", "name": "For\u00eat", "name:fr": "For\u00eat"}}, {"type": "node", "id": 4387124223, "lat": 33.8634402, "lon": 10.0643168, "tags": {"amenity": "cafe"}}, {"type": "node", "id": 4387124225, "lat": 33.8638567, "lon": 10.0642524, "tags": {"amenity": "cafe"}}, {"type": "node", "id": 4389437455, "lat": 33.812835, "lon": 10.1478877, "tags": {"amenity": "cafe", "name": "\u0645\u0642\u0647\u0649 \u0627\u0644\u0633\u0639\u0627\u062f\u0629", "name:ar": "\u0645\u0642\u0647\u0649 \u0627\u0644\u0633\u0639\u0627\u062f\u0629", "name:fr": "Caf\u00e9 Essaada Limaoua"}}, {"type": "node", "id": 4535551092, "lat": 33.8860865, "lon": 10.1010463, "tags": {"addr:postcode": "6000", "addr:street": "Rue indenossie", "amenity": "cafe", "email": "etab.nour@gmail.com", "internet_access": "wlan", "name": "\u0645\u0642\u0647\u064a \u0644\u0627\u0641\u0646\u062a\u0627\u0646", "name:ar": "\u0645\u0642\u0647\u064a \u0644\u0627\u0641\u0646\u062a\u0627\u0646", "name:en": "Cafe la fontaine", "name:fr": "Caf\u00e9 la Fontaine", "operator": "Mr salah", "phone": "+216 55 883 703"}}, {"type": "node", "id": 4695565891, "lat": 33.8868322, "lon": 10.0933529, "tags": {"addr:city": "\u0642\u0627\u0628\u0633", "addr:postcode": "6001", "addr:street": "\u0634\u0627\u0631\u0639 \u0627\u0644\u062d\u0628\u064a\u0628 \u0628\u0648\u0631\u0642\u064a\u0628\u0629", "addr:street:ar": "\u0634\u0627\u0631\u0639 \u0627\u0644\u062d\u0628\u064a\u0628 \u0628\u0648\u0631\u0642\u064a\u0628\u0629", "name": "\u0645\u062a\u062c\u0631 \u0625\u0633\u0637\u0646\u0628\u0648\u0644", "name:ar": "\u0645\u062a\u062c\u0631 \u0625\u0633\u0637\u0646\u0628\u0648\u0644", "name:fr": "Boutique Istanbul", "opening_hours": "Mo-Su 09:00-19:00", "phone": "+216 22 422 429", "shop": "clothes"}}, {"type": "node", "id": 4732052458, "lat": 33.8673942, "lon": 10.0461961, "tags": {"amenity": "cafe", "name": "Ras el-Oued", "name:fr": "Ras el-Oued"}}, {"type": "node", "id": 4757977352, "lat": 33.8482022, "lon": 10.108574, "tags": {"amenity": "cafe"}}, {"type": "node", "id": 4816344721, "lat": 33.8796037, "lon": 9.7840101, "tags": {"addr:street": "Avenue Habib Bourguiba", "amenity": "cafe", "internet_access": "wlan", "name": "\u0632\u064a\u062a\u0648\u0646\u0629", "name:ar": "\u0632\u064a\u062a\u0648\u0646\u0629", "name:en": "Zaytouna", "name:fr": "Zaytouna"}}, {"type": "node", "id": 4881819724, "lat": 33.8804379, "lon": 10.0920312, "tags": {"name": "\u0627\u0644\u0645\u063a\u0627\u0632\u0629 \u0627\u0644\u0639\u0627\u0645\u0629", "name:ar": "\u0627\u0644\u0645\u063a\u0627\u0632\u0629 \u0627\u0644\u0639\u0627\u0645\u0629", "name:en": "Magasin\u200b G\u00e9n\u00e9ral", "name:fr": "Magasin\u200b G\u00e9n\u00e9ral", "shop": "supermarket"}}, {"type": "node", "id": 5137620422, "lat": 33.9596973, "lon": 9.9979113, "tags": {"addr:city": "\u0627\u0644\u0645\u0637\u0648\u064a\u0629", "amenity": "cafe", "name": "\u0645\u0642\u0647\u0649 \u062a\u0648\u0641\u064a\u0642 \u0627\u0644\u062d\u0633\u0648\u0645\u064a", "name:ar": "\u0645\u0642\u0647\u0649 \u062a\u0648\u0641\u064a\u0642 \u0627\u0644\u062d\u0633\u0648\u0645\u064a", "name:fr": "caf\u00e9 Toufik hsoumi", "opening_hours": "24/7"}}, {"type": "node", "id": 5192116221, "lat": 33.891357, "lon": 9.8038928, "tags": {"name": "\u0627\u0644\u0645\u063a\u0627\u0632\u0629 \u0627\u0644\u0639\u0627\u0645\u0629", "name:ar": "\u0627\u0644\u0645\u063a\u0627\u0632\u0629 \u0627\u0644\u0639\u0627\u0645\u0629", "name:en": "Magasin\u200b G\u00e9n\u00e9ral", "name:fr": "Magasin\u200b G\u00e9n\u00e9ral", "shop": "supermarket"}}, {"type": "node", "id": 5447220820, "lat": 33.8625398, "lon": 10.1138015, "tags": {"amenity": "cafe"}}, {"type": "node", "id": 6068320386, "lat": 33.8815442, "lon": 10.086047, "tags": {"amenity": "cafe", "name:fr": "Flamingo"}}, {"type": "node", "id": 7007826687, "lat": 33.8844708, "lon": 10.0991136, "tags": {"amenity": "cafe", "name": "Caf\u00e9 La Gare", "name:fr": "Caf\u00e9 La Gare"}}, {"type": "node", "id": 7035666294, "lat": 33.9838732, "lon": 9.964371}, {"type": "node", "id": 7035666295, "lat": 33.983865, "lon": 9.9644055}, {"type": "node", "id": 7035666296, "lat": 33.9838803, "lon": 9.9644065}, {"type": "node", "id": 7035666297, "lat": 33.9838621, "lon": 9.9645008}, {"type": "node", "id": 7191672286, "lat": 33.852021, "lon": 10.103971, "tags": {"amenity": "cafe", "name:fr": "Paradiso"}}, {"type": "node", "id": 8497749001, "lat": 33.8795736, "lon": 10.098306, "tags": {"name": "3abd l9ader", "shop": "supermarket"}}, {"type": "node", "id": 10029707761, "lat": 33.8518208, "lon": 10.0983263, "tags": {"amenity": "cafe", "internet_access": "yes", "internet_access:fee": "no", "name": "caf\u00e9 anis", "outdoor_seating": "yes"}}, {"type": "node", "id": 10029707762, "lat": 33.8519134, "lon": 10.0984967, "tags": {"amenity": "cafe", "cuisine": "pizza;kebab", "name": "caf\u00e9 la joconde"}}, {"type": "node", "id": 10033865485, "lat": 33.8573831, "lon": 10.1070024}, {"type": "node", "id": 10033865486, "lat": 33.8573719, "lon": 10.1070944}, {"type": "node", "id": 10033865487, "lat": 33.8571536, "lon": 10.1070328}, {"type": "node", "id": 10033865488, "lat": 33.8571224, "lon": 10.1072366}, {"type": "node", "id": 10033865489, "lat": 33.8568779, "lon": 10.107187}, {"type": "node", "id": 10033865490, "lat": 33.8568942, "lon": 10.1071002}, {"type": "node", "id": 10033865491, "lat": 33.8570574, "lon": 10.1071104}, {"type": "node", "id": 10033865492, "lat": 33.857109, "lon": 10.1069523}, {"type": "node", "id": 10033865493, "lat": 33.8573651, "lon": 10.1069981}, {"type": "node", "id": 10041413509, "lat": 33.8503425, "lon": 10.0963949}, {"type": "node", "id": 10041413510, "lat": 33.8503961, "lon": 10.0965063}, {"type": "node", "id": 10041413511, "lat": 33.8503035, "lon": 10.0965826}, {"type": "node", "id": 10041413512, "lat": 33.8502369, "lon": 10.0964711}, {"type": "node", "id": 10041413513, "lat": 33.8502778, "lon": 10.0965396}, {"type": "node", "id": 10041413514, "lat": 33.8501655, "lon": 10.0966217}, {"type": "node", "id": 10041413515, "lat": 33.8501297, "lon": 10.0965513}, {"type": "node", "id": 11086817705, "lat": 33.8502871, "lon": 10.0935434, "tags": {"amenity": "cafe"}}, {"type": "node", "id": 11086818305, "lat": 33.8502736, "lon": 10.0936357, "tags": {"amenity": "cafe", "name": "Caf\u00e9 Matador"}}, {"type": "node", "id": 12936782177, "lat": 33.8632589, "lon": 10.1031952, "tags": {"amenity": "cafe", "name": "Cafe"}}, {"type": "node", "id": 12944710400, "lat": 33.8866241, "lon": 10.1191545, "tags": {"amenity": "cafe", "name": "Houda Coffee Shop"}}, {"type": "node", "id": 12944905997, "lat": 33.8788378, "lon": 10.0918061, "tags": {"name": "\u0639\u0632\u064a\u0632\u0629", "name:fr": "Aziza", "shop": "supermarket"}}, {"type": "node", "id": 12944907538, "lat": 33.8808742, "lon": 10.1006386, "tags": {"amenity": "cafe", "contact:instagram": "https://www.instagram.com/k_a_h_e_n_a_/", "name": "Kahena"}}, {"type": "node", "id": 12967236542, "lat": 33.8611586, "lon": 10.1043343, "tags": {"amenity": "cafe", "name": "THE CUP"}}, {"type": "way", "id": 178853424, "nodes": [1892062481, 1892062485, 7035666297, 7035666296, 7035666295, 7035666294, 1892062483, 1892062481], "tags": {"amenity": "cafe", "internet_access": "no", "name": "\u0645\u0642\u0647\u0649 \u0627\u0644\u0634\u0639\u0627\u0639", "name:ar": "\u0645\u0642\u0647\u0649 \u0627\u0644\u0634\u0639\u0627\u0639", "smoking": "yes"}}, {"type": "way", "id": 179191316, "nodes": [1895394533, 1895394530, 1895394524, 1895394527, 1895394533], "tags": {"amenity": "pharmacy", "dispensing": "no", "fax": "+216 75 365 190", "healthcare": "pharmacy", "name": "\u0635\u064a\u062f\u0644\u064a\u0629 \u062d\u0627\u0632\u0645 \u0628\u0627\u0644\u062d\u0627\u062c", "name:ar": "\u0635\u064a\u062f\u0644\u064a\u0629 \u062d\u0627\u0632\u0645 \u0628\u0627\u0644\u062d\u0627\u062c", "phone": "+216 75 366 450"}}, {"type": "way", "id": 276725497, "nodes": [2813107700, 2813108703, 3660352916, 3660352917, 3660352915, 3660352914, 3660352913, 3660352912, 3660352911, 2813107698, 2813107700], "tags": {"addr:city": "\u0642\u0627\u0628\u0633", "addr:street": "\u0627\u0644\u0637\u0631\u064a\u0642 \u0627\u0644\u0648\u0637\u0646\u064a\u0629 \u0631\u0642\u0645 1", "building": "yes", "name": "\u0625\u0645 \u062c\u064a \u0645\u0627\u0643\u0633\u064a", "name:ar": "\u0625\u0645 \u062c\u064a \u0645\u0627\u0643\u0633\u064a", "name:en": "MG MAXI", "name:fr": "MG Maxi", "shop": "supermarket"}}, {"type": "way", "id": 403056647, "nodes": [4054376047, 4054376050, 4054376056, 4054376048, 4054376047], "tags": {"amenity": "cafe", "building": "yes", "name": "Caf\u00e9 Total", "name:fr": "Caf\u00e9 Total"}}, {"type": "way", "id": 1095641736, "nodes": [10033865485, 10033865486, 10033865487, 10033865488, 10033865489, 10033865490, 10033865491, 10033865492, 10033865493, 10033865485], "tags": {"amenity": "cafe", "building": "yes", "name": "707"}}, {"type": "way", "id": 1096516955, "nodes": [10041413509, 10041413510, 10041413511, 10041413513, 10041413512, 10041413509], "tags": {"addr:city": "Gab\u00e8s", "amenity": "cafe", "building": "yes", "name": "Caf\u00e9 The Lodge Gab\u00e8s", "name:fr": "Caf\u00e9 The Lodge Gab\u00e8s"}}, {"type": "way", "id": 1096516956, "nodes": [10041413512, 10041413513, 10041413514, 10041413515, 10041413512], "tags": {"amenity": "cafe", "building": "yes"}}]}