{"version": 0.6, "generator": "Overpass API 0.7.62.8 e802775f", "osm3s": {"timestamp_osm_base": "2025-12-20T09:12:12Z", "copyright": "The data included in this document is from www.openstreetmap.org. The data is made available under ODbL."}, "elements": [{"type": "node", "id": 2406170746, "lat": 35.8136746, "lon": 9.3653277}, {"type": "node", "id": 2406170749, "lat": 35.8137252, "lon": 9.3652616}, {"type": "node", "id": 2406170750, "lat": 35.8137347, "lon": 9.3654203}, {"type": "node", "id": 2406170753, "lat": 35.8137825, "lon": 9.3654066}, {"type": "node", "id": 2406971434, "lat": 35.8525462, "lon": 9.4235633}, {"type": "node", "id": 2406971436, "lat": 35.8526412, "lon": 9.4233582}, {"type": "node", "id": 2406971438, "lat": 35.8527678, "lon": 9.4237195}, {"type": "node", "id": 2406971440, "lat": 35.8528628, "lon": 9.4235145}, {"type": "node", "id": 2592110352, "lat": 35.7955115, "lon": 9.4885994, "tags": {"amenity": "cafe", "name": "Caf\u00e9 Bouzaiene"}}, {"type": "node", "id": 6532003062, "lat": 35.9614142, "lon": 9.5462743}, {"type": "node", "id": 6532003063, "lat": 35.9614917, "lon": 9.5462388}, {"type": "node", "id": 6532003064, "lat": 35.9615469, "lon": 9.5464231}, {"type": "node", "id": 6532003065, "lat": 35.9616264, "lon": 9.5463867}, {"type": "node", "id": 6532003066, "lat": 35.9615331, "lon": 9.5460756}, {"type": "node", "id": 6532003067, "lat": 35.9613761, "lon": 9.5461475}, {"type": "node", "id": 11116133205, "lat": 35.7983275, "lon": 9.3555229, "tags": {"amenity": "pharmacy"}}, {"type": "node", "id": 11116184106, "lat": 35.6346807, "lon": 9.6775362, "tags": {"amenity": "pharmacy"}}, {"type": "node", "id": 12170719152, "lat": 35.7051376, "lon": 9.5117434, "tags": {"amenity": "cafe", "name": "Caf\u00e9 el Msaiid", "name:fr": "Caf\u00e9 el Msaiid"}}, {"type": "node", "id": 12526667168, "lat": 35.8460711, "lon": 9.5878691, "tags": {"amenity": "cafe", "name": "\u0645\u0642\u0647\u0649 \u0627\u0644\u0639\u0641\u0627\u0637"}}, {"type": "node", "id": 12526682361, "lat": 35.8460711, "lon": 9.5878691, "tags": {"amenity": "cafe", "name": "\u0645\u0642\u0647\u0649 \u0627\u0644\u0639\u0641\u0627\u0637"}}, {"type": "node", "id": 12526692304, "lat": 35.8478699, "lon": 9.5921211, "tags": {"amenity": "pharmacy", "name": "pharmacie de nuit"}}, {"type": "node", "id": 12526700343, "lat": 35.8478699, "lon": 9.5921211, "tags": {"amenity": "pharmacy", "name": "pharmacie de nuit"}}, {"type": "node", "id": 12556652391, "lat": 35.8463411, "lon": 9.5904361, "tags": {"amenity": "pharmacy", "name": "dhifaoui pharmacy"}}, {"type": "way", "id": 232249960, "nodes": [2406170749, 2406170753, 2406170750, 2406170746, 2406170749], "tags": {"amenity": "cafe", "building": "yes", "name": "Kesra"}}, {"type": "way", "id": 232340963, "nodes": [2406971440, 2406971438, 2406971434, 2406971436, 2406971440], "tags": {"amenity": "cafe", "building": "yes"}}, {"type": "way", "id": 695615521, "nodes": [6532003062, 6532003063, 6532003064, 6532003065, 6532003066, 6532003067, 6532003062], "tags": {"amenity": "cafe", "building": "yes"}}]}