{"version": 0.6, "generator": "Overpass API 0.7.62.8 e802775f", "osm3s": {"timestamp_osm_base": "2025-12-20T09:17:17Z", "copyright": "The data included in this document is from www.openstreetmap.org. The data is made available under ODbL."}, "elements": [{"type": "node", "id": 1381093437, "lat": 35.6959739, "lon": 10.1047079, "tags": {"amenity": "cafe", "name": "Caf\u00e9 Shell"}}, {"type": "node", "id": 1384171065, "lat": 35.7940569, "lon": 9.8714969}, {"type": "node", "id": 1384171070, "lat": 35.7940478, "lon": 9.8716139}, {"type": "node", "id": 1384171071, "lat": 35.7941162, "lon": 9.871496}, {"type": "node", "id": 1384171074, "lat": 35.7941062, "lon": 9.8716282}, {"type": "node", "id": 1789848984, "lat": 35.6748598, "lon": 10.1010938, "tags": {"amenity": "pharmacy", "dispensing": "yes", "name": "Pharmacie Dhib", "source": "Iskander Benhadj"}}, {"type": "node", "id": 1789877208, "lat": 35.6725788, "lon": 10.1021541, "tags": {"amenity": "cafe", "name": "Caf\u00e9 Belhadj"}}, {"type": "node", "id": 1789877216, "lat": 35.6722134, "lon": 10.1027451, "tags": {"shop": "supermarket"}}, {"type": "node", "id": 1789877223, "lat": 35.6719768, "lon": 10.1028461, "tags": {"amenity": "cafe", "name": "Caf\u00e9 Neptune"}}, {"type": "node", "id": 1790048826, "lat": 35.6785784, "lon": 10.0991919, "tags": {"addr:city": "\u0627\u0644\u0642\u064a\u0631\u0648\u0627\u0646", "amenity": "pharmacy", "healthcare": "pharmacy"}}, {"type": "node", "id": 1793677079, "lat": 35.6758799, "lon": 10.1033165, "tags": {"amenity": "cafe", "name": "Caf\u00e9 Misk Ellil"}}, {"type": "node", "id": 1793680508, "lat": 35.6735747, "lon": 10.1028713, "tags": {"amenity": "cafe", "name": "Caf\u00e9 El Bakkouche"}}, {"type": "node", "id": 2818619904, "lat": 35.6774385, "lon": 10.0965696, "tags": {"addr:city": "\u0627\u0644\u0642\u064a\u0631\u0648\u0627\u0646", "amenity": "cafe"}}, {"type": "node", "id": 2881605320, "lat": 35.6811999, "lon": 10.1037794, "tags": {"addr:city": "\u0627\u0644\u0642\u064a\u0631\u0648\u0627\u0646", "amenity": "cafe"}}, {"type": "node", "id": 2887112101, "lat": 35.6780877, "lon": 10.0940071, "tags": {"amenity": "cafe", "internet_access": "no", "name": "lotfi", "smoking": "no"}}, {"type": "node", "id": 4657902189, "lat": 35.6889414, "lon": 10.0967857, "tags": {"amenity": "cafe", "internet_access": "wlan", "name": "La Terrasse", "name:fr": "La Terrasse"}}, {"type": "node", "id": 6360855547, "lat": 35.6591239, "lon": 10.0885473, "tags": {"amenity": "cafe", "name": "Caf\u00e9 Philadelphia"}}, {"type": "node", "id": 6360856224, "lat": 35.6533535, "lon": 10.0864861, "tags": {"amenity": "cafe", "name": "Number one"}}, {"type": "node", "id": 6360856225, "lat": 35.6535706, "lon": 10.0865912, "tags": {"amenity": "pharmacy", "dispensing": "yes", "healthcare": "pharmacy", "name": "Pharmacie Akrout"}}, {"type": "node", "id": 6360856339, "lat": 35.6657992, "lon": 10.0955873, "tags": {"amenity": "cafe", "name": "\u0645\u0642\u0647\u0649 \u0627\u0644\u0645\u0646\u0627\u0631", "name:ar": "\u0645\u0642\u0647\u0649 \u0627\u0644\u0645\u0646\u0627\u0631"}}, {"type": "node", "id": 6360856340, "lat": 35.6669954, "lon": 10.098482}, {"type": "node", "id": 6360856341, "lat": 35.6669353, "lon": 10.0985329}, {"type": "node", "id": 6360856342, "lat": 35.6669904, "lon": 10.0986284}, {"type": "node", "id": 6360856343, "lat": 35.6670142, "lon": 10.0986362}, {"type": "node", "id": 6360856344, "lat": 35.6670255, "lon": 10.0986531}, {"type": "node", "id": 6360856345, "lat": 35.6670868, "lon": 10.0986038}, {"type": "node", "id": 6360856346, "lat": 35.6670693, "lon": 10.098576}, {"type": "node", "id": 6360856347, "lat": 35.6670856, "lon": 10.0985514}, {"type": "node", "id": 6360856348, "lat": 35.6670605, "lon": 10.0984943}, {"type": "node", "id": 6360856349, "lat": 35.6670117, "lon": 10.0985113}, {"type": "node", "id": 6360856474, "lat": 35.6743357, "lon": 10.0940497, "tags": {"amenity": "cafe", "name": "Habib Honda"}}, {"type": "node", "id": 6360856475, "lat": 35.6754058, "lon": 10.0939888, "tags": {"amenity": "cafe", "name": "Caf\u00e9 Beji"}}, {"type": "node", "id": 6361210072, "lat": 35.68391, "lon": 10.092674, "tags": {"amenity": "pharmacy", "dispensing": "yes", "healthcare": "pharmacy", "name": "Pharmacie Hind Ghith", "name:fr": "Pharmacie Hind Ghith"}}, {"type": "node", "id": 6361214896, "lat": 35.6823329, "lon": 10.0913803, "tags": {"amenity": "cafe", "name": "Caf\u00e9 Kids Land", "name:fr": "Caf\u00e9 Kids Land"}}, {"type": "node", "id": 6361214897, "lat": 35.6828127, "lon": 10.0907285, "tags": {"amenity": "cafe", "name": "Caf\u00e9 Downtown", "name:fr": "Caf\u00e9 Downtown"}}, {"type": "node", "id": 8226996156, "lat": 35.7104159, "lon": 10.1058238, "tags": {"amenity": "cafe", "name": "Tea Time"}}, {"type": "node", "id": 8397889439, "lat": 35.6700185, "lon": 10.1000546, "tags": {"contact:facebook": "https://www.facebook.com/lilyaboutiquekairouan/", "name": "Lilya Boutique", "shop": "clothes"}}, {"type": "node", "id": 8805219507, "lat": 35.9802991, "lon": 10.1014155}, {"type": "node", "id": 8805219508, "lat": 35.9801861, "lon": 10.1012622}, {"type": "node", "id": 8805219509, "lat": 35.9801674, "lon": 10.1012833}, {"type": "node", "id": 8805219510, "lat": 35.9801452, "lon": 10.1012532}, {"type": "node", "id": 8805219511, "lat": 35.980113, "lon": 10.1012894}, {"type": "node", "id": 8805219512, "lat": 35.9801411, "lon": 10.1013277}, {"type": "node", "id": 8805219513, "lat": 35.9801288, "lon": 10.1013415}, {"type": "node", "id": 8805219514, "lat": 35.9801546, "lon": 10.1013765}, {"type": "node", "id": 8805219515, "lat": 35.9801246, "lon": 10.1014103}, {"type": "node", "id": 8805219516, "lat": 35.9802059, "lon": 10.1015205}, {"type": "node", "id": 8805220127, "lat": 35.9786933, "lon": 10.1005116, "tags": {"addr:city": "Rwawna", "addr:street": "Sbikha - Dar El Jamiia", "name": "\u0643\u0634\u0643 \u0627\u0644\u0632\u0639\u064a\u0645", "name:ar": "\u0643\u0634\u0643 \u0627\u0644\u0632\u0639\u064a\u0645", "name:fr": "Zaaim", "opening_hours": "Mo-Su 07:00-00:00", "payment:cash": "yes", "shop": "kiosk"}}, {"type": "node", "id": 8805220129, "lat": 35.9738013, "lon": 10.0981581}, {"type": "node", "id": 8805220130, "lat": 35.9738356, "lon": 10.0981817}, {"type": "node", "id": 8805220131, "lat": 35.9738, "lon": 10.0982609}, {"type": "node", "id": 8805220132, "lat": 35.9737657, "lon": 10.0982373}, {"type": "node", "id": 8805220138, "lat": 35.9707743, "lon": 10.11084, "tags": {"addr:street": "Rwawna - Trabelsia", "opening_hours": "sunrize-sunset", "payment:cash": "yes", "shop": "kiosk"}}, {"type": "node", "id": 11116275105, "lat": 35.6150836, "lon": 9.9253732, "tags": {"amenity": "pharmacy"}}, {"type": "node", "id": 11116275106, "lat": 35.6166761, "lon": 9.9282696, "tags": {"amenity": "pharmacy"}}, {"type": "node", "id": 11645039259, "lat": 35.6909705, "lon": 10.0887339, "tags": {"amenity": "cafe", "name": "Caf\u00e9 Fatnassi-AFH", "name:fr": "Caf\u00e9 Fatnassi-AFH"}}, {"type": "node", "id": 12239498701, "lat": 35.6850994, "lon": 10.0947446, "tags": {"name": "Monoprix", "shop": "supermarket"}}, {"type": "node", "id": 12658246739, "lat": 35.6916821, "lon": 10.1023117, "tags": {"amenity": "cafe", "cuisine": "tea;shisha;cafe", "internet_access": "yes", "internet_access:fee": "no", "name": "Seven Keys"}}, {"type": "way", "id": 124333217, "nodes": [1384171071, 1384171074, 1384171070, 1384171065, 1384171071], "tags": {"building": "yes", "shop": "convenience"}}, {"type": "way", "id": 679286536, "nodes": [6360856340, 6360856341, 6360856342, 6360856343, 6360856344, 6360856345, 6360856346, 6360856347, 6360856348, 6360856349, 6360856340], "tags": {"building": "yes", "name": "Afar Market", "shop": "supermarket"}}, {"type": "way", "id": 951282423, "nodes": [8805219507, 8805219508, 8805219509, 8805219510, 8805219511, 8805219512, 8805219513, 8805219514, 8805219515, 8805219516, 8805219507], "tags": {"amenity": "cafe", "building": "yes", "name": "\u0645\u0642\u0647\u0649 \u0627\u0644\u062b\u0648\u0631\u0629", "name:ar": "\u0645\u0642\u0647\u0649 \u0627\u0644\u062b\u0648\u0631\u0629", "name:fr": "Caf\u00e9 La R\u00e9volution"}}, {"type": "way", "id": 951282425, "nodes": [8805220129, 8805220130, 8805220131, 8805220132, 8805220129], "tags": {"addr:city": "Rwawna", "addr:street": "Sbikha - Dar El Jamiia", "building": "yes", "opening_hours": "sunrise-sunset", "opening_hours:covid19": "closed", "payment:cash": "yes", "shop": "supermarket"}}]}