{"version": 0.6, "generator": "Overpass API 0.7.62.8 e802775f", "osm3s": {"timestamp_osm_base": "2025-12-20T09:17:17Z", "copyright": "The data included in this document is from www.openstreetmap.org. The data is made available under ODbL."}, "elements": [{"type": "node", "id": 4117140552, "lat": 34.8603074, "lon": 9.7831068, "tags": {"amenity": "cafe", "internet_access": "yes", "name": "-\u0627\u0644\u0645\u0631\u0643\u0632 \u0627\u0644\u062b\u0642\u0627\u0641\u064a -\u0628\u064a\u062a\u0647\u0648\u0641\u0646", "name:ar": "-\u0627\u0644\u0645\u0631\u0643\u0632 \u0627\u0644\u062b\u0642\u0627\u0641\u064a -\u0628\u064a\u062a\u0647\u0648\u0641\u0646", "name:fr": "Beethoven Center", "smoking": "yes"}}, {"type": "node", "id": 4117140554, "lat": 34.862036, "lon": 9.7844736, "tags": {"amenity": "cafe", "cuisine": "coffee_shop", "internet_access": "no", "name": "\u0645\u0642\u0647\u0649 \u0633\u0645\u0631\u0642\u0646\u062f", "name:ar": "\u0645\u0642\u0647\u0649 \u0633\u0645\u0631\u0642\u0646\u062f", "smoking": "yes"}}, {"type": "node", "id": 4117140555, "lat": 34.8632047, "lon": 9.7835536, "tags": {"amenity": "cafe", "internet_access": "no", "name": "\u0645\u0642\u0647\u0649 \u0627\u0644\u062c\u0648\u0631\u0646\u0627\u0644", "name:ar": "\u0645\u0642\u0647\u0649 \u0627\u0644\u062c\u0648\u0631\u0646\u0627\u0644", "name:fr": "Caf\u00e9 Journal", "smoking": "yes"}}, {"type": "node", "id": 4117140557, "lat": 34.8608788, "lon": 9.7858861, "tags": {"amenity": "cafe", "internet_access": "no", "smoking": "yes"}}, {"type": "node", "id": 4117140567, "lat": 34.8568727, "lon": 9.7850503, "tags": {"amenity": "cafe", "name": "\u0645\u0642\u0647\u064a \u0627\u0644\u062c\u0648\u0643\u0646\u062f\u0627", "name:ar": "\u0645\u0642\u0647\u064a \u0627\u0644\u062c\u0648\u0643\u0646\u062f\u0627"}}, {"type": "node", "id": 4117140573, "lat": 34.8544472, "lon": 9.7836985, "tags": {"amenity": "cafe"}}, {"type": "node", "id": 4117140576, "lat": 34.8532894, "lon": 9.7829421, "tags": {"amenity": "cafe", "name": "\u0645\u0642\u0647\u0649 \u0627\u0644\u0645\u0627\u0644\u0648\u0641", "name:ar": "\u0645\u0642\u0647\u0649 \u0627\u0644\u0645\u0627\u0644\u0648\u0641"}}, {"type": "node", "id": 4117141289, "lat": 34.855808, "lon": 9.7867561, "tags": {"amenity": "cafe"}}, {"type": "node", "id": 4117141290, "lat": 34.8557573, "lon": 9.7863894, "tags": {"amenity": "cafe"}}, {"type": "node", "id": 4117141310, "lat": 34.8602128, "lon": 9.786036, "tags": {"amenity": "pharmacy", "healthcare": "pharmacy"}}, {"type": "node", "id": 4117141312, "lat": 34.8598651, "lon": 9.786681, "tags": {"amenity": "cafe", "name": "\u0645\u0642\u0647\u0649 \u0625\u0628\u0646 \u062e\u0644\u062f\u0648\u0646", "name:ar": "\u0645\u0642\u0647\u0649 \u0625\u0628\u0646 \u062e\u0644\u062f\u0648\u0646"}}, {"type": "node", "id": 4117141313, "lat": 34.8594914, "lon": 9.7874763, "tags": {"amenity": "pharmacy", "healthcare": "pharmacy"}}, {"type": "node", "id": 4117141325, "lat": 34.8620125, "lon": 9.7869635, "tags": {"amenity": "cafe", "name": "\u0645\u0642\u0647\u0649 \u0627\u0644\u063a\u0646\u0645", "name:ar": "\u0645\u0642\u0647\u0649 \u0627\u0644\u063a\u0646\u0645"}}, {"type": "node", "id": 4117141339, "lat": 34.8562649, "lon": 9.7950328, "tags": {"amenity": "cafe", "name": "Espace Mandela", "type": "cultural space"}}, {"type": "node", "id": 6957243848, "lat": 34.7355029, "lon": 10.0933181, "tags": {"addr:city": "\u0635\u0641\u0627\u0642\u0633", "addr:city:ar": "\u0635\u0641\u0627\u0642\u0633", "addr:street": "Avenue Habib Bourguiba Bir Ali Ben Khelifa", "amenity": "pharmacy", "dispensing": "yes", "healthcare": "pharmacy", "name": "\u0635\u064a\u062f\u0644\u064a\u0629 \u0645\u062d\u0645\u062f \u0627\u0644\u0632\u0648\u0627\u063a\u064a", "name:ar": "\u0635\u064a\u062f\u0644\u064a\u0629 \u0645\u062d\u0645\u062f \u0627\u0644\u0632\u0648\u0627\u063a\u064a", "name:fr": "Pharmacie Mohamed Zouaghi", "opening_hours": "Mo-Fr 08:30-13:00, 13:00-19:30; Sa 08:30-13:00", "phone": "+216 74 277 105;+216 98 211 342"}}, {"type": "node", "id": 7030973556, "lat": 34.7541218, "lon": 10.1784247, "tags": {"addr:postcode": "3040", "amenity": "pharmacy", "dispensing": "yes", "healthcare": "pharmacy", "name": "\u0635\u064a\u062f\u0644\u064a\u0629 \u0627\u0644\u0644\u0637\u0627\u064a\u0641\u0629", "name:ar": "\u0635\u064a\u062f\u0644\u064a\u0629 \u0627\u0644\u0644\u0637\u0627\u064a\u0641\u0629", "name:fr": "Pharmacie Letaifa", "opening_hours": "Mo-Fr 08:30-13:00, 15:00-19:30; Sa 08:30-13:00"}}, {"type": "node", "id": 7444683083, "lat": 34.7338752, "lon": 10.0933578, "tags": {"addr:street": "Av. des Martyrs Bir Ali Ben Khlifa", "amenity": "pharmacy", "dispensing": "yes", "healthcare": "pharmacy", "name": "\u0635\u064a\u062f\u0644\u064a\u0629 \u0645\u0646\u064a\u0629 \u062f\u0628\u0648\u0628\u0629", "name:ar": "\u0635\u064a\u062f\u0644\u064a\u0629 \u0645\u0646\u064a\u0629 \u062f\u0628\u0648\u0628\u0629", "name:fr": "Pharmacie Monia Dbouba", "opening_hours": "Mo-Fr 08:30-13:00, 15:00-19:30; Sa 08:30-13:00", "phone": "+216 74 277 042"}}, {"type": "node", "id": 8187121834, "lat": 34.7536468, "lon": 10.1784627, "tags": {"amenity": "cafe", "name": "Caf\u00e9 Hatem", "name:fr": "Caf\u00e9 Hatem"}}, {"type": "node", "id": 9383385094, "lat": 35.0442476, "lon": 10.0552181, "tags": {"amenity": "cafe", "name": "Caf\u00e9 Ben Othman"}}, {"type": "node", "id": 9383385095, "lat": 35.0469892, "lon": 10.0415918, "tags": {"amenity": "cafe", "name": "Caf\u00e9 Ennajeh"}}, {"type": "node", "id": 9383385096, "lat": 35.0573418, "lon": 9.9814154, "tags": {"amenity": "cafe", "name": "Caf\u00e9 Erranzez"}}, {"type": "node", "id": 12787339380, "lat": 34.6759613, "lon": 9.748193}, {"type": "node", "id": 12787339381, "lat": 34.6759415, "lon": 9.7482256}, {"type": "node", "id": 12787339382, "lat": 34.6758955, "lon": 9.7481866}, {"type": "node", "id": 12787339383, "lat": 34.67592, "lon": 9.7481548}, {"type": "way", "id": 1381294291, "nodes": [12787339380, 12787339381, 12787339382, 12787339383, 12787339380], "tags": {"addr:city": "\u0627\u0644\u0632\u0648\u0627\u0631\u0639", "building": "yes", "name": "\u062d\u0627\u0646\u0648\u062a \u062c\u0645\u0639\u064a\u0629 \u0628\u0646\u062a \u0627\u0644\u0637\u0627\u0647\u0631", "operator": "\u0647\u064a\u0627 \u0628\u064a\u062f\u0647\u0627", "shop": "convenience"}}]}