{"version": 0.6, "generator": "Overpass API 0.7.62.8 e802775f", "osm3s": {"timestamp_osm_base": "2025-12-20T09:24:18Z", "copyright": "The data included in this document is from www.openstreetmap.org. The data is made available under ODbL."}, "elements": [{"type": "node", "id": 558051337, "lat": 35.5272082, "lon": 11.033276, "tags": {"amenity": "pharmacy", "healthcare": "pharmacy", "name": "Zonepara Pharmacie"}}, {"type": "node", "id": 558051339, "lat": 35.5271157, "lon": 11.0332598, "tags": {"shop": "supermarket"}}, {"type": "node", "id": 558538405, "lat": 35.5052868, "lon": 11.0708601, "tags": {"addr:city": "\u0627\u0644\u0645\u0647\u062f\u064a\u0629", "addr:city:ar": "\u0627\u0644\u0645\u0647\u062f\u064a\u0629", "amenity": "cafe", "name": "\u0627\u0644\u0643\u0648\u0634\u0629", "name:ar": "\u0627\u0644\u0643\u0648\u0634\u0629", "name:fr": "Al Koucha"}}, {"type": "node", "id": 974779598, "lat": 35.2348924, "lon": 11.1144153, "tags": {"addr:city": "\u0627\u0644\u0634\u0627\u0628\u0629", "addr:postcode": "5170", "amenity": "pharmacy", "dispensing": "yes", "healthcare": "pharmacy"}}, {"type": "node", "id": 974779874, "lat": 35.2302244, "lon": 11.1126826, "tags": {"amenity": "pharmacy", "dispensing": "yes", "healthcare": "pharmacy"}}, {"type": "node", "id": 974797357, "lat": 35.2443152, "lon": 11.1294625, "tags": {"shop": "convenience"}}, {"type": "node", "id": 974800833, "lat": 35.2374804, "lon": 11.1165793, "tags": {"addr:city": "\u0627\u0644\u0634\u0627\u0628\u0629", "addr:postcode": "5170", "amenity": "cafe"}}, {"type": "node", "id": 974800985, "lat": 35.2375155, "lon": 11.1156351, "tags": {"addr:city": "\u0627\u0644\u0634\u0627\u0628\u0629", "addr:postcode": "5170", "amenity": "cafe"}}, {"type": "node", "id": 974803358, "lat": 35.2425277, "lon": 11.1295397, "tags": {"shop": "convenience"}}, {"type": "node", "id": 974803574, "lat": 35.2401093, "lon": 11.1216948, "tags": {"shop": "convenience"}}, {"type": "node", "id": 1056752623, "lat": 35.5042508, "lon": 11.074097, "tags": {"addr:city": "\u0627\u0644\u0645\u0647\u062f\u064a\u0629", "addr:city:ar": "\u0627\u0644\u0645\u0647\u062f\u064a\u0629", "amenity": "cafe", "name": "\u0633\u064a\u062f\u064a \u0633\u0627\u0644\u0645", "name:ar": "\u0633\u064a\u062f\u064a \u0633\u0627\u0644\u0645", "name:fr": "Caf\u00e9 Sidi Salem La Grotte", "phone": "+216 23583563"}}, {"type": "node", "id": 1059230206, "lat": 35.5049407, "lon": 11.0644035, "tags": {"addr:city": "\u0627\u0644\u0645\u0647\u062f\u064a\u0629", "addr:city:ar": "\u0627\u0644\u0645\u0647\u062f\u064a\u0629", "amenity": "cafe", "name": "\u0627\u0644\u0632\u0647\u0648\u0631", "name:ar": "\u0627\u0644\u0632\u0647\u0648\u0631", "name:en": "Al-Zouhour", "name:fr": "Al-Zouhour"}}, {"type": "node", "id": 1060330726, "lat": 35.5027914, "lon": 11.069487, "tags": {"addr:city": "\u0627\u0644\u0645\u0647\u062f\u064a\u0629", "addr:city:ar": "\u0627\u0644\u0645\u0647\u062f\u064a\u0629", "amenity": "pharmacy", "healthcare": "pharmacy"}}, {"type": "node", "id": 1060408512, "lat": 35.5069756, "lon": 11.0523459, "tags": {"brand:wikidata": "Q2689639", "name": "\u0643\u0627\u0631\u0641\u0648\u0631 \u0645\u0627\u0631\u0643\u062a", "name:ar": "\u0643\u0627\u0631\u0641\u0648\u0631 \u0645\u0627\u0631\u0643\u062a", "name:en": "Carrefour Market", "name:fr": "Carrefour Market", "opening_hours": "Oct-Mar: Mo-Su 08:00-22:00; Apr-Sep: Mo-Su 08:00-21:00", "shop": "supermarket", "wheelchair": "yes"}}, {"type": "node", "id": 1935885178, "lat": 35.5137634, "lon": 11.0426572, "tags": {"amenity": "pharmacy", "healthcare": "pharmacy", "name": "\u0635\u064a\u062f\u0644\u064a\u0629 \u0647\u064a\u0628\u0648\u0646", "name:ar": "\u0635\u064a\u062f\u0644\u064a\u0629 \u0647\u064a\u0628\u0648\u0646", "name:fr": "Kalthoum Aloulou ep Chelaifa", "postal_code": "5111"}}, {"type": "node", "id": 1935889309, "lat": 35.5134512, "lon": 11.0446769, "tags": {"shop": "supermarket"}}, {"type": "node", "id": 1935890438, "lat": 35.5143398, "lon": 11.0413671, "tags": {"shop": "convenience"}}, {"type": "node", "id": 1935897293, "lat": 35.5122854, "lon": 11.0468522, "tags": {"shop": "clothes"}}, {"type": "node", "id": 1935971250, "lat": 35.5035451, "lon": 11.0691334, "tags": {"addr:city": "\u0627\u0644\u0645\u0647\u062f\u064a\u0629", "addr:city:ar": "\u0627\u0644\u0645\u0647\u062f\u064a\u0629", "shop": "clothes"}}, {"type": "node", "id": 1935979665, "lat": 35.5038683, "lon": 11.0678244, "tags": {"shop": "clothes"}}, {"type": "node", "id": 1935980421, "lat": 35.5032701, "lon": 11.0672855, "tags": {"addr:city": "\u0627\u0644\u0645\u0647\u062f\u064a\u0629", "addr:city:ar": "\u0627\u0644\u0645\u0647\u062f\u064a\u0629", "shop": "clothes"}}, {"type": "node", "id": 2587193197, "lat": 35.4964013, "lon": 10.9169031, "tags": {"name": "\u0641\u062a\u062d\u064a \u0627\u0644\u0643\u0631\u0634\u064a \u0644\u0644\u0628\u0642\u0627\u0644\u0629", "name:ar": "\u0641\u062a\u062d\u064a \u0627\u0644\u0643\u0631\u0634\u064a \u0644\u0644\u0628\u0642\u0627\u0644\u0629", "shop": "convenience"}}, {"type": "node", "id": 2698473916, "lat": 35.5049308, "lon": 11.0640651, "tags": {"addr:city": "\u0627\u0644\u0645\u0647\u062f\u064a\u0629", "addr:city:ar": "\u0627\u0644\u0645\u0647\u062f\u064a\u0629", "addr:housenumber": "65", "addr:postcode": "5100", "addr:street": "\u0634\u0627\u0631\u0639 \u0627\u0644\u062d\u0628\u064a\u0628 \u0628\u0648\u0631\u0642\u064a\u0628\u0629", "addr:street:ar": "\u0634\u0627\u0631\u0639 \u0627\u0644\u062d\u0628\u064a\u0628 \u0628\u0648\u0631\u0642\u064a\u0628\u0629", "amenity": "pharmacy", "email": "airsemi1@gmail.com", "fax": "+216 73 681 900", "healthcare": "pharmacy", "name": "\u0635\u064a\u062f\u0644\u064a\u0629 \u0645\u062d\u0645\u062f \u0627\u0644\u0633\u0642\u0627", "name:ar": "\u0635\u064a\u062f\u0644\u064a\u0629 \u0645\u062d\u0645\u062f \u0627\u0644\u0633\u0642\u0627", "name:fr": "Sakka. M", "opening_hours": "Sep-May: Mo-Fr 08:30-13:00,15:00-19:30; Sep-May: Sa 08:30-13:00", "phone": "+216 73 681 931"}}, {"type": "node", "id": 4009732249, "lat": 35.5077863, "lon": 11.0562988, "tags": {"addr:city": "mahdia", "addr:housenumber": "237", "addr:postcode": "5100", "addr:street": "Av. H. Bourguiba", "name": "Blue Island", "opening_hours": "09:30-13:00,15:30-20:00", "operator": "Kraiem Youssef", "shop": "clothes"}}, {"type": "node", "id": 4353065836, "lat": 35.235511, "lon": 11.1419902, "tags": {"name": "\u0628\u0642\u0627\u0644\u0629 \u0645\u0627\u0644\u0643", "name:ar": "\u0628\u0642\u0627\u0644\u0629 \u0645\u0627\u0644\u0643", "name:fr": "Epicerie Malek", "operator": "\u0633\u0639\u0627\u062f \u0642\u0628\u0633\u064a", "operator:ar": "\u0633\u0639\u0627\u062f \u0642\u0628\u0633\u064a", "operator:fr": "Souad Guebsi", "shop": "supermarket"}}, {"type": "node", "id": 4353065883, "lat": 35.2357494, "lon": 11.1397418, "tags": {"name": "\u0628\u0642\u0627\u0644\u0629 \u0622\u0644 \u0647\u0645\u0627\u0645", "name:ar": "\u0628\u0642\u0627\u0644\u0629 \u0622\u0644 \u0647\u0645\u0627\u0645", "name:fr": "Epicerie El Hmam", "operator": "\u0628\u0634\u064a\u0631 \u0647\u0645\u0627\u0645", "operator:ar": "\u0628\u0634\u064a\u0631 \u0647\u0645\u0627\u0645", "operator:fr": "Bechir Hmam", "shop": "supermarket"}}, {"type": "node", "id": 4816667978, "lat": 35.5001572, "lon": 11.0568474, "tags": {"name": "\u00c9picerie Manissa", "name:fr": "\u00c9picerie Manissa", "shop": "supermarket"}}, {"type": "node", "id": 4816667979, "lat": 35.5044433, "lon": 11.071297, "tags": {"addr:city": "\u0627\u0644\u0645\u0647\u062f\u064a\u0629", "addr:city:ar": "\u0627\u0644\u0645\u0647\u062f\u064a\u0629", "amenity": "cafe", "name": "\u0645\u0642\u0647\u0649 \u0627\u0644\u0645\u062f\u064a\u0646\u0629", "name:ar": "\u0645\u0642\u0647\u0649 \u0627\u0644\u0645\u062f\u064a\u0646\u0629", "name:fr": "caf\u00e9 elmedina"}}, {"type": "node", "id": 4839745124, "lat": 35.5182374, "lon": 11.0424551, "tags": {"amenity": "cafe", "name": "\u0645\u0642\u0647\u0649 \u0627\u0644\u062c\u0648\u0647\u0631\u0629", "name:ar": "\u0645\u0642\u0647\u0649 \u0627\u0644\u062c\u0648\u0647\u0631\u0629", "name:fr": "Caf\u00e9 Jawhara"}}, {"type": "node", "id": 5842719387, "lat": 35.5077571, "lon": 11.0564052, "tags": {"name": "Oasis", "shop": "clothes"}}, {"type": "node", "id": 5842719388, "lat": 35.5075957, "lon": 11.0563947, "tags": {"name": "Exist", "shop": "clothes"}}, {"type": "node", "id": 6013862333, "lat": 35.5032216, "lon": 11.0688991, "tags": {"addr:city": "\u0627\u0644\u0645\u0647\u062f\u064a\u0629", "addr:city:ar": "\u0627\u0644\u0645\u0647\u062f\u064a\u0629", "amenity": "cafe"}}, {"type": "node", "id": 6379306567, "lat": 35.5054623, "lon": 11.0649076, "tags": {"amenity": "cafe", "name": "La Bella"}}, {"type": "node", "id": 6379307816, "lat": 35.4962071, "lon": 11.0611767, "tags": {"amenity": "cafe", "name": "New Moon"}}, {"type": "node", "id": 6379307817, "lat": 35.4976987, "lon": 11.0538493, "tags": {"amenity": "cafe", "name": "Caf\u00e9 L'\u00c9TOILE"}}, {"type": "node", "id": 6379307818, "lat": 35.5015267, "lon": 11.0639946}, {"type": "node", "id": 6379307819, "lat": 35.5013685, "lon": 11.0640912}, {"type": "node", "id": 6379307820, "lat": 35.5015172, "lon": 11.0644777}, {"type": "node", "id": 6379307821, "lat": 35.5017554, "lon": 11.0643427}, {"type": "node", "id": 6379307822, "lat": 35.5017135, "lon": 11.0642422}, {"type": "node", "id": 6379307823, "lat": 35.5016419, "lon": 11.0642828}, {"type": "node", "id": 6379307836, "lat": 35.5018941, "lon": 11.0658577, "tags": {"addr:city": "\u0627\u0644\u0645\u0647\u062f\u064a\u0629", "amenity": "cafe", "name": "\u0627\u0644\u0642\u062f\u0633", "name:ar": "\u0627\u0644\u0642\u062f\u0633", "name:fr": "El Qudes"}}, {"type": "node", "id": 6379307837, "lat": 35.5021478, "lon": 11.0663037, "tags": {"amenity": "cafe", "name": "PortSide"}}, {"type": "node", "id": 6379307838, "lat": 35.5026805, "lon": 11.067731, "tags": {"amenity": "cafe", "name": "La Marsana"}}, {"type": "node", "id": 6379307843, "lat": 35.5042249, "lon": 11.0730015, "tags": {"addr:city": "\u0627\u0644\u0645\u0647\u062f\u064a\u0629", "addr:city:ar": "\u0627\u0644\u0645\u0647\u062f\u064a\u0629", "amenity": "cafe", "name": "\u0645\u0642\u0647\u0649 \u0627\u0644\u0645\u0647\u062f\u064a", "name:ar": "\u0645\u0642\u0647\u0649 \u0627\u0644\u0645\u0647\u062f\u064a", "name:fr": "Caf\u00e9 El Mehdi"}}, {"type": "node", "id": 6434026941, "lat": 35.5179006, "lon": 11.0424293, "tags": {"amenity": "cafe", "name": "\u0645\u0642\u0647\u0649 \u0628\u0627\u0631\u064a\u0633", "name:ar": "\u0645\u0642\u0647\u0649 \u0628\u0627\u0631\u064a\u0633", "name:fr": "Caf\u00e9 Paris"}}, {"type": "node", "id": 6537591259, "lat": 35.5032206, "lon": 11.0693973, "tags": {"addr:city": "\u0627\u0644\u0645\u0647\u062f\u064a\u0629", "addr:city:ar": "\u0627\u0644\u0645\u0647\u062f\u064a\u0629", "amenity": "cafe", "name": "\u0645\u0642\u0647\u0649 \u0627\u0644\u0645\u0647\u062f\u064a\u0629", "name:ar": "\u0645\u0642\u0647\u0649 \u0627\u0644\u0645\u0647\u062f\u064a\u0629", "name:fr": "Caf\u00e9 de Mahdia"}}, {"type": "node", "id": 6537591260, "lat": 35.5034207, "lon": 11.0693459, "tags": {"addr:city": "\u0627\u0644\u0645\u0647\u062f\u064a\u0629", "addr:city:ar": "\u0627\u0644\u0645\u0647\u062f\u064a\u0629", "amenity": "cafe", "name": "\u0645\u0642\u0647\u0649 \u062a\u0648\u0646\u0633", "name:ar": "\u0645\u0642\u0647\u0649 \u062a\u0648\u0646\u0633", "name:fr": "Caf\u00e9 de Tunis"}}, {"type": "node", "id": 6617761206, "lat": 35.2236257, "lon": 11.1107971, "tags": {"amenity": "cafe", "name": "\u0645\u0642\u0647\u0649 \u0627\u0644\u0646\u0633\u064a\u0645", "name:ar": "\u0645\u0642\u0647\u0649 \u0627\u0644\u0646\u0633\u064a\u0645", "name:fr": "Caf\u00e9 Ennasim"}}, {"type": "node", "id": 6715448284, "lat": 35.5237682, "lon": 11.0379747, "tags": {"amenity": "cafe", "name": "Caf\u00e9 Oxyg\u00e8ne", "name:ar": "\u0642\u0627\u0639\u0629 \u0634\u0627\u064a \u0623\u0648\u0643\u0633\u064a\u062c\u064a\u0646", "name:fr": "Caf\u00e9 Oxyg\u00e8ne"}}, {"type": "node", "id": 7236953868, "lat": 35.5163274, "lon": 11.0445506, "tags": {"amenity": "cafe", "name": "The Famous"}}, {"type": "node", "id": 7236953870, "lat": 35.5194525, "lon": 11.0430486, "tags": {"amenity": "cafe", "name": "Dar El Masri"}}, {"type": "node", "id": 7236953871, "lat": 35.5217584, "lon": 11.041897, "tags": {"amenity": "cafe", "name": "Deer"}}, {"type": "node", "id": 7236953872, "lat": 35.5226262, "lon": 11.0413595, "tags": {"amenity": "cafe", "name": "Barberousse"}}, {"type": "node", "id": 7236953873, "lat": 35.523142, "lon": 11.0410155, "tags": {"amenity": "cafe", "name": "Flamengo Coffee", "name:fr": "Flamengo Coffee"}}, {"type": "node", "id": 7616916340, "lat": 35.5194165, "lon": 11.0359453, "tags": {"amenity": "cafe", "internet_access": "wlan", "internet_access:fee": "no", "name": "\u0645\u0642\u0647\u0649 \u0645\u0631\u0633\u064a\u0644\u064a\u0627", "name:ar": "\u0645\u0642\u0647\u0649 \u0645\u0631\u0633\u064a\u0644\u064a\u0627"}}, {"type": "node", "id": 7616916341, "lat": 35.5229186, "lon": 11.0319422, "tags": {"amenity": "cafe", "name": "\u0645\u0642\u0647\u0649 \u062d\u0630\u0627\u0645\u064a", "name:ar": "\u0645\u0642\u0647\u0649 \u062d\u0630\u0627\u0645\u064a"}}, {"type": "node", "id": 7796306558, "lat": 35.1680827, "lon": 11.0403424, "tags": {"amenity": "cafe", "name": "\u0645\u0642\u0647\u0649 \u0641\u064a\u0646\u064a\u0633\u064a\u0627", "name:ar": "\u0645\u0642\u0647\u0649 \u0641\u064a\u0646\u064a\u0633\u064a\u0627", "name:fr": "Caf\u00e9 Vinissia"}}, {"type": "node", "id": 7796477691, "lat": 35.4010065, "lon": 11.044631, "tags": {"amenity": "cafe", "name": "Caf\u00e9 La Plage", "name:fr": "Caf\u00e9 La Plage"}}, {"type": "node", "id": 7798875547, "lat": 35.1571251, "lon": 11.0295761, "tags": {"amenity": "cafe", "name": "Caf\u00e9 Rotana", "name:fr": "Caf\u00e9 Rotana"}}, {"type": "node", "id": 7798875549, "lat": 35.1585559, "lon": 11.0305728, "tags": {"amenity": "cafe", "name": "Caf\u00e9 Ezzitouna", "name:fr": "Caf\u00e9 Ezzitouna"}}, {"type": "node", "id": 9014138918, "lat": 35.5110839, "lon": 11.0523909, "tags": {"addr:street": "\u0634\u0627\u0631\u0639 \u0627\u0644\u0637\u0627\u0647\u0631 \u0635\u0641\u0631", "name": "\u062d\u0645\u0627\u062f\u064a \u0639\u0628\u064a\u062f", "name:fr": "Hamadi Abid", "shop": "clothes"}}, {"type": "node", "id": 9055707060, "lat": 35.5048772, "lon": 11.0647142, "tags": {"addr:city": "\u0627\u0644\u0645\u0647\u062f\u064a\u0629", "addr:city:ar": "\u0627\u0644\u0645\u0647\u062f\u064a\u0629", "name": "\u0625\u0645 \u062c\u064a \u0628\u0631\u0643\u0633\u064a", "name:ar": "\u0625\u0645 \u062c\u064a \u0628\u0631\u0643\u0633\u064a", "name:en": "MG Proxi", "name:fr": "MG Proxi", "shop": "supermarket"}}, {"type": "node", "id": 9833783199, "lat": 35.3015783, "lon": 11.0442986, "tags": {"amenity": "cafe", "name": "Caf\u00e9 Khmara"}}, {"type": "node", "id": 10018736493, "lat": 35.2686139, "lon": 10.8133028, "tags": {"amenity": "cafe", "name": "Caf\u00e9 El Oued", "name:fr": "Caf\u00e9 El Oued"}}, {"type": "node", "id": 11117009805, "lat": 35.4184193, "lon": 10.9991632, "tags": {"brand": "Carrefour Market", "brand:wikidata": "Q2689639", "name": "Carrefour Market", "name:en": "Carrefour market", "shop": "convenience"}}, {"type": "node", "id": 11117365905, "lat": 35.465835, "lon": 11.0416017, "tags": {"name:en": "Aziza", "shop": "supermarket"}}, {"type": "node", "id": 12064830449, "lat": 35.5025593, "lon": 11.0672009, "tags": {"amenity": "cafe", "name": "Le Corsaire"}}, {"type": "node", "id": 12064830450, "lat": 35.5026185, "lon": 11.0673834, "tags": {"amenity": "cafe"}}, {"type": "node", "id": 12064842986, "lat": 35.5027721, "lon": 11.0680073}, {"type": "node", "id": 12064842987, "lat": 35.5028606, "lon": 11.0679156}, {"type": "node", "id": 12064842988, "lat": 35.5028209, "lon": 11.0678597}, {"type": "node", "id": 12064842989, "lat": 35.5027329, "lon": 11.0679501}, {"type": "node", "id": 12065307445, "lat": 35.5011419, "lon": 11.0504405}, {"type": "node", "id": 12065307446, "lat": 35.5011446, "lon": 11.0504497}, {"type": "node", "id": 12065307447, "lat": 35.5010982, "lon": 11.0504653}, {"type": "node", "id": 12065307448, "lat": 35.5010967, "lon": 11.0504557}, {"type": "node", "id": 12065307449, "lat": 35.5011447, "lon": 11.0504594}, {"type": "node", "id": 12065307450, "lat": 35.5011422, "lon": 11.0504686}, {"type": "node", "id": 12065307451, "lat": 35.5011375, "lon": 11.0504764}, {"type": "node", "id": 12065307452, "lat": 35.5011309, "lon": 11.0504819}, {"type": "node", "id": 12065307453, "lat": 35.5011233, "lon": 11.0504844}, {"type": "node", "id": 12065307454, "lat": 35.5011154, "lon": 11.0504838}, {"type": "node", "id": 12065307455, "lat": 35.5011081, "lon": 11.0504801}, {"type": "node", "id": 12065307456, "lat": 35.5011022, "lon": 11.0504737}, {"type": "node", "id": 12065307457, "lat": 35.5010978, "lon": 11.050446}, {"type": "node", "id": 12065307458, "lat": 35.5011015, "lon": 11.0504373}, {"type": "node", "id": 12065307459, "lat": 35.5011072, "lon": 11.0504305}, {"type": "node", "id": 12065307460, "lat": 35.5011144, "lon": 11.0504264}, {"type": "node", "id": 12065307461, "lat": 35.5011224, "lon": 11.0504254}, {"type": "node", "id": 12065307462, "lat": 35.5011302, "lon": 11.0504276}, {"type": "node", "id": 12065307463, "lat": 35.5011369, "lon": 11.0504329}, {"type": "node", "id": 12158794638, "lat": 35.4991837, "lon": 11.0501075, "tags": {"amenity": "cafe", "name": "La Libert\u00e9"}}, {"type": "node", "id": 12165787219, "lat": 35.5053724, "lon": 11.060727, "tags": {"shop": "clothes"}}, {"type": "node", "id": 12165787220, "lat": 35.505222, "lon": 11.0607988, "tags": {"shop": "clothes"}}, {"type": "node", "id": 12165787221, "lat": 35.5052554, "lon": 11.060549, "tags": {"shop": "clothes"}}, {"type": "node", "id": 12165825846, "lat": 35.5069876, "lon": 11.0558214, "tags": {"amenity": "cafe"}}, {"type": "node", "id": 12165828296, "lat": 35.5014862, "lon": 11.0599464, "tags": {"name": "Superette", "shop": "convenience"}}, {"type": "node", "id": 12165895739, "lat": 35.5077617, "lon": 11.0524369, "tags": {"amenity": "cafe", "indoor_seating": "yes", "outdoor_seating": "yes"}}, {"type": "node", "id": 12165895740, "lat": 35.5077085, "lon": 11.0525975, "tags": {"amenity": "cafe", "indoor_seating": "yes", "name": "Mashmoom cafe", "outdoor_seating": "yes"}}, {"type": "node", "id": 12178484078, "lat": 35.5046363, "lon": 11.0721038, "tags": {"shop": "convenience"}}, {"type": "node", "id": 12178484079, "lat": 35.5047837, "lon": 11.0717692, "tags": {"amenity": "cafe", "name": "Brothers Coffee"}}, {"type": "node", "id": 12186609562, "lat": 35.5043596, "lon": 11.0707265, "tags": {"amenity": "cafe", "name": "Caf\u00e9 Gamra"}}, {"type": "node", "id": 12188030679, "lat": 35.504981, "lon": 11.0522637, "tags": {"amenity": "cafe"}}, {"type": "node", "id": 12188030682, "lat": 35.5050068, "lon": 11.0518252, "tags": {"shop": "clothes"}}, {"type": "node", "id": 12348825198, "lat": 35.5133667, "lon": 11.048257, "tags": {"amenity": "cafe", "name": "El Asfoor"}}, {"type": "node", "id": 12348841365, "lat": 35.5251695, "lon": 11.033513, "tags": {"name": "La Sirene", "shop": "convenience"}}, {"type": "node", "id": 12348841861, "lat": 35.5254364, "lon": 11.0330733, "tags": {"amenity": "pharmacy", "name": "Pharmacie de nuit"}}, {"type": "node", "id": 12360297953, "lat": 35.5095011, "lon": 11.0514032, "tags": {"amenity": "pharmacy"}}, {"type": "node", "id": 12360305196, "lat": 35.5089177, "lon": 11.0529336, "tags": {"amenity": "pharmacy", "name:fr": "Khemis"}}, {"type": "node", "id": 12376786578, "lat": 35.5078094, "lon": 11.0517982, "tags": {"name:fr": "Aziza", "shop": "supermarket"}}, {"type": "node", "id": 12376791041, "lat": 35.5205224, "lon": 11.0336453, "tags": {"name:fr": "Superette el Baraka", "shop": "supermarket"}}, {"type": "node", "id": 12376800936, "lat": 35.5079184, "lon": 11.0558865, "tags": {"amenity": "pharmacy", "name": "Paradise"}}, {"type": "node", "id": 12606975484, "lat": 35.3906491, "lon": 11.0342657}, {"type": "node", "id": 12606975485, "lat": 35.3905777, "lon": 11.0343226}, {"type": "node", "id": 12606975486, "lat": 35.3906755, "lon": 11.0344655}, {"type": "node", "id": 12606975487, "lat": 35.390745, "lon": 11.0343776}, {"type": "node", "id": 13065448511, "lat": 35.5139028, "lon": 11.0415409, "tags": {"name": "Aziza", "name:fr": "Aziza", "shop": "supermarket"}}, {"type": "way", "id": 681230220, "nodes": [6379307818, 6379307819, 6379307820, 6379307821, 6379307822, 6379307823, 6379307818], "tags": {"addr:city": "\u0627\u0644\u0645\u0647\u062f\u064a\u0629", "brand": "Monoprix", "brand:ar": "\u0645\u0648\u0646\u0648\u0628\u0631\u064a", "brand:en": "Monoprix", "brand:wikidata": "Q2719231", "brand:wikipedia": "ar:\u0645\u0648\u0646\u0648\u0628\u0631\u064a (\u0641\u0631\u0646\u0633\u0627)", "building": "yes", "name": "\u0645\u0648\u0646\u0648\u0628\u0631\u064a", "name:ar": "\u0645\u0648\u0646\u0648\u0628\u0631\u064a", "name:en": "Monoprix", "name:fr": "Monoprix", "shop": "supermarket"}}, {"type": "way", "id": 1302704900, "nodes": [12064842987, 12064842988, 12064842989, 12064842986, 12064842987], "tags": {"building": "yes", "shop": "convenience"}}, {"type": "way", "id": 1302762422, "nodes": [12065307457, 12065307458, 12065307459, 12065307460, 12065307461, 12065307462, 12065307463, 12065307445, 12065307446, 12065307449, 12065307450, 12065307451, 12065307452, 12065307453, 12065307454, 12065307455, 12065307456, 12065307447, 12065307448, 12065307457], "tags": {"building": "yes", "shop": "kiosk"}}, {"type": "way", "id": 1361705971, "nodes": [12606975484, 12606975485, 12606975486, 12606975487, 12606975484], "tags": {"building": "yes", "name": "\u0639\u0637\u0631\u064a\u0629 \u062e\u0645\u064e\u064a\u0650\u0651\u0633", "name:aeb": "\u0639\u0637\u0631\u064a\u0629 \u062e\u0645\u064e\u064a\u0650\u0651\u0633", "name:en": "Khmayyes shop", "payment:cash": "yes", "shop": "convenience"}}]}