{"version": 0.6, "generator": "Overpass API 0.7.62.8 e802775f", "osm3s": {"timestamp_osm_base": "2025-12-20T09:21:16Z", "copyright": "The data included in this document is from www.openstreetmap.org. The data is made available under ODbL."}, "elements": [{"type": "node", "id": 1741897017, "lat": 34.5216712, "lon": 10.4988525, "tags": {"addr:city": "\u0627\u0644\u0645\u062d\u0631\u0633", "addr:city:ar": "\u0627\u0644\u0645\u062d\u0631\u0633", "addr:postcode": "3060", "addr:street": "\u0634\u0627\u0631\u0639 \u0627\u0644\u062d\u0628\u064a\u0628 \u0628\u0648\u0631\u0642\u064a\u0628\u0629", "addr:street:ar": "\u0634\u0627\u0631\u0639 \u0627\u0644\u062d\u0628\u064a\u0628 \u0628\u0648\u0631\u0642\u064a\u0628\u0629", "amenity": "cafe", "name": "\u0645\u0642\u0647\u0649 \u0627\u0644\u0642\u062f\u0633", "name:ar": "\u0645\u0642\u0647\u0649 \u0627\u0644\u0642\u062f\u0633", "name:en": "Caf\u00e9 Khods", "name:fr": "Caf\u00e9 Khods"}}, {"type": "node", "id": 1741897026, "lat": 34.5216236, "lon": 10.4985555, "tags": {"addr:city": "\u0627\u0644\u0645\u062d\u0631\u0633", "addr:city:ar": "\u0627\u0644\u0645\u062d\u0631\u0633", "addr:postcode": "3060", "addr:street": "\u0634\u0627\u0631\u0639 \u0627\u0644\u062d\u0628\u064a\u0628 \u0628\u0648\u0631\u0642\u064a\u0628\u0629", "addr:street:ar": "\u0634\u0627\u0631\u0639 \u0627\u0644\u062d\u0628\u064a\u0628 \u0628\u0648\u0631\u0642\u064a\u0628\u0629", "amenity": "cafe", "name": "\u0645\u0642\u0647\u0649 \u064a\u0648\u0646\u0642\u0629", "name:ar": "\u0645\u0642\u0647\u0649 \u064a\u0648\u0646\u0642\u0629", "name:en": "Caf\u00e9 Younga", "name:etymology": "\u064a\u0648\u0646\u0642\u0629", "name:etymology:wikidata": "Q3572870", "name:etymology:wikipedia": "ar:\u064a\u0648\u0646\u0642\u0629", "name:fr": "Caf\u00e9 Younga"}}, {"type": "node", "id": 3210989745, "lat": 34.5330933, "lon": 10.499313, "tags": {"addr:city": "\u0627\u0644\u0645\u062d\u0631\u0633", "addr:city:ar": "\u0627\u0644\u0645\u062d\u0631\u0633", "addr:postcode": "3060", "amenity": "cafe", "cuisine": "pizza"}}, {"type": "node", "id": 3250146869, "lat": 34.5236539, "lon": 10.5020087, "tags": {"addr:city": "\u0627\u0644\u0645\u062d\u0631\u0633", "addr:city:ar": "\u0627\u0644\u0645\u062d\u0631\u0633", "amenity": "cafe"}}, {"type": "node", "id": 3250174713, "lat": 34.5187319, "lon": 10.4796862, "tags": {"amenity": "cafe"}}, {"type": "node", "id": 4829305122, "lat": 34.5236591, "lon": 10.510242, "tags": {"amenity": "cafe", "name": "Caf\u00e9 de La Plage", "name:fr": "Caf\u00e9 de la Plage"}}, {"type": "node", "id": 4912492321, "lat": 34.51654, "lon": 10.4726977, "tags": {"amenity": "cafe"}}, {"type": "node", "id": 5651756820, "lat": 34.5314004, "lon": 10.4997535, "tags": {"addr:street": "rue jamel abdelnaceur", "name": "Boutique alimentation g\u00e9n\u00e9rale ( HANOUT )", "shop": "supermarket"}}, {"type": "node", "id": 6666730023, "lat": 34.4448824, "lon": 10.2895045, "tags": {"amenity": "cafe", "name": "Caf\u00e9 Slimane", "name:fr": "Caf\u00e9 Slimane"}}, {"type": "node", "id": 6666730024, "lat": 34.4451054, "lon": 10.2900908, "tags": {"amenity": "cafe", "name": "Caf\u00e9 Smara", "name:fr": "Caf\u00e9 Smara"}}, {"type": "node", "id": 6953709936, "lat": 34.5216495, "lon": 10.4961423, "tags": {"addr:city": "\u0635\u0641\u0627\u0642\u0633", "addr:city:ar": "\u0635\u0641\u0627\u0642\u0633", "addr:postcode": "3060", "addr:street": "Avenue Habib Bourguiba Mahr\u00e8s", "amenity": "pharmacy", "dispensing": "yes", "healthcare": "pharmacy", "name": "\u0635\u064a\u062f\u0644\u064a\u0629 \u0627\u0644\u0644\u064a\u0644 \u0625\u0643\u0631\u0627\u0645 \u0627\u0644\u0631\u0642\u064a\u0642 \u062d\u0631\u0645 \u0644\u062c\u0646\u0641", "name:ar": "\u0635\u064a\u062f\u0644\u064a\u0629 \u0627\u0644\u0644\u064a\u0644 \u0625\u0643\u0631\u0627\u0645 \u0627\u0644\u0631\u0642\u064a\u0642 \u062d\u0631\u0645 \u0644\u062c\u0646\u0641", "name:fr": "Pharmacie de Nuit Ikram Rekik Ep. Lajnaf", "opening_hours": "Mo-Su 19:30-08:30", "phone": "+216 74 291 888"}}, {"type": "node", "id": 7036888559, "lat": 34.5740024, "lon": 10.581211, "tags": {"addr:city": "\u0646\u0642\u0637\u0629", "addr:postcode": "3044", "addr:street": "Rte Gab\u00e8s Km 24 Nakta Chaffar", "amenity": "pharmacy", "dispensing": "yes", "healthcare": "pharmacy", "name": "\u0635\u064a\u062f\u0644\u064a\u0629 \u0646\u0642\u0637\u0629 \u0627\u0644\u0634\u0641\u0627\u0631 \u0645\u062e\u062a\u0627\u0631 \u0628\u0648\u0639\u062a\u0648\u0631", "name:ar": "\u0635\u064a\u062f\u0644\u064a\u0629 \u0646\u0642\u0637\u0629 \u0627\u0644\u0634\u0641\u0627\u0631 \u0645\u062e\u062a\u0627\u0631 \u0628\u0648\u0639\u062a\u0648\u0631", "name:fr": "Pharmacie Nakta Chaffar Mokhtar Bouattour", "opening_hours": "Mo-Fr 08:30-13:00, 15:00-19:30; Sa 08:30-13:00", "phone": "+216 74 696 044"}}, {"type": "node", "id": 10036622392, "lat": 34.5218337, "lon": 10.2847388, "tags": {"amenity": "cafe", "name": "Caf\u00e9 Najib", "name:fr": "Caf\u00e9 Najib"}}]}