{"version": 0.6, "generator": "Overpass API 0.7.62.8 e802775f", "osm3s": {"timestamp_osm_base": "2025-12-20T09:22:14Z", "copyright": "The data included in this document is from www.openstreetmap.org. The data is made available under ODbL."}, "elements": [{"type": "node", "id": 1977376168, "lat": 32.9288467, "lon": 10.4491108, "tags": {"amenity": "cafe", "name": "Caf\u00e9 Ben Khaldoun", "name:fr": "Caf\u00e9 Ben Khaldoun"}}, {"type": "node", "id": 1977378924, "lat": 32.9295486, "lon": 10.4470684, "tags": {"name": "olibya", "shop": "kiosk"}}, {"type": "node", "id": 2247383393, "lat": 32.9288892, "lon": 10.4460814, "tags": {"amenity": "pharmacy", "dispensing": "no", "healthcare": "pharmacy"}}, {"type": "node", "id": 2247383400, "lat": 32.9303084, "lon": 10.4482256, "tags": {"amenity": "pharmacy", "dispensing": "no", "healthcare": "pharmacy"}}, {"type": "node", "id": 2880584319, "lat": 33.3005239, "lon": 10.2948083}, {"type": "node", "id": 2880584320, "lat": 33.300537, "lon": 10.2949183}, {"type": "node", "id": 2880584321, "lat": 33.3005073, "lon": 10.2949234}, {"type": "node", "id": 2880584322, "lat": 33.3004668, "lon": 10.2948181}, {"type": "node", "id": 2880593007, "lat": 33.2907805, "lon": 10.2996523}, {"type": "node", "id": 2880593008, "lat": 33.290915, "lon": 10.2998186}, {"type": "node", "id": 2880593009, "lat": 33.29085, "lon": 10.2998963}, {"type": "node", "id": 2880593010, "lat": 33.2907065, "lon": 10.2997113}, {"type": "node", "id": 2880595982, "lat": 33.2858897, "lon": 10.3019691}, {"type": "node", "id": 2880595983, "lat": 33.2858188, "lon": 10.3020243}, {"type": "node", "id": 2880595984, "lat": 33.2858647, "lon": 10.3021086}, {"type": "node", "id": 2880595985, "lat": 33.2859356, "lon": 10.3020534}, {"type": "node", "id": 4214548056, "lat": 33.0601863, "lon": 10.3396597, "tags": {"addr:city": "\u063a\u0645\u0631\u0627\u0633\u0646", "amenity": "cafe", "cuisine": "coffee_shop", "internet_access": "no", "name": "\u0645\u0642\u0647\u0649 \u0628\u0648\u062f\u0627\u064a\u0629", "name:ar": "\u0645\u0642\u0647\u0649 \u0628\u0648\u062f\u0627\u064a\u0629", "name:fr": "Caf\u00e9 Boudaya"}}, {"type": "node", "id": 4214548068, "lat": 33.0589424, "lon": 10.3351454, "tags": {"amenity": "pharmacy", "healthcare": "pharmacy"}}, {"type": "node", "id": 4214558331, "lat": 33.0592981, "lon": 10.3402141, "tags": {"addr:city": "\u063a\u0645\u0631\u0627\u0633\u0646", "amenity": "cafe", "internet_access": "wlan", "name": "\u0645\u0642\u0647\u0649 \u0627\u0644\u0645\u062d\u0637\u0651\u0629", "name:ar": "\u0645\u0642\u0647\u0649 \u0627\u0644\u0645\u062d\u0637\u0651\u0629", "name:fr": "Cafe Elmahatta"}}, {"type": "node", "id": 4214558373, "lat": 33.0600432, "lon": 10.3396566, "tags": {"addr:city": "\u063a\u0645\u0631\u0627\u0633\u0646", "addr:postcode": "3220", "amenity": "pharmacy", "healthcare": "pharmacy", "name": "\u0635\u064a\u062f\u0644\u064a\u0629 \u0632\u0643\u0631\u064a\u0627", "name:ar": "\u0635\u064a\u062f\u0644\u064a\u0629 \u0632\u0643\u0631\u064a\u0627", "name:fr": "Pharmacie Zakaria"}}, {"type": "node", "id": 4214558376, "lat": 33.0602909, "lon": 10.3397787, "tags": {"name": "\u0627\u0644\u0639\u0627\u064a\u0628", "name:ar": "\u0627\u0644\u0639\u0627\u064a\u0628", "name:fr": "El Ayeb", "shop": "supermarket"}}, {"type": "node", "id": 4215663934, "lat": 33.3005043, "lon": 10.2948987}, {"type": "node", "id": 4215664295, "lat": 33.3014197, "lon": 10.2959443, "tags": {"amenity": "cafe"}}, {"type": "node", "id": 4217049687, "lat": 33.0594302, "lon": 10.3375369, "tags": {"amenity": "cafe", "cuisine": "coffee_shop", "name": "\u0645\u0642\u0647\u064a \u0628\u0646 \u062c\u0645\u0639\u0629", "name:ar": "\u0645\u0642\u0647\u064a \u0628\u0646 \u062c\u0645\u0639\u0629", "name:fr": "Cafe De March\u00e9"}}, {"type": "node", "id": 4223032190, "lat": 33.1480115, "lon": 10.4483972, "tags": {"addr:postcode": "3212", "addr:street": "Ksar ouled Boubaker", "amenity": "cafe", "internet_access": "wlan", "name": "Caf\u00e9 El-Farabi", "opening_hours": "Mo-Su 08:00-00:00"}}, {"type": "node", "id": 4223036389, "lat": 33.160305, "lon": 10.4583448, "tags": {"addr:postcode": "3212", "addr:street": "Route Tataouine klm 2, Bir lahmar", "amenity": "cafe", "cuisine": "fish;sandwich;breakfast;tea;cake;local;pasta;pizza;chicken;arab;kebab", "internet_access": "wlan", "name": "Caf\u00e9 - Restaurant Ben Jaballah", "opening_hours": "Mo-Su 08:00-03:00"}}, {"type": "node", "id": 4223673891, "lat": 33.1002804, "lon": 10.313871, "tags": {"amenity": "cafe"}}, {"type": "node", "id": 4228254204, "lat": 33.0591218, "lon": 10.3373744, "tags": {"amenity": "cafe", "name": "\u0645\u0642\u0647\u0649 \u0623\u0631\u0648\u0644", "name:ar": "\u0645\u0642\u0647\u0649 \u0623\u0631\u0648\u0644"}}, {"type": "node", "id": 4228254209, "lat": 33.061587, "lon": 10.343152, "tags": {"amenity": "cafe"}}, {"type": "node", "id": 4228254213, "lat": 33.0607072, "lon": 10.3411588, "tags": {"amenity": "cafe", "name": "\u0645\u0642\u0647\u0649 \u0639\u0644\u064a \u0628\u0627\u0628\u0627", "name:ar": "\u0645\u0642\u0647\u0649 \u0639\u0644\u064a \u0628\u0627\u0628\u0627", "name:fr": "Caf\u00e9 Ali Baba"}}, {"type": "node", "id": 4337848478, "lat": 32.9290473, "lon": 10.4484872, "tags": {"amenity": "cafe", "name": "Caf\u00e9 Carthage"}}, {"type": "node", "id": 4362626689, "lat": 32.9306337, "lon": 10.4493777, "tags": {"addr:city": "\u062a\u0637\u0627\u0648\u064a\u0646", "addr:postcode": "3200", "amenity": "cafe", "name": "\u0645\u0642\u0647\u0649 \u062d\u0645\u0632\u0629", "name:ar": "\u0645\u0642\u0647\u0649 \u062d\u0645\u0632\u0629", "name:fr": "caf\u00e9 Hamza"}}, {"type": "node", "id": 4811131545, "lat": 33.0063838, "lon": 10.3425397, "tags": {"amenity": "cafe"}}, {"type": "node", "id": 5879896190, "lat": 33.0625745, "lon": 10.3520093, "tags": {"amenity": "cafe", "cuisine": "coffee_shop", "internet_access:fee": "yes", "name": "Caf\u00e9 2 Mars - \u0645\u0642\u0647\u0649 2 \u0645\u0627\u0631\u0633", "name:en": "Caf\u00e9 2 Mars", "name:fr": "Caf\u00e9 2 Mars", "outdoor_seating": "yes", "smoking": "yes"}}, {"type": "node", "id": 6154479402, "lat": 32.9274503, "lon": 10.4508546, "tags": {"addr:city": "\u062a\u0637\u0627\u0648\u064a\u0646", "addr:housenumber": "4", "addr:postcode": "3200", "addr:street": "\u0646\u0647\u062c \u0627\u0644\u0635\u062d\u0631\u0627\u0621", "amenity": "cafe", "internet_access": "wlan", "internet_access:fee": "no", "name": "\u0643\u0633\u062a\u0627 \u0643\u0641\u064a", "name:ar": "\u0643\u0633\u062a\u0627 \u0643\u0641\u064a", "name:en": "Kosta coffee", "opening_hours": "Mo-Su 05:30-23:00", "outdoor_seating": "yes", "smoking": "yes", "start_date": "2016", "takeaway": "no"}}, {"type": "node", "id": 6156651378, "lat": 32.928475, "lon": 10.4482778, "tags": {"name": "Exexption", "shop": "clothes"}}, {"type": "node", "id": 6164204975, "lat": 32.9004861, "lon": 10.4232413, "tags": {"amenity": "cafe"}}, {"type": "node", "id": 6164204976, "lat": 32.9002115, "lon": 10.423596}, {"type": "node", "id": 6164204977, "lat": 32.9002733, "lon": 10.4236333}, {"type": "node", "id": 6164204978, "lat": 32.9003262, "lon": 10.4236473}, {"type": "node", "id": 6164204979, "lat": 32.9005953, "lon": 10.4236772}, {"type": "node", "id": 6164204980, "lat": 32.9007448, "lon": 10.4235396}, {"type": "node", "id": 6164204981, "lat": 32.9008395, "lon": 10.4234681}, {"type": "node", "id": 6164204982, "lat": 32.9006309, "lon": 10.4231581}, {"type": "node", "id": 6164204983, "lat": 32.9005816, "lon": 10.4231335}, {"type": "node", "id": 6164204984, "lat": 32.9005086, "lon": 10.4230587}, {"type": "node", "id": 6164204985, "lat": 32.900428, "lon": 10.4232093}, {"type": "node", "id": 6164204986, "lat": 32.9002903, "lon": 10.4231697}, {"type": "node", "id": 6164204987, "lat": 32.9001907, "lon": 10.4232031}, {"type": "node", "id": 6164204988, "lat": 32.9001265, "lon": 10.4234992}, {"type": "node", "id": 6164204989, "lat": 32.9001425, "lon": 10.4234979}, {"type": "node", "id": 6168646017, "lat": 32.9071718, "lon": 10.4234162, "tags": {"name": "hmad", "shop": "convenience"}}, {"type": "node", "id": 6168646019, "lat": 32.9072532, "lon": 10.4234236, "tags": {"amenity": "cafe", "name": "azouz"}}, {"type": "node", "id": 6168646024, "lat": 32.9070731, "lon": 10.4240566}, {"type": "node", "id": 6168646025, "lat": 32.9070055, "lon": 10.4243356}, {"type": "node", "id": 6168646026, "lat": 32.9074109, "lon": 10.4243463}, {"type": "node", "id": 6168688334, "lat": 32.9035826, "lon": 10.4278225, "tags": {"name": "hmid", "shop": "convenience"}}, {"type": "node", "id": 6168688346, "lat": 32.9032088, "lon": 10.4287693, "tags": {"name": "latrach", "shop": "convenience"}}, {"type": "node", "id": 6168741014, "lat": 32.9096543, "lon": 10.4291686, "tags": {"language:ar": "main", "shop": "convenience"}}, {"type": "node", "id": 6168741016, "lat": 32.9109147, "lon": 10.4277103, "tags": {"name": "Laawej \u00e9picerie", "shop": "convenience"}}, {"type": "node", "id": 6170982661, "lat": 32.9040565, "lon": 10.4233297, "tags": {"name": "sidi", "shop": "convenience"}}, {"type": "node", "id": 6170982662, "lat": 32.9042642, "lon": 10.4235211, "tags": {"name": "el makki", "shop": "convenience"}}, {"type": "node", "id": 6170982664, "lat": 32.9050932, "lon": 10.4242226, "tags": {"name": "abdsmad", "shop": "convenience"}}, {"type": "node", "id": 6170982665, "lat": 32.9051713, "lon": 10.4242481, "tags": {"name": "kouz", "shop": "convenience"}}, {"type": "node", "id": 6170982666, "lat": 32.9047001, "lon": 10.4238593, "tags": {"name": "shbi", "shop": "convenience"}}, {"type": "node", "id": 6170982676, "lat": 32.9047806, "lon": 10.4241613, "tags": {"name": "drgech", "shop": "convenience"}}, {"type": "node", "id": 6170985093, "lat": 32.9042743, "lon": 10.4256897, "tags": {"name": "wedrni", "shop": "convenience"}}, {"type": "node", "id": 6170985094, "lat": 32.9021864, "lon": 10.4267871, "tags": {"name": "wtheni", "shop": "convenience"}}, {"type": "node", "id": 6171152352, "lat": 32.9065417, "lon": 10.4266584, "tags": {"name": "smida", "shop": "convenience"}}, {"type": "node", "id": 6174617307, "lat": 32.9078567, "lon": 10.429287, "tags": {"language:ar": "main", "shop": "convenience"}}, {"type": "node", "id": 6174617324, "lat": 32.9134186, "lon": 10.4256284, "tags": {"name": "taha epicier", "shop": "convenience"}}, {"type": "node", "id": 6175100872, "lat": 32.9072679, "lon": 10.4293731, "tags": {"shop": "convenience"}}, {"type": "node", "id": 6175100875, "lat": 32.910041, "lon": 10.4287291, "tags": {"shop": "convenience"}}, {"type": "node", "id": 6175100879, "lat": 32.9140806, "lon": 10.427404, "tags": {"name": "rawan epecirie", "shop": "convenience"}}, {"type": "node", "id": 6175101217, "lat": 32.9162534, "lon": 10.4269266, "tags": {"name": "Balboul", "shop": "supermarket"}}, {"type": "node", "id": 6257842297, "lat": 32.9192368, "lon": 10.4662934}, {"type": "node", "id": 6257842298, "lat": 32.9194259, "lon": 10.4660359}, {"type": "node", "id": 6257842299, "lat": 32.9191039, "lon": 10.4659152}, {"type": "node", "id": 6257842300, "lat": 32.9189981, "lon": 10.4661486}, {"type": "node", "id": 6356148145, "lat": 32.9541626, "lon": 10.468989, "tags": {"addr:city": "\u062a\u0637\u0627\u0648\u064a\u0646", "addr:city:ar": "\u062a\u0637\u0627\u0648\u064a\u0646", "addr:place": "\u062d\u064a \u0627\u0644\u0645\u0647\u0631\u062c\u0627\u0646", "addr:place:ar": "\u062d\u064a \u0627\u0644\u0645\u0647\u0631\u062c\u0627\u0646", "amenity": "cafe", "language:ar": "main"}}, {"type": "node", "id": 6356148146, "lat": 32.9551417, "lon": 10.4694182, "tags": {"addr:city": "\u062a\u0637\u0627\u0648\u064a\u0646", "addr:place": "\u062d\u064a \u0627\u0644\u0645\u0647\u0631\u062c\u0627\u0646", "amenity": "cafe"}}, {"type": "node", "id": 6356148153, "lat": 32.9539427, "lon": 10.4578519}, {"type": "node", "id": 6356148154, "lat": 32.9537395, "lon": 10.4577335}, {"type": "node", "id": 6356148155, "lat": 32.9536172, "lon": 10.4580316}, {"type": "node", "id": 6356148156, "lat": 32.9538204, "lon": 10.45815}, {"type": "node", "id": 6356148159, "lat": 32.9593904, "lon": 10.472522}, {"type": "node", "id": 6356148160, "lat": 32.9592452, "lon": 10.4724292}, {"type": "node", "id": 6356148161, "lat": 32.9592839, "lon": 10.4723431}, {"type": "node", "id": 6356148162, "lat": 32.9594291, "lon": 10.4724358}, {"type": "node", "id": 6360011107, "lat": 32.9455535, "lon": 10.4715907, "tags": {"addr:city": "\u062a\u0637\u0627\u0648\u064a\u0646", "addr:city:ar": "\u062a\u0637\u0627\u0648\u064a\u0646", "addr:postcode": "3234", "language:ar": "main", "shop": "supermarket"}}, {"type": "node", "id": 6360042590, "lat": 32.9204211, "lon": 10.4639947, "tags": {"name": "hay ennour", "shop": "supermarket"}}, {"type": "node", "id": 6360042598, "lat": 32.9213082, "lon": 10.4622137, "tags": {"name": "ben gayed", "shop": "supermarket"}}, {"type": "node", "id": 6362174317, "lat": 32.9306694, "lon": 10.4415822}, {"type": "node", "id": 6362174318, "lat": 32.9307775, "lon": 10.441609, "tags": {"name": "Jamel", "shop": "supermarket"}}, {"type": "node", "id": 6362174319, "lat": 32.9309125, "lon": 10.4415822}, {"type": "node", "id": 6362174320, "lat": 32.9307775, "lon": 10.4414427}, {"type": "node", "id": 6362174321, "lat": 32.9294502, "lon": 10.4340338, "tags": {"name": "Ben Amar", "shop": "supermarket"}}, {"type": "node", "id": 6362174322, "lat": 32.9294807, "lon": 10.4339003}, {"type": "node", "id": 6362174323, "lat": 32.9294267, "lon": 10.4341364}, {"type": "node", "id": 6362174324, "lat": 32.9292646, "lon": 10.4340398}, {"type": "node", "id": 6362174325, "lat": 32.9293096, "lon": 10.4337716}, {"type": "node", "id": 6371943653, "lat": 32.922799, "lon": 10.4589085, "tags": {"name": "meftah ajroudi", "shop": "convenience"}}, {"type": "node", "id": 6371943658, "lat": 32.9215558, "lon": 10.461731, "tags": {"name": "magazin ennour", "shop": "supermarket"}}, {"type": "node", "id": 6371943660, "lat": 32.9218981, "lon": 10.4610202, "tags": {"name": "magazin sabah", "shop": "supermarket"}}, {"type": "node", "id": 6371943661, "lat": 32.922112, "lon": 10.4605052, "tags": {"name": "abdelwahed", "shop": "convenience"}}, {"type": "node", "id": 6371957563, "lat": 32.9987797, "lon": 10.4635549}, {"type": "node", "id": 6371957564, "lat": 32.9988336, "lon": 10.4631793}, {"type": "node", "id": 6371957565, "lat": 33.0005658, "lon": 10.4635763}, {"type": "node", "id": 6371957566, "lat": 33.0004893, "lon": 10.4639331}, {"type": "node", "id": 6409820088, "lat": 32.9301302, "lon": 10.4503856, "tags": {"addr:city": "\u062a\u0637\u0627\u0648\u064a\u0646", "name": "\u0645\u063a\u0627\u0632\u0629 \u0627\u0644\u0645\u0631\u062c\u0627\u0646", "name:ar": "\u0633\u0648\u0642 \u0645\u0631\u062c\u0627\u0646", "name:en": "Marjane market", "name:fr": "March\u00e9 de Marjane", "shop": "supermarket"}}, {"type": "node", "id": 6448059822, "lat": 32.9365427, "lon": 10.4513293, "tags": {"addr:city": "\u062a\u0637\u0627\u0648\u064a\u0646", "addr:city:ar": "\u062a\u0637\u0627\u0648\u064a\u0646", "brand": "Carrefour", "brand:ar": "\u0643\u0627\u0631\u0641\u0648\u0631", "brand:wikidata": "Q217599", "brand:wikipedia": "fr:Carrefour (enseigne)", "brand:wikipedia:ar": "\u0643\u0627\u0631\u0641\u0648\u0631", "language:ar": "main", "name": "\u0643\u0627\u0631\u0641\u0648\u0631", "name:ar": "\u0643\u0627\u0631\u0641\u0648\u0631", "name:en": "Carrefour", "name:fr": "Carrefour", "operator": "\u0643\u0627\u0631\u0641\u0648\u0631", "operator:ar": "\u0643\u0627\u0631\u0641\u0648\u0631", "operator:wikidata": "Q3117359", "operator:wikipedia": "ar:\u0643\u0627\u0631\u0641\u0648\u0631", "operator:wikipedia:ar": "\u0643\u0627\u0631\u0641\u0648\u0631", "shop": "supermarket"}}, {"type": "node", "id": 6448059828, "lat": 32.9270356, "lon": 10.4470902, "tags": {"addr:city": "\u062a\u0637\u0627\u0648\u064a\u0646", "amenity": "pharmacy", "dispensing": "yes", "healthcare": "pharmacy", "name": "\u0630\u0643\u0627\u0631"}}, {"type": "node", "id": 6448059832, "lat": 32.9278013, "lon": 10.4520884, "tags": {"amenity": "pharmacy", "healthcare": "pharmacy", "name": "DERBAL"}}, {"type": "node", "id": 6461651433, "lat": 32.9281637, "lon": 10.4488778, "tags": {"name": "glwi", "shop": "clothes"}}, {"type": "node", "id": 6461651435, "lat": 32.928641, "lon": 10.4493016, "tags": {"name": "bouhrba", "shop": "clothes"}}, {"type": "node", "id": 6461651437, "lat": 32.9284857, "lon": 10.4489502, "tags": {"name": "gouci", "shop": "clothes"}}, {"type": "node", "id": 6461651440, "lat": 32.9280714, "lon": 10.4481053, "tags": {"addr:city": "\u062a\u0637\u0627\u0648\u064a\u0646", "addr:postcode": "3200", "addr:street": "\u0646\u0647\u062c \u0641\u0631\u062d\u0627\u062a \u062d\u0634\u0627\u062f", "name": "tout chic", "name:ar": "\u0645\u063a\u0627\u0632\u0629 \u0634\u0645\u064a\u0637", "name:fr": "tout chic", "shop": "clothes"}}, {"type": "node", "id": 6461651442, "lat": 32.9280421, "lon": 10.4467267, "tags": {"name": "comlise", "shop": "clothes"}}, {"type": "node", "id": 6461651446, "lat": 32.9288109, "lon": 10.4460231, "tags": {"amenity": "fast_food", "name": "ala rahmen", "shop": "supermarket"}}, {"type": "node", "id": 6461651448, "lat": 32.929062, "lon": 10.4462063, "tags": {"addr:city": "\u062a\u0637\u0627\u0648\u064a\u0646", "addr:postcode": "3200", "addr:street": "\u0627\u0644\u0637\u0631\u064a\u0642 \u0627\u0644\u0648\u0637\u0646\u064a\u0629 \u0645\u062f\u0646\u064a\u0646 - \u0627\u0644\u0630\u0647\u064a\u0628\u0629", "amenity": "cafe", "name": "tunise"}}, {"type": "node", "id": 6461651461, "lat": 32.9333348, "lon": 10.4507902, "tags": {"name": "saidi market", "shop": "supermarket"}}, {"type": "node", "id": 6461651471, "lat": 32.928193, "lon": 10.4457879, "tags": {"addr:city": "\u062a\u0637\u0627\u0648\u064a\u0646", "brand": "\u0637\u0648\u0637\u0627\u0644", "brand:ar": "\u0637\u0648\u0637\u0627\u0644", "brand:fr": "Total", "name": "\u0637\u0648\u0637\u0627\u0644", "name:ar": "\u0637\u0648\u0637\u0627\u0644", "name:en": "Total", "name:fr": "Total", "operator:fr": "Total", "shop": "kiosk"}}, {"type": "node", "id": 6461651472, "lat": 32.9272024, "lon": 10.449079, "tags": {"name": "colize ljanoub", "shop": "clothes"}}, {"type": "node", "id": 6808467508, "lat": 32.926518, "lon": 10.4504764, "tags": {"name": "Fripe Berkaoui", "shop": "clothes"}}, {"type": "node", "id": 6808467511, "lat": 32.9266441, "lon": 10.4501974, "tags": {"name": "GMG", "shop": "supermarket"}}, {"type": "node", "id": 6968573485, "lat": 33.0589061, "lon": 10.3361677}, {"type": "node", "id": 6968573488, "lat": 33.058871, "lon": 10.3360914}, {"type": "node", "id": 6968573494, "lat": 33.0588351, "lon": 10.3362163}, {"type": "node", "id": 6968574510, "lat": 33.058838, "lon": 10.3350197}, {"type": "node", "id": 6968574511, "lat": 33.0588377, "lon": 10.3351061}, {"type": "node", "id": 6968574512, "lat": 33.0589583, "lon": 10.3351066}, {"type": "node", "id": 6968574513, "lat": 33.0589586, "lon": 10.3350202}, {"type": "node", "id": 6968574848, "lat": 33.0592455, "lon": 10.3373292}, {"type": "node", "id": 6968574849, "lat": 33.0592626, "lon": 10.3373824}, {"type": "node", "id": 6968574850, "lat": 33.0593699, "lon": 10.3373332}, {"type": "node", "id": 6968574851, "lat": 33.0593528, "lon": 10.33728}, {"type": "node", "id": 6968574858, "lat": 33.0593435, "lon": 10.3374941}, {"type": "node", "id": 6968574859, "lat": 33.0593732, "lon": 10.3375941}, {"type": "node", "id": 6968574860, "lat": 33.0594587, "lon": 10.3375583}, {"type": "node", "id": 6968574861, "lat": 33.059429, "lon": 10.3374583}, {"type": "node", "id": 6968574955, "lat": 33.0591037, "lon": 10.3354824}, {"type": "node", "id": 6968574956, "lat": 33.0590426, "lon": 10.3354797}, {"type": "node", "id": 7056532642, "lat": 32.9111317, "lon": 10.2621328, "tags": {"addr:city": "\u0634\u0646\u0646\u064a", "addr:postcode": "3222", "amenity": "cafe", "name": "\u0645\u0642\u0647\u0649 \u0623\u0628\u0648 \u0646\u0648\u0627\u0633", "name:ar": "\u0645\u0642\u0647\u0649 \u0623\u0628\u0648 \u0646\u0648\u0627\u0633", "phone": "+216 22 222 222"}}, {"type": "node", "id": 7397873731, "lat": 32.9291047, "lon": 10.449878, "tags": {"amenity": "cafe", "name": "caf\u00e9 tataouine"}}, {"type": "node", "id": 7397873732, "lat": 32.928694, "lon": 10.4498239, "tags": {"name": "Superette", "shop": "supermarket"}}, {"type": "node", "id": 8176598571, "lat": 33.0591059, "lon": 10.335411}, {"type": "node", "id": 8176598572, "lat": 33.0590448, "lon": 10.3354081}, {"type": "node", "id": 8550947817, "lat": 33.3211929, "lon": 10.5030224, "tags": {"addr:street": "\u0637\u0631\u064a\u0642 \u062d\u064a \u0645\u0627\u0631\u0633", "amenity": "cafe", "name": "\u0642\u0647\u0648\u0629 \u062d\u064a \u0645\u0627\u0631\u0633", "name:fr": "cafe Quartier de Mars"}}, {"type": "node", "id": 8949856038, "lat": 32.9307955, "lon": 10.4417002}, {"type": "node", "id": 9772404316, "lat": 32.9292139, "lon": 10.4481232, "tags": {"amenity": "cafe", "cuisine": "tunisian", "drive_through": "yes", "name": "boghnim", "opening_hours": "10:00-22:00"}}, {"type": "node", "id": 9775100157, "lat": 32.9273193, "lon": 10.4474469, "tags": {"amenity": "cafe", "name": "\u0645\u0642\u0647\u0649 \u0631\u0648\u0627\u0646", "name:ar": "\u0645\u0642\u0647\u0649 \u0631\u0648\u0627\u0646", "name:fr": "caf\u00e9 rawen"}}, {"type": "node", "id": 9775100160, "lat": 32.9275902, "lon": 10.4474062, "tags": {"amenity": "cafe", "name": "\u0645\u0642\u0647\u0649", "name:fr": "caf\u00e9"}}, {"type": "node", "id": 9775178250, "lat": 32.9277532, "lon": 10.4468913, "tags": {"amenity": "cafe", "name": "\u0645\u0642\u0647\u0649 \u0628\u0627\u0646\u0648\u0631\u0627\u0645\u0627", "name:fr": "caf\u00e9 panorama"}}, {"type": "node", "id": 9775178258, "lat": 32.927858, "lon": 10.4465217, "tags": {"amenity": "cafe", "name": "\u0645\u0642\u0647\u0649 \u0627\u0644\u0634\u0631\u0642", "name:fr": "caf\u00e9 orient"}}, {"type": "node", "id": 9775178262, "lat": 32.9278811, "lon": 10.4461587, "tags": {"amenity": "cafe", "name": "\u0627\u0644\u0623\u0646\u062f\u0644\u0633"}}, {"type": "node", "id": 9775183452, "lat": 32.9287813, "lon": 10.4473952, "tags": {"addr:city": "\u062a\u0637\u0627\u0648\u064a\u0646", "addr:postcode": "3200", "addr:street": "\u0646\u0647\u062c \u0627\u0644\u062c\u064a\u0644\u0627\u0646\u064a \u0627\u0644\u0645\u0631\u0632\u0648\u0642\u064a", "shop": "convenience"}}, {"type": "node", "id": 9775184713, "lat": 32.9270559, "lon": 10.4471908, "tags": {"amenity": "cafe", "name": "\u0645\u0642\u0647\u064a \u0627\u0644\u0627\u062a\u062d\u0627\u062f"}}, {"type": "node", "id": 9775191584, "lat": 32.9268439, "lon": 10.4461299, "tags": {"amenity": "cafe", "name": "\u0645\u0642\u0647\u0649 \u062e\u0644\u0641 \u0627\u0644\u0644\u0647", "name:fr": "caf\u00e9 khalfallah"}}, {"type": "node", "id": 9775229931, "lat": 32.9280868, "lon": 10.4462314, "tags": {"addr:city": "\u062a\u0637\u0627\u0648\u064a\u0646", "addr:postcode": "3200", "addr:street": "\u0646\u0647\u062c 2 \u0645\u0627\u0631\u0633 1934", "amenity": "cafe"}}, {"type": "node", "id": 9775229941, "lat": 32.9280157, "lon": 10.4463542, "tags": {"addr:city": "\u062a\u0637\u0627\u0648\u064a\u0646", "addr:postcode": "3200", "addr:street": "\u0646\u0647\u062c 2 \u0645\u0627\u0631\u0633 1934", "shop": "kiosk"}}, {"type": "node", "id": 9775229942, "lat": 32.9280073, "lon": 10.446391, "tags": {"addr:city": "\u062a\u0637\u0627\u0648\u064a\u0646", "addr:postcode": "3200", "addr:street": "\u0646\u0647\u062c 2 \u0645\u0627\u0631\u0633 1934", "shop": "clothes"}}, {"type": "node", "id": 9775229981, "lat": 32.9287395, "lon": 10.4462606, "tags": {"addr:city": "\u062a\u0637\u0627\u0648\u064a\u0646", "addr:postcode": "3200", "addr:street": "\u0627\u0644\u0637\u0631\u064a\u0642 \u0627\u0644\u0648\u0637\u0646\u064a\u0629 \u0645\u062f\u0646\u064a\u0646 - \u0627\u0644\u0630\u0647\u064a\u0628\u0629", "shop": "clothes"}}, {"type": "node", "id": 9775256842, "lat": 32.9277202, "lon": 10.4474641, "tags": {"addr:city": "\u062a\u0637\u0627\u0648\u064a\u0646", "addr:postcode": "3200", "addr:street": "\u0646\u0647\u062c 2 \u0645\u0627\u0631\u0633 1934", "name": "\u0645\u062d\u0644 \u0628\u064a\u0639 \u0627\u0644\u0645\u0644\u0627\u0628\u0633 \u0627\u0644\u062c\u0627\u0647\u0632\u0629", "shop": "clothes"}}, {"type": "node", "id": 9775256844, "lat": 32.9277137, "lon": 10.4475211, "tags": {"addr:city": "\u062a\u0637\u0627\u0648\u064a\u0646", "addr:postcode": "3200", "addr:street": "\u0646\u0647\u062c 2 \u0645\u0627\u0631\u0633 1934", "name": "\u0645\u062d\u0644 \u0645\u0648\u0627\u062f \u063a\u0630\u0627\u0626\u064a\u0629", "name:ar": "\u0645\u062d\u0644 \u0645\u0648\u0627\u062f \u063a\u0630\u0627\u0626\u064a\u0629", "shop": "convenience"}}, {"type": "node", "id": 9775256847, "lat": 32.9276943, "lon": 10.4475719, "tags": {"addr:city": "\u062a\u0637\u0627\u0648\u064a\u0646", "addr:postcode": "3200", "addr:street": "\u0646\u0647\u062c 2 \u0645\u0627\u0631\u0633 1934", "amenity": "cafe", "name": "\u0642\u0647\u0648\u0629 \u0645\u0631\u0627\u0643\u0634", "name:ar": "\u0642\u0647\u0648\u0629 \u0645\u0631\u0627\u0643\u0634", "name:fr": "caf\u00e9 Marrakech"}}, {"type": "node", "id": 9775274670, "lat": 32.9288951, "lon": 10.4463991, "tags": {"addr:city": "\u062a\u0637\u0627\u0648\u064a\u0646", "addr:postcode": "3200", "addr:street": "\u0627\u0644\u0637\u0631\u064a\u0642 \u0627\u0644\u0648\u0637\u0646\u064a\u0629 \u0645\u062f\u0646\u064a\u0646 - \u0627\u0644\u0630\u0647\u064a\u0628\u0629", "shop": "kiosk"}}, {"type": "node", "id": 9775337784, "lat": 32.9276874, "lon": 10.4479576, "tags": {"addr:city": "\u062a\u0637\u0627\u0648\u064a\u0646", "addr:postcode": "3200", "addr:street": "\u0646\u0647\u062c \u0641\u0631\u062d\u0627\u062a \u062d\u0634\u0627\u062f", "shop": "clothes"}}, {"type": "node", "id": 9775337790, "lat": 32.927755, "lon": 10.4479716, "tags": {"addr:city": "\u062a\u0637\u0627\u0648\u064a\u0646", "addr:postcode": "3200", "addr:street": "\u0646\u0647\u062c \u0641\u0631\u062d\u0627\u062a \u062d\u0634\u0627\u062f", "shop": "clothes"}}, {"type": "node", "id": 9775337792, "lat": 32.9277972, "lon": 10.4479809, "tags": {"addr:city": "\u062a\u0637\u0627\u0648\u064a\u0646", "addr:postcode": "3200", "addr:street": "\u0646\u0647\u062c \u0641\u0631\u062d\u0627\u062a \u062d\u0634\u0627\u062f", "shop": "clothes"}}, {"type": "node", "id": 9775337801, "lat": 32.9279189, "lon": 10.4480448, "tags": {"addr:city": "\u062a\u0637\u0627\u0648\u064a\u0646", "addr:postcode": "3200", "addr:street": "\u0646\u0647\u062c \u0641\u0631\u062d\u0627\u062a \u062d\u0634\u0627\u062f", "shop": "clothes"}}, {"type": "node", "id": 9775337809, "lat": 32.9279752, "lon": 10.4480502, "tags": {"addr:city": "\u062a\u0637\u0627\u0648\u064a\u0646", "addr:postcode": "3200", "addr:street": "\u0646\u0647\u062c \u0641\u0631\u062d\u0627\u062a \u062d\u0634\u0627\u062f", "shop": "clothes"}}, {"type": "node", "id": 9775337815, "lat": 32.9280585, "lon": 10.4480877, "tags": {"addr:city": "\u062a\u0637\u0627\u0648\u064a\u0646", "addr:postcode": "3200", "addr:street": "\u0646\u0647\u062c \u0641\u0631\u062d\u0627\u062a \u062d\u0634\u0627\u062f", "shop": "convenience"}}, {"type": "node", "id": 9775357897, "lat": 32.9285303, "lon": 10.4482871, "tags": {"name": "ZEN", "shop": "clothes"}}, {"type": "node", "id": 9775652582, "lat": 32.9281523, "lon": 10.4479487, "tags": {"addr:city": "\u062a\u0637\u0627\u0648\u064a\u0646", "addr:postcode": "3200", "addr:street": "\u0632\u0646\u0642\u0629 \u062a\u0642\u0633\u064a\u0645 \u0632\u0631\u0648\u0642", "name": "Pr\u00eat \u00e0 porter chez Mariem", "name:fr": "Pr\u00eat \u00e0 porter chez Mariem", "shop": "clothes"}}, {"type": "node", "id": 9776424406, "lat": 32.9281412, "lon": 10.4474669, "tags": {"addr:city": "\u062a\u0637\u0627\u0648\u064a\u0646", "addr:postcode": "3200", "addr:street": "\u0632\u0646\u0642\u0629 \u062a\u0642\u0633\u064a\u0645 \u0632\u0631\u0648\u0642", "name": "\u0645\u064a\u0633\u0627\u0621 \u0644\u0643\u0631\u0627\u0621 \u0627\u0644\u0645\u0644\u0627\u0628\u0633", "name:ar": "\u0645\u064a\u0633\u0627\u0621 \u0644\u0643\u0631\u0627\u0621 \u0627\u0644\u0645\u0644\u0627\u0628\u0633", "shop": "clothes"}}, {"type": "node", "id": 9776458058, "lat": 32.9285639, "lon": 10.4473881, "tags": {"addr:city": "\u062a\u0637\u0627\u0648\u064a\u0646", "addr:housenumber": "3200", "addr:postcode": "3200", "addr:street": "Rue Jilani Almarzougui", "amenity": "cafe", "name": "caf\u00e9", "name:ar": "\u0645\u0642\u0647\u0649", "name:fr": "caf\u00e9"}}, {"type": "node", "id": 9776491723, "lat": 32.9291541, "lon": 10.4482815, "tags": {"amenity": "cafe"}}, {"type": "node", "id": 9776491724, "lat": 32.9288765, "lon": 10.4479841, "tags": {"amenity": "cafe", "name": "\u0627\u0644\u0645\u0639\u0627\u0632\u064a\u0645"}}, {"type": "node", "id": 9776491732, "lat": 32.929299, "lon": 10.4479073, "tags": {"shop": "convenience"}}, {"type": "node", "id": 9776491734, "lat": 32.929346, "lon": 10.4477112, "tags": {"amenity": "cafe", "level": "1", "name": "MD"}}, {"type": "node", "id": 9776498017, "lat": 32.9283094, "lon": 10.447474, "tags": {"addr:city": "\u062a\u0637\u0627\u0648\u064a\u0646", "addr:postcode": "3200", "addr:street": "\u0632\u0646\u0642\u0629 \u062a\u0642\u0633\u064a\u0645 \u0632\u0631\u0648\u0642", "shop": "clothes"}}, {"type": "node", "id": 9776498031, "lat": 32.9281067, "lon": 10.4477825, "tags": {"addr:city": "\u062a\u0637\u0627\u0648\u064a\u0646", "addr:postcode": "3200", "addr:street": "\u0632\u0646\u0642\u0629 \u062a\u0642\u0633\u064a\u0645 \u0632\u0631\u0648\u0642", "shop": "clothes"}}, {"type": "node", "id": 9776498038, "lat": 32.9282388, "lon": 10.4476689, "tags": {"addr:city": "\u062a\u0637\u0627\u0648\u064a\u0646", "addr:postcode": "3200", "addr:street": "\u0632\u0646\u0642\u0629 \u062a\u0642\u0633\u064a\u0645 \u0632\u0631\u0648\u0642", "shop": "clothes"}}, {"type": "node", "id": 9776498040, "lat": 32.9282618, "lon": 10.4475891, "tags": {"addr:city": "\u062a\u0637\u0627\u0648\u064a\u0646", "addr:postcode": "3200", "addr:street": "\u0632\u0646\u0642\u0629 \u062a\u0642\u0633\u064a\u0645 \u0632\u0631\u0648\u0642", "name": "Sara Mode", "name:fr": "Sara Mode", "shop": "clothes"}}, {"type": "node", "id": 9776498041, "lat": 32.9282802, "lon": 10.4475378, "tags": {"addr:city": "\u062a\u0637\u0627\u0648\u064a\u0646", "addr:postcode": "3200", "addr:street": "\u0632\u0646\u0642\u0629 \u062a\u0642\u0633\u064a\u0645 \u0632\u0631\u0648\u0642", "shop": "clothes"}}, {"type": "node", "id": 9808205030, "lat": 32.8874911, "lon": 10.3879069, "tags": {"addr:city": "\u0642\u0635\u0631 \u0623\u0648\u0644\u0627\u062f \u062f\u0628\u0627\u0628", "addr:postcode": "3242", "addr:street": "\u0627\u0644\u0637\u0631\u064a\u0642 \u0627\u0644\u0648\u0637\u0646\u064a\u0629 \u0645\u062f\u0646\u064a\u0646 - \u0627\u0644\u0630\u0647\u064a\u0628\u0629", "shop": "convenience"}}, {"type": "node", "id": 9808205041, "lat": 32.8875339, "lon": 10.3878624}, {"type": "node", "id": 9808205042, "lat": 32.887478, "lon": 10.3878556}, {"type": "node", "id": 9808205043, "lat": 32.8874714, "lon": 10.3879318}, {"type": "node", "id": 9808205044, "lat": 32.8875273, "lon": 10.3879386}, {"type": "node", "id": 9808486127, "lat": 32.886029, "lon": 10.392281, "tags": {"addr:city": "Tataouine", "addr:postcode": "3242", "addr:street": "\u0627\u0644\u0637\u0631\u064a\u0642 \u0627\u0644\u0648\u0637\u0646\u064a\u0629 \u0645\u062f\u0646\u064a\u0646 - \u0627\u0644\u0630\u0647\u064a\u0628\u0629", "amenity": "cafe", "name": "Caf\u00e9 Nalouti", "name:ar": "\u0645\u0642\u0647\u0649 \u0627\u0644\u0646\u0627\u0644\u0648\u062a\u064a", "name:fr": "Caf\u00e9 Nalouti"}}, {"type": "node", "id": 9808486128, "lat": 32.8860538, "lon": 10.3923496, "tags": {"addr:city": "Tataouine", "addr:postcode": "3242", "addr:street": "\u0627\u0644\u0637\u0631\u064a\u0642 \u0627\u0644\u0648\u0637\u0646\u064a\u0629 \u0645\u062f\u0646\u064a\u0646 - \u0627\u0644\u0630\u0647\u064a\u0628\u0629", "shop": "convenience"}}, {"type": "node", "id": 9814771180, "lat": 32.9140013, "lon": 10.279964}, {"type": "node", "id": 9814771181, "lat": 32.9140412, "lon": 10.2799701}, {"type": "node", "id": 9814771182, "lat": 32.9140887, "lon": 10.279848}, {"type": "node", "id": 9814771183, "lat": 32.9140556, "lon": 10.2798336}, {"type": "node", "id": 9814784419, "lat": 32.9142283, "lon": 10.2795074}, {"type": "node", "id": 9814784420, "lat": 32.9142553, "lon": 10.2794296}, {"type": "node", "id": 9814784421, "lat": 32.9141742, "lon": 10.2793733}, {"type": "node", "id": 9814784422, "lat": 32.9141404, "lon": 10.2794591}, {"type": "node", "id": 9814817797, "lat": 32.9115997, "lon": 10.264033}, {"type": "node", "id": 9814817798, "lat": 32.9115737, "lon": 10.263978}, {"type": "node", "id": 9814817799, "lat": 32.9114866, "lon": 10.2640223}, {"type": "node", "id": 9814817800, "lat": 32.9115031, "lon": 10.2640735}, {"type": "node", "id": 9814817801, "lat": 32.911518, "lon": 10.2640735}, {"type": "node", "id": 9814817802, "lat": 32.911536, "lon": 10.2640703}, {"type": "node", "id": 9814817803, "lat": 32.9115482, "lon": 10.2640703}, {"type": "node", "id": 9814817804, "lat": 32.9115562, "lon": 10.2640836}, {"type": "node", "id": 9814817805, "lat": 32.9115392, "lon": 10.2640963}, {"type": "node", "id": 9814817806, "lat": 32.911536, "lon": 10.2641058}, {"type": "node", "id": 9814817807, "lat": 32.911562, "lon": 10.2641121}, {"type": "node", "id": 9815811537, "lat": 32.9146672, "lon": 10.278073}, {"type": "node", "id": 9815811538, "lat": 32.9146103, "lon": 10.2781746}, {"type": "node", "id": 9815811539, "lat": 32.9145606, "lon": 10.2781295}, {"type": "node", "id": 9815811540, "lat": 32.9146174, "lon": 10.2780335}, {"type": "node", "id": 9822746596, "lat": 32.9305132, "lon": 10.4460367, "tags": {"name": "\u0628\u064a\u0639 \u0645\u0648\u0627\u062f \u063a\u0630\u0627\u0626\u064a\u0629", "name:ar": "\u0628\u064a\u0639 \u0645\u0648\u0627\u062f \u063a\u0630\u0627\u0626\u064a\u0629", "name:fr": "\u00e9picerie/ sup\u00e9rette", "shop": "convenience"}}, {"type": "node", "id": 9822758522, "lat": 32.9302649, "lon": 10.4460511, "tags": {"shop": "convenience"}}, {"type": "node", "id": 9822861692, "lat": 32.9304929, "lon": 10.4459927, "tags": {"addr:city": "\u062a\u0637\u0627\u0648\u064a\u0646", "addr:postcode": "3200", "addr:street": "\u0646\u0647\u062c \u0645\u062d\u0645\u062f \u0627\u0644\u062f\u0647\u0645\u0627\u0646\u064a", "name": "\u0628\u064a\u0639 \u0645\u0644\u0627\u0628\u0633 \u062c\u0627\u0647\u0632\u0629", "name:ar": "\u0628\u064a\u0639 \u0645\u0644\u0627\u0628\u0633 \u062c\u0627\u0647\u0632\u0629", "name:fr": "magasin de vetements", "shop": "clothes"}}, {"type": "node", "id": 9822984993, "lat": 32.9305891, "lon": 10.4471624, "tags": {"shop": "convenience"}}, {"type": "node", "id": 9823102376, "lat": 32.9310346, "lon": 10.4454113, "tags": {"addr:city": "\u062a\u0637\u0627\u0648\u064a\u0646", "addr:postcode": "3200", "name": "\u0628\u064a\u0639 \u0645\u0648\u0627\u062f \u063a\u0630\u0627\u0626\u064a\u0629", "name:ar": "\u0628\u064a\u0639 \u0645\u0648\u0627\u062f \u063a\u0630\u0627\u0626\u064a\u0629", "name:fr": "\u00e9picerie/sup\u00e9rette", "shop": "convenience"}}, {"type": "node", "id": 9823136345, "lat": 32.9281742, "lon": 10.4510771}, {"type": "node", "id": 9823136348, "lat": 32.9281415, "lon": 10.4510629}, {"type": "node", "id": 9823136356, "lat": 32.9281533, "lon": 10.4510252}, {"type": "node", "id": 9823136357, "lat": 32.9281818, "lon": 10.451038}, {"type": "node", "id": 9823136406, "lat": 32.9313246, "lon": 10.4502787, "tags": {"amenity": "cafe", "name": "\u0645\u0642\u0647\u0649 \u0627\u0644\u0646\u0648\u0631", "name:ar": "\u0645\u0642\u0647\u0649 \u0627\u0644\u0646\u0648\u0631"}}, {"type": "node", "id": 9823146125, "lat": 32.9298482, "lon": 10.4469088, "tags": {"addr:city": "\u062a\u0637\u0627\u0648\u064a\u0646", "addr:postcode": "3200", "addr:street": "\u0627\u0644\u0637\u0631\u064a\u0642 \u0627\u0644\u0648\u0637\u0646\u064a\u0629 \u0645\u062f\u0646\u064a\u0646 - \u0627\u0644\u0630\u0647\u064a\u0628\u0629", "amenity": "cafe", "name": "caf\u00e9 bouich", "name:ar": "\u0645\u0642\u0647\u0649 \u0628\u0648\u0639\u064a\u0634", "name:fr": "caf\u00e9 bouich"}}, {"type": "node", "id": 9823421791, "lat": 32.9271529, "lon": 10.44861, "tags": {"addr:city": "\u062a\u0637\u0627\u0648\u064a\u0646", "addr:postcode": "3200", "addr:street": "\u0634\u0627\u0631\u0639 \u0627\u0644\u0634\u0647\u062f\u0627\u0621", "shop": "convenience"}}, {"type": "node", "id": 9823657265, "lat": 32.928728, "lon": 10.4484981}, {"type": "node", "id": 9823657266, "lat": 32.9286166, "lon": 10.4484455}, {"type": "node", "id": 9823657267, "lat": 32.9286029, "lon": 10.4484892}, {"type": "node", "id": 9823657268, "lat": 32.9287146, "lon": 10.4485333}, {"type": "node", "id": 9823657269, "lat": 32.9287013, "lon": 10.4485732}, {"type": "node", "id": 9823657270, "lat": 32.9285899, "lon": 10.4485306}, {"type": "node", "id": 9823657271, "lat": 32.9286797, "lon": 10.4485397, "tags": {"addr:street": "\u0646\u0647\u062c \u0627\u0644\u062d\u0628\u064a\u0628 \u0627\u0644\u062f\u0628\u0627\u0628\u064a", "shop": "clothes"}}, {"type": "node", "id": 9823733687, "lat": 32.9285741, "lon": 10.4483979}, {"type": "node", "id": 9823733688, "lat": 32.9285586, "lon": 10.4484578}, {"type": "node", "id": 9823733689, "lat": 32.9285246, "lon": 10.4484551}, {"type": "node", "id": 9823775697, "lat": 32.9281344, "lon": 10.448276, "tags": {"addr:city": "\u062a\u0637\u0627\u0648\u064a\u0646", "addr:postcode": "3200", "addr:street": "\u0646\u0647\u062c \u0641\u0631\u062d\u0627\u062a \u062d\u0634\u0627\u062f", "amenity": "cafe", "cuisine": "coffee_shop", "name": "\u0641\u0644\u0633\u0637\u064a\u0646", "name:fr": "Palestine"}}, {"type": "node", "id": 9825061724, "lat": 32.9294893, "lon": 10.4466356, "tags": {"amenity": "cafe", "name": "\u0645\u0642\u0647\u0649 \u0634\u0631\u0647\u0627\u0646\u0629", "name:fr": "caf\u00e9 charhana"}}, {"type": "node", "id": 9825061735, "lat": 32.9296744, "lon": 10.4460073}, {"type": "node", "id": 9825061736, "lat": 32.9295342, "lon": 10.4458469}, {"type": "node", "id": 9825061738, "lat": 32.9297164, "lon": 10.4459483}, {"type": "node", "id": 9825061739, "lat": 32.9295941, "lon": 10.4458064}, {"type": "node", "id": 9825061742, "lat": 32.9296835, "lon": 10.4458624, "tags": {"shop": "clothes"}}, {"type": "node", "id": 9825110692, "lat": 32.9297074, "lon": 10.4459573}, {"type": "node", "id": 9825142712, "lat": 32.9288563, "lon": 10.4500122, "tags": {"amenity": "cafe"}}, {"type": "node", "id": 9825155231, "lat": 32.9288698, "lon": 10.4502607, "tags": {"amenity": "cafe"}}, {"type": "node", "id": 9825211028, "lat": 32.9270696, "lon": 10.4495622, "tags": {"addr:city": "\u062a\u0637\u0627\u0648\u064a\u0646", "addr:postcode": "3200", "addr:street": "\u0634\u0627\u0631\u0639 \u0627\u0644\u0634\u0647\u062f\u0627\u0621", "amenity": "cafe", "name": "\u0642\u0647\u0648\u0629 \u0647\u0627\u062c\u0631"}}, {"type": "node", "id": 9825248249, "lat": 32.9280452, "lon": 10.4486715, "tags": {"addr:city": "\u062a\u0637\u0627\u0648\u064a\u0646", "addr:postcode": "3200", "addr:street": "\u0634\u0627\u0631\u0639 \u0627\u0644\u062d\u0628\u064a\u0628 \u0628\u0648\u0631\u0642\u064a\u0628\u0629", "shop": "clothes"}}, {"type": "node", "id": 9825248254, "lat": 32.928087, "lon": 10.4486779, "tags": {"addr:city": "\u062a\u0637\u0627\u0648\u064a\u0646", "addr:postcode": "3200", "addr:street": "\u0634\u0627\u0631\u0639 \u0627\u0644\u062d\u0628\u064a\u0628 \u0628\u0648\u0631\u0642\u064a\u0628\u0629", "shop": "clothes"}}, {"type": "node", "id": 9825264599, "lat": 32.9272639, "lon": 10.4483423, "tags": {"addr:city": "\u062a\u0637\u0627\u0648\u064a\u0646", "addr:postcode": "3200", "addr:street": "\u0634\u0627\u0631\u0639 \u0627\u0644\u062d\u0628\u064a\u0628 \u0628\u0648\u0631\u0642\u064a\u0628\u0629", "shop": "convenience"}}, {"type": "node", "id": 9825316830, "lat": 32.9305899, "lon": 10.4497179, "tags": {"addr:city": "\u062a\u0637\u0627\u0648\u064a\u0646", "addr:postcode": "3200", "addr:street": "\u0634\u0627\u0631\u0639 \u0627\u0644\u062d\u0628\u064a\u0628 \u0628\u0648\u0631\u0642\u064a\u0628\u0629", "amenity": "cafe", "name": "caf\u00e9 Elissa"}}, {"type": "node", "id": 9825316854, "lat": 32.9306077, "lon": 10.4489187, "tags": {"shop": "convenience"}}, {"type": "node", "id": 9825317543, "lat": 32.9273593, "lon": 10.4483675, "tags": {"addr:city": "\u062a\u0637\u0627\u0648\u064a\u0646", "addr:postcode": "3200", "addr:street": "\u0634\u0627\u0631\u0639 \u0627\u0644\u062d\u0628\u064a\u0628 \u0628\u0648\u0631\u0642\u064a\u0628\u0629", "amenity": "cafe", "name": "\u0645\u0642\u0647\u0649 \u0628\u0627\u0631\u064a\u0633", "name:fr": "caf\u00e9 Paris"}}, {"type": "node", "id": 9825317561, "lat": 32.9274752, "lon": 10.4480319}, {"type": "node", "id": 9825317562, "lat": 32.9274614, "lon": 10.4480909}, {"type": "node", "id": 9825317563, "lat": 32.9274087, "lon": 10.4480647}, {"type": "node", "id": 9825317564, "lat": 32.9274244, "lon": 10.4480082}, {"type": "node", "id": 9825317565, "lat": 32.9274489, "lon": 10.4480515, "tags": {"name": "boutique Juliette", "shop": "clothes"}}, {"type": "node", "id": 9825320705, "lat": 32.9275471, "lon": 10.4484385}, {"type": "node", "id": 9825320706, "lat": 32.9276027, "lon": 10.4484556}, {"type": "node", "id": 9825320711, "lat": 32.9275168, "lon": 10.4484432, "tags": {"addr:city": "\u062a\u0637\u0627\u0648\u064a\u0646", "addr:postcode": "3200", "addr:street": "\u0646\u0647\u062c 2 \u0645\u0627\u0631\u0633 1954", "amenity": "cafe", "cuisine": "coffee_shop", "name": "\u0645\u0642\u0647\u0649 \u0627\u0644\u0634\u0627\u0645", "name:fr": "caf\u00e9 alsham"}}, {"type": "node", "id": 9825320968, "lat": 32.9299689, "lon": 10.4508559, "tags": {"shop": "convenience"}}, {"type": "node", "id": 9825321099, "lat": 32.9305086, "lon": 10.4513037, "tags": {"shop": "clothes"}}, {"type": "node", "id": 9825345979, "lat": 32.9270501, "lon": 10.4498254, "tags": {"addr:city": "\u062a\u0637\u0627\u0648\u064a\u0646", "addr:postcode": "3200", "addr:street": "\u0646\u0647\u062c \u0627\u0644\u062d\u0628\u064a\u0628 \u062b\u0627\u0645\u0631", "name": "\u062d\u0645\u0627\u0635", "shop": "convenience"}}, {"type": "node", "id": 9825345989, "lat": 32.9270096, "lon": 10.449938, "tags": {"addr:city": "\u062a\u0637\u0627\u0648\u064a\u0646", "addr:postcode": "3200", "addr:street": "\u0646\u0647\u062c 2 \u0645\u0627\u0631\u0633 1934", "name": "\u0628\u0648\u062a\u064a\u0643 \u0639\u0628\u062f\u0627\u0644\u0643\u0628\u064a\u0631 \u0644\u0644\u0645\u0644\u0627\u0628\u0633", "shop": "clothes"}}, {"type": "node", "id": 9825345997, "lat": 32.9269466, "lon": 10.4501258, "tags": {"addr:city": "\u062a\u0637\u0627\u0648\u064a\u0646", "addr:postcode": "3200", "addr:street": "\u0646\u0647\u062c 2 \u0645\u0627\u0631\u0633 1934", "amenity": "pharmacy", "dispensing": "yes", "healthcare": "pharmacy", "name": "\u0635\u064a\u062f\u0644\u064a\u0629 \u0646\u0639\u064a\u0645\u0629 \u0627\u0632\u064a\u0646"}}, {"type": "node", "id": 9825345998, "lat": 32.9269083, "lon": 10.4500936, "tags": {"addr:city": "\u062a\u0637\u0627\u0648\u064a\u0646", "addr:postcode": "3200", "addr:street": "\u0634\u0627\u0631\u0639 \u0627\u0644\u0634\u0647\u062f\u0627\u0621", "shop": "clothes"}}, {"type": "node", "id": 9825362524, "lat": 32.9289414, "lon": 10.4498222}, {"type": "node", "id": 9825362525, "lat": 32.9289494, "lon": 10.4497707}, {"type": "node", "id": 9825362526, "lat": 32.9289835, "lon": 10.4497883}, {"type": "node", "id": 9825362527, "lat": 32.929, "lon": 10.4497755}, {"type": "node", "id": 9825362528, "lat": 32.9290552, "lon": 10.4498134}, {"type": "node", "id": 9825362529, "lat": 32.9290364, "lon": 10.4498866}, {"type": "node", "id": 9825362530, "lat": 32.9289744, "lon": 10.4498636}, {"type": "node", "id": 9825362531, "lat": 32.928975, "lon": 10.4498412}, {"type": "node", "id": 9825362532, "lat": 32.9290179, "lon": 10.4498312, "tags": {"amenity": "pharmacy", "dispensing": "yes", "healthcare": "pharmacy", "name": "\u0635\u064a\u062f\u0644\u064a\u0629 \u0639\u0628\u062f\u0627\u0644\u0646\u0648\u0631", "name:ar": "\u0635\u064a\u062f\u0644\u064a\u0629 \u0639\u0628\u062f\u0627\u0644\u0646\u0648\u0631", "name:fr": "pharmacie abdelnour"}}, {"type": "node", "id": 9825362533, "lat": 32.929069, "lon": 10.4499397}, {"type": "node", "id": 9825362534, "lat": 32.9291178, "lon": 10.4498145}, {"type": "node", "id": 9825362535, "lat": 32.9291687, "lon": 10.4498108}, {"type": "node", "id": 9825362536, "lat": 32.9291709, "lon": 10.449831}, {"type": "node", "id": 9825362537, "lat": 32.9292016, "lon": 10.4498386}, {"type": "node", "id": 9825362538, "lat": 32.9291465, "lon": 10.4499878}, {"type": "node", "id": 9825362657, "lat": 32.9303839, "lon": 10.4509345, "tags": {"amenity": "cafe", "name": "caf\u00e9"}}, {"type": "node", "id": 9825362714, "lat": 32.9290645, "lon": 10.4490522, "tags": {"amenity": "cafe", "name": "\u0645\u0642\u0647\u0649 \u0627\u0644\u0634\u0639\u0628"}}, {"type": "node", "id": 9825383865, "lat": 32.9280415, "lon": 10.4481987}, {"type": "node", "id": 9825383866, "lat": 32.9280307, "lon": 10.448241}, {"type": "node", "id": 9825383867, "lat": 32.9279361, "lon": 10.4482071}, {"type": "node", "id": 9825383868, "lat": 32.9279937, "lon": 10.4482005, "tags": {"addr:city": "\u062a\u0637\u0627\u0648\u064a\u0646", "addr:postcode": "3200", "addr:street": "\u0646\u0647\u062c \u0641\u0631\u062d\u0627\u062a \u062d\u0634\u0627\u062f", "name": "Dbira", "shop": "clothes"}}, {"type": "node", "id": 9825383871, "lat": 32.9279952, "lon": 10.4482446, "tags": {"addr:city": "\u062a\u0637\u0627\u0648\u064a\u0646", "addr:postcode": "3200", "addr:street": "\u0646\u0647\u062c \u062d\u0645\u0627\u062f\u064a \u062e\u0630\u064a\u0631", "name": "Galaoui", "shop": "clothes"}}, {"type": "node", "id": 9825389360, "lat": 32.9279429, "lon": 10.4481757}, {"type": "node", "id": 9825520920, "lat": 32.9312385, "lon": 10.4516727, "tags": {"name": "\u00e9picerie", "shop": "convenience"}}, {"type": "node", "id": 9825521081, "lat": 32.9311225, "lon": 10.4504627, "tags": {"amenity": "pharmacy", "dispensing": "yes", "healthcare": "pharmacy", "name": "\u0635\u064a\u062f\u0644\u064a\u0629 \u0641\u0627\u0637\u0645\u0629 \u0635\u0627\u0644\u062d"}}, {"type": "node", "id": 9826033480, "lat": 32.9301663, "lon": 10.4490755, "tags": {"shop": "clothes"}}, {"type": "node", "id": 9828044253, "lat": 32.9280236, "lon": 10.4482817}, {"type": "node", "id": 9828044254, "lat": 32.9279287, "lon": 10.4482413}, {"type": "node", "id": 9828044255, "lat": 32.9280084, "lon": 10.4483375}, {"type": "node", "id": 9828044256, "lat": 32.9279962, "lon": 10.4483836}, {"type": "node", "id": 9828044257, "lat": 32.9279738, "lon": 10.448346, "tags": {"addr:city": "\u062a\u0637\u0627\u0648\u064a\u0646", "addr:postcode": "3200", "addr:street": "\u0646\u0647\u062c \u062d\u0645\u0627\u062f\u064a \u062e\u0630\u064a\u0631", "name": "Taher Bouharba", "shop": "clothes"}}, {"type": "node", "id": 9828044258, "lat": 32.9279758, "lon": 10.4484564}, {"type": "node", "id": 9828044259, "lat": 32.927892, "lon": 10.4484266}, {"type": "node", "id": 9828044260, "lat": 32.9279605, "lon": 10.448517}, {"type": "node", "id": 9828044261, "lat": 32.9278673, "lon": 10.4484888}, {"type": "node", "id": 9828044263, "lat": 32.9279422, "lon": 10.4485752}, {"type": "node", "id": 9828044264, "lat": 32.9278426, "lon": 10.4485512}, {"type": "node", "id": 9828044265, "lat": 32.9279096, "lon": 10.4485352, "tags": {"addr:city": "\u062a\u0637\u0627\u0648\u064a\u0646", "addr:postcode": "3200", "addr:street": "\u0646\u0647\u062c \u062d\u0645\u0627\u062f\u064a \u062e\u0630\u064a\u0631", "shop": "clothes"}}, {"type": "node", "id": 9828044266, "lat": 32.9279249, "lon": 10.4486359}, {"type": "node", "id": 9828044267, "lat": 32.9278322, "lon": 10.4486056}, {"type": "node", "id": 9828044268, "lat": 32.9278903, "lon": 10.4485959, "tags": {"addr:city": "\u062a\u0637\u0627\u0648\u064a\u0646", "addr:postcode": "3200", "addr:street": "\u0634\u0627\u0631\u0639 \u0627\u0644\u062d\u0628\u064a\u0628 \u0628\u0648\u0631\u0642\u064a\u0628\u0629", "shop": "clothes"}}, {"type": "node", "id": 9828048812, "lat": 32.9279805, "lon": 10.4482871, "tags": {"addr:city": "\u062a\u0637\u0627\u0648\u064a\u0646", "addr:postcode": "3200", "addr:street": "\u0646\u0647\u062c \u062d\u0645\u0627\u062f\u064a \u062e\u0630\u064a\u0631", "name": "Galaoui", "shop": "clothes"}}, {"type": "node", "id": 9828066143, "lat": 32.9276365, "lon": 10.4484558}, {"type": "node", "id": 9828066144, "lat": 32.927622, "lon": 10.4485228}, {"type": "node", "id": 9828066145, "lat": 32.9275347, "lon": 10.4484959}, {"type": "node", "id": 9828066146, "lat": 32.9276048, "lon": 10.4484461}, {"type": "node", "id": 9828066147, "lat": 32.9275859, "lon": 10.4484757, "tags": {"addr:city": "\u062a\u0637\u0627\u0648\u064a\u0646", "addr:postcode": "3200", "addr:street": "\u0634\u0627\u0631\u0639 \u0627\u0644\u062d\u0628\u064a\u0628 \u0628\u0648\u0631\u0642\u064a\u0628\u0629", "shop": "clothes"}}, {"type": "node", "id": 9828066148, "lat": 32.9277364, "lon": 10.4485605}, {"type": "node", "id": 9828066149, "lat": 32.9277942, "lon": 10.4483541}, {"type": "node", "id": 9828066158, "lat": 32.9278273, "lon": 10.4485897}, {"type": "node", "id": 9828066159, "lat": 32.9279066, "lon": 10.4483896}, {"type": "node", "id": 9828066160, "lat": 32.9278139, "lon": 10.4484792, "tags": {"amenity": "pharmacy", "dispensing": "yes", "healthcare": "pharmacy", "name": "\u0635\u064a\u062f\u0644\u064a\u0629 \u0641\u0631\u064a\u0639\u0629", "name:fr": "pharmacie Friaa"}}, {"type": "node", "id": 9828071617, "lat": 32.927898, "lon": 10.4483869}, {"type": "node", "id": 9828071618, "lat": 32.9279254, "lon": 10.4483656}, {"type": "node", "id": 9828071619, "lat": 32.9279357, "lon": 10.4483179}, {"type": "node", "id": 9828071620, "lat": 32.9279136, "lon": 10.4483111}, {"type": "node", "id": 9828370249, "lat": 32.9294973, "lon": 10.4516178, "tags": {"shop": "convenience"}}, {"type": "node", "id": 9828370257, "lat": 32.9296893, "lon": 10.4519844, "tags": {"shop": "convenience"}}, {"type": "node", "id": 9828565105, "lat": 32.9282869, "lon": 10.4483106}, {"type": "node", "id": 9828565106, "lat": 32.9282701, "lon": 10.448376}, {"type": "node", "id": 9828565109, "lat": 32.9282419, "lon": 10.4482972}, {"type": "node", "id": 9828565110, "lat": 32.9282236, "lon": 10.4483626}, {"type": "node", "id": 9828565111, "lat": 32.9282532, "lon": 10.4483324, "tags": {"addr:city": "\u062a\u0637\u0627\u0648\u064a\u0646", "addr:postcode": "3200", "addr:street": "\u0646\u0647\u062c \u0641\u0631\u062d\u0627\u062a \u062d\u0634\u0627\u062f", "shop": "convenience"}}, {"type": "node", "id": 9828565114, "lat": 32.9284783, "lon": 10.4483693}, {"type": "node", "id": 9828565115, "lat": 32.9284558, "lon": 10.4484347}, {"type": "node", "id": 9828583617, "lat": 32.9285093, "lon": 10.4484145, "tags": {"addr:city": "\u062a\u0637\u0627\u0648\u064a\u0646", "addr:postcode": "3200", "addr:street": "\u0646\u0647\u062c \u0641\u0631\u062d\u0627\u062a \u062d\u0634\u0627\u062f", "shop": "clothes"}}, {"type": "node", "id": 9828800500, "lat": 32.9279356, "lon": 10.4512522}, {"type": "node", "id": 9828800501, "lat": 32.9278816, "lon": 10.4514507}, {"type": "node", "id": 9828800502, "lat": 32.9279536, "lon": 10.4514721}, {"type": "node", "id": 9828800503, "lat": 32.9280031, "lon": 10.451279}, {"type": "node", "id": 9828800504, "lat": 32.9279379, "lon": 10.4513353, "tags": {"addr:city": "\u062a\u0637\u0627\u0648\u064a\u0646", "addr:postcode": "3200", "addr:street": "\u0646\u0647\u062c \u0627\u0644\u062d\u0628\u064a\u0628 \u0627\u0644\u062f\u0628\u0627\u0628\u064a", "amenity": "cafe", "name": "\u0642\u0647\u0648\u0629 \u0627\u0644\u0628\u0648\u0644\u0627\u0631"}}, {"type": "node", "id": 9831044531, "lat": 32.9282915, "lon": 10.448726, "tags": {"addr:city": "\u062a\u0637\u0627\u0648\u064a\u0646", "addr:postcode": "3200", "addr:street": "\u0634\u0627\u0631\u0639 \u0627\u0644\u062d\u0628\u064a\u0628 \u0628\u0648\u0631\u0642\u064a\u0628\u0629", "name": "El Galaoui", "shop": "clothes"}}, {"type": "node", "id": 9831815149, "lat": 32.9275491, "lon": 10.450116, "tags": {"addr:city": "\u062a\u0637\u0627\u0648\u064a\u0646", "addr:postcode": "3200", "addr:street": "\u0646\u0647\u062c \u0627\u0644\u0637\u064a\u0628 \u0627\u0644\u063a\u0631\u064a\u0627\u0646\u064a", "name": "Taiba", "shop": "clothes"}}, {"type": "node", "id": 9831815152, "lat": 32.9270184, "lon": 10.4505781, "tags": {"addr:city": "\u062a\u0637\u0627\u0648\u064a\u0646", "addr:postcode": "3200", "addr:street": "\u0646\u0647\u062c 2 \u0645\u0627\u0631\u0633 1934", "shop": "convenience"}}, {"type": "node", "id": 9831815155, "lat": 32.9273006, "lon": 10.450452, "tags": {"amenity": "cafe", "name": "\u0645\u0642\u0647\u0649 \u0627\u0644\u0642\u062f\u0633", "name:fr": "Al Quds"}}, {"type": "node", "id": 9831815158, "lat": 32.9273637, "lon": 10.4503459, "tags": {"addr:city": "\u062a\u0637\u0627\u0648\u064a\u0646", "addr:postcode": "3200", "addr:street": "\u0646\u0647\u062c \u0645\u0635\u0628\u0627\u062d \u0627\u0644\u062c\u0631\u0628\u0648\u0639", "shop": "clothes"}}, {"type": "node", "id": 9831815159, "lat": 32.9274194, "lon": 10.4503658, "tags": {"addr:city": "\u062a\u0637\u0627\u0648\u064a\u0646", "addr:postcode": "3200", "addr:street": "\u0646\u0647\u062c \u0645\u0635\u0628\u0627\u062d \u0627\u0644\u062c\u0631\u0628\u0648\u0639", "shop": "clothes"}}, {"type": "node", "id": 9831815160, "lat": 32.9271873, "lon": 10.4507352, "tags": {"addr:city": "\u062a\u0637\u0627\u0648\u064a\u0646", "addr:postcode": "3200", "addr:street": "\u0646\u0647\u062c \u0627\u0644\u0635\u062d\u0631\u0627\u0621", "shop": "clothes"}}, {"type": "node", "id": 9831815162, "lat": 32.9271354, "lon": 10.4506135, "tags": {"addr:city": "\u062a\u0637\u0627\u0648\u064a\u0646", "addr:postcode": "3200", "addr:street": "\u0646\u0647\u062c \u0627\u0644\u062d\u0631\u064a\u0629", "shop": "clothes"}}, {"type": "node", "id": 9831815187, "lat": 32.9279046, "lon": 10.4506882, "tags": {"addr:city": "\u062a\u0637\u0627\u0648\u064a\u0646", "addr:postcode": "3200", "addr:street": "\u0646\u0647\u062c \u0627\u0644\u062d\u0631\u064a\u0629", "shop": "clothes"}}, {"type": "node", "id": 9831815193, "lat": 32.9279814, "lon": 10.4505967, "tags": {"addr:city": "\u062a\u0637\u0627\u0648\u064a\u0646", "addr:postcode": "3200", "addr:street": "\u0646\u0647\u062c \u0645\u0635\u0628\u0627\u062d \u0627\u0644\u062c\u0631\u0628\u0648\u0639", "shop": "convenience"}}, {"type": "node", "id": 9831826188, "lat": 32.927894, "lon": 10.4508813, "tags": {"addr:city": "\u062a\u0637\u0627\u0648\u064a\u0646", "addr:postcode": "3200", "addr:street": "\u0646\u0647\u062c \u0627\u0644\u062d\u0631\u064a\u0629", "name": "HAVANA", "shop": "clothes"}}, {"type": "node", "id": 9831826195, "lat": 32.9279515, "lon": 10.4508864, "tags": {"addr:city": "\u062a\u0637\u0627\u0648\u064a\u0646", "addr:postcode": "3200", "addr:street": "\u0646\u0647\u062c \u0627\u0644\u062d\u0631\u064a\u0629", "amenity": "cafe", "name": "\u0645\u0642\u0647\u0649 \u0627\u0644\u0632\u064a\u062a\u0648\u0646\u0629", "name:fr": "Caf\u00e9 Al zaytouna"}}, {"type": "node", "id": 9831923602, "lat": 32.9280261, "lon": 10.4509324, "tags": {"addr:city": "\u062a\u0637\u0627\u0648\u064a\u0646", "addr:postcode": "3200", "addr:street": "\u0646\u0647\u062c \u0627\u0644\u062d\u0631\u064a\u0629", "shop": "convenience"}}, {"type": "node", "id": 9831923606, "lat": 32.9277733, "lon": 10.4501284}, {"type": "node", "id": 9831923607, "lat": 32.9277125, "lon": 10.4501035}, {"type": "node", "id": 9831923608, "lat": 32.9276806, "lon": 10.4501969}, {"type": "node", "id": 9831923609, "lat": 32.9277491, "lon": 10.4502271}, {"type": "node", "id": 9831923610, "lat": 32.9277419, "lon": 10.4501677, "tags": {"addr:city": "\u062a\u0637\u0627\u0648\u064a\u0646", "addr:postcode": "3200", "addr:street": "\u0646\u0647\u062c \u0627\u0644\u0637\u064a\u0628 \u0627\u0644\u063a\u0631\u064a\u0627\u0646\u064a", "shop": "convenience"}}, {"type": "node", "id": 9831965618, "lat": 32.9276781, "lon": 10.4502253, "tags": {"addr:city": "\u062a\u0637\u0627\u0648\u064a\u0646", "addr:postcode": "3200", "addr:street": "\u0646\u0647\u062c \u0627\u0644\u0637\u064a\u0628 \u0627\u0644\u063a\u0631\u064a\u0627\u0646\u064a", "shop": "clothes"}}, {"type": "node", "id": 9831965622, "lat": 32.92776, "lon": 10.4501938}, {"type": "node", "id": 9832252312, "lat": 32.9283637, "lon": 10.4506398}, {"type": "node", "id": 9832252315, "lat": 32.9282745, "lon": 10.4505867}, {"type": "node", "id": 9832252316, "lat": 32.9282928, "lon": 10.4505408}, {"type": "node", "id": 9832252517, "lat": 32.9283856, "lon": 10.4505759}, {"type": "node", "id": 9832252518, "lat": 32.9283212, "lon": 10.4505818, "tags": {"addr:city": "\u062a\u0637\u0627\u0648\u064a\u0646", "addr:postcode": "3200", "addr:street": "\u0646\u0647\u062c \u0645\u0635\u0628\u0627\u062d \u0627\u0644\u062c\u0631\u0628\u0648\u0639", "shop": "convenience"}}, {"type": "node", "id": 9832850428, "lat": 32.9281478, "lon": 10.4490008}, {"type": "node", "id": 9832850429, "lat": 32.927951, "lon": 10.4489217}, {"type": "node", "id": 9832850430, "lat": 32.9279747, "lon": 10.4488284}, {"type": "node", "id": 9832850431, "lat": 32.9281719, "lon": 10.4489142}, {"type": "node", "id": 9832850432, "lat": 32.9280601, "lon": 10.448916, "tags": {"addr:city": "\u062a\u0637\u0627\u0648\u064a\u0646", "addr:postcode": "3200", "addr:street": "\u0634\u0627\u0631\u0639 \u0627\u0644\u062d\u0628\u064a\u0628 \u0628\u0648\u0631\u0642\u064a\u0628\u0629", "amenity": "cafe", "name": "\u0645\u0642\u0647\u0649 \u0627\u0644\u0631\u062d\u0628\u0629"}}, {"type": "node", "id": 9832850434, "lat": 32.928005, "lon": 10.4488415}, {"type": "node", "id": 9832850437, "lat": 32.9280311, "lon": 10.4488491}, {"type": "node", "id": 9832850440, "lat": 32.9281953, "lon": 10.4488426}, {"type": "node", "id": 9832850441, "lat": 32.9280539, "lon": 10.4487978}, {"type": "node", "id": 9832850442, "lat": 32.9276497, "lon": 10.4497553}, {"type": "node", "id": 9832850443, "lat": 32.9275478, "lon": 10.4497101}, {"type": "node", "id": 9832850444, "lat": 32.9274956, "lon": 10.4499192}, {"type": "node", "id": 9832850445, "lat": 32.9275952, "lon": 10.449956}, {"type": "node", "id": 9832850446, "lat": 32.9275715, "lon": 10.4498373, "tags": {"addr:city": "\u062a\u0637\u0627\u0648\u064a\u0646", "addr:postcode": "3200", "addr:street": "\u0646\u0647\u062c \u0627\u0644\u062d\u0628\u064a\u0628 \u062b\u0627\u0645\u0631", "name": "El Gaceur", "shop": "convenience"}}, {"type": "node", "id": 9832850447, "lat": 32.9278039, "lon": 10.4497977}, {"type": "node", "id": 9832850448, "lat": 32.9277209, "lon": 10.4497666}, {"type": "node", "id": 9832850449, "lat": 32.9276569, "lon": 10.4499757}, {"type": "node", "id": 9832850450, "lat": 32.927747, "lon": 10.4500153}, {"type": "node", "id": 9832850451, "lat": 32.9277138, "lon": 10.4499023, "tags": {"name": "El Dhib", "shop": "convenience"}}, {"type": "node", "id": 9832850463, "lat": 32.9276521, "lon": 10.4486702, "tags": {"shop": "clothes"}}, {"type": "node", "id": 9832872317, "lat": 32.9273803, "lon": 10.4495938}, {"type": "node", "id": 9832872320, "lat": 32.9272486, "lon": 10.4495471}, {"type": "node", "id": 9832872325, "lat": 32.9274111, "lon": 10.449477}, {"type": "node", "id": 9832872326, "lat": 32.9272794, "lon": 10.449427}, {"type": "node", "id": 9832872327, "lat": 32.9273383, "lon": 10.4495037, "tags": {"shop": "convenience"}}, {"type": "node", "id": 9833174077, "lat": 32.9282724, "lon": 10.4489056, "tags": {"shop": "clothes"}}, {"type": "node", "id": 9833271540, "lat": 32.9278213, "lon": 10.4516559, "tags": {"addr:city": "\u062a\u0637\u0627\u0648\u064a\u0646", "addr:postcode": "3200", "addr:street": "\u0646\u0647\u062c \u0642\u0631\u0637\u0628\u0629", "amenity": "cafe", "name": "\u0645\u0642\u0647\u0649 \u0627\u0644\u062e\u064a\u0645\u0629"}}, {"type": "node", "id": 9833271541, "lat": 32.9274228, "lon": 10.4510336, "tags": {"shop": "clothes"}}, {"type": "node", "id": 9833271554, "lat": 32.9277425, "lon": 10.4518141, "tags": {"shop": "convenience"}}, {"type": "node", "id": 9833304434, "lat": 32.9286212, "lon": 10.4497584, "tags": {"shop": "convenience"}}, {"type": "node", "id": 9833304435, "lat": 32.9285244, "lon": 10.4497315, "tags": {"shop": "convenience"}}, {"type": "node", "id": 9833304441, "lat": 32.9285469, "lon": 10.4501553, "tags": {"clothes": "underwear", "shop": "clothes"}}, {"type": "node", "id": 9937270781, "lat": 32.9293143, "lon": 10.4500979, "tags": {"addr:city": "Tataouine", "addr:housenumber": "10", "addr:street": "Rue 18 Janvier 1952", "name": "multitech2", "opening_hours": "Mo-Su 08:00-23:00", "operator": "Boutique de Vente et R\u00e9paration GSM", "payment:cash": "yes", "phone": "+216 90 725 000", "shop": "supermarket"}}, {"type": "node", "id": 9977115750, "lat": 32.9142067, "lon": 10.2794955}, {"type": "node", "id": 9977115754, "lat": 32.9141439, "lon": 10.2794503}, {"type": "node", "id": 10259591909, "lat": 32.9282911, "lon": 10.4460307, "tags": {"amenity": "cafe", "name:en": "Andalos cafe"}}, {"type": "node", "id": 10294939500, "lat": 33.0587813, "lon": 10.3361443}, {"type": "node", "id": 11158180683, "lat": 33.300477, "lon": 10.2949034}, {"type": "node", "id": 11491314572, "lat": 32.9467229, "lon": 10.4741996, "tags": {"addr:postcode": "3200", "name:fr": "Sup\u00e9rette Cit\u00e9 Universitaire", "opening_hours": "Mo-Su 07:00-21:00", "shop": "convenience"}}, {"type": "node", "id": 11505058286, "lat": 32.8975502, "lon": 10.5260454}, {"type": "node", "id": 11505058287, "lat": 32.8974479, "lon": 10.5261066}, {"type": "node", "id": 11505058288, "lat": 32.8974885, "lon": 10.5262028}, {"type": "node", "id": 11505058289, "lat": 32.8975908, "lon": 10.5261415}, {"type": "node", "id": 12782249540, "lat": 32.9464743, "lon": 10.4736417, "tags": {"addr:city": "tataouine", "addr:postcode": "3200", "addr:street": "rue tamezout", "amenity": "cafe", "internet_access": "yes", "internet_access:fee": "no", "name": "Caf\u00e9 Salon de Th\u00e9 Coccinelle", "outdoor_seating": "yes", "source": "cafe;survey"}}, {"type": "node", "id": 12782405594, "lat": 32.9467418, "lon": 10.4742465, "tags": {"name": "albaraka", "payment:cash": "yes", "shop": "convenience"}}, {"type": "node", "id": 13101370295, "lat": 32.9035529, "lon": 10.4238479, "tags": {"name": "mekki", "shop": "convenience"}}, {"type": "way", "id": 284319180, "nodes": [2880584319, 2880584320, 2880584321, 4215663934, 11158180683, 2880584322, 2880584319], "tags": {"addr:city": "Ksar Jedid", "addr:postcode": "4151", "amenity": "cafe", "building": "yes", "name": "\u0645\u0642\u0647\u0649 \u0627\u0644\u0628\u0627\u0631\u0648\u062f\u064a", "name:ar": "\u0645\u0642\u0647\u0649 \u0627\u0644\u0628\u0627\u0631\u0648\u062f\u064a", "name:fr": "Caf\u00e9 Baroudi", "smoking": "yes", "source": "MedenineTech"}}, {"type": "way", "id": 284319938, "nodes": [2880593007, 2880593008, 2880593009, 2880593010, 2880593007], "tags": {"addr:city": "Ksar Jedid", "addr:postcode": "4151", "amenity": "cafe", "building": "yes", "name": "\u0645\u0642\u0647\u0649 \u0645\u0631\u062d\u0628\u0627", "name:ar": "\u0645\u0642\u0647\u0649 \u0645\u0631\u062d\u0628\u0627", "name:fr": "Caf\u00e9 Bienvenue", "smoking": "yes", "source": "MedenineTech"}}, {"type": "way", "id": 284320223, "nodes": [2880595982, 2880595983, 2880595984, 2880595985, 2880595982], "tags": {"addr:city": "Ksar Jedid", "addr:postcode": "4151", "amenity": "cafe", "building": "yes", "name": "\u0645\u0642\u0647\u0649 \u0627\u0644\u0642\u0635\u0651\u0627\u0635", "name:fr": "Caf\u00e9 Elgassas", "smoking": "yes", "source": "MedenineTech"}}, {"type": "way", "id": 658237765, "nodes": [6164204989, 6164204988, 6164204987, 6164204986, 6164204985, 6164204984, 6164204983, 6164204982, 6164204981, 6164204980, 6164204979, 6164204978, 6164204977, 6164204976, 6164204989], "tags": {"amenity": "cafe", "name": "station el bourj", "shop": "coffee"}}, {"type": "way", "id": 658757509, "nodes": [6168646024, 6168646026, 6168646025, 6168646024], "tags": {"amenity": "cafe", "building": "yes", "name": "cafe hsan"}}, {"type": "way", "id": 668249959, "nodes": [6257842300, 6257842299, 6257842298, 6257842297, 6257842300], "tags": {"name": "elkhlas", "shop": "supermarket"}}, {"type": "way", "id": 678838780, "nodes": [6356148153, 6356148156, 6356148155, 6356148154, 6356148153], "tags": {"amenity": "cafe", "building": "yes", "name": "caf\u00e9 el hamra"}}, {"type": "way", "id": 678838781, "nodes": [6356148162, 6356148161, 6356148160, 6356148159, 6356148162], "tags": {"amenity": "cafe", "building": "yes", "name": "caf\u00e9 edriss"}}, {"type": "way", "id": 679428178, "nodes": [6362174320, 6362174319, 8949856038, 6362174317, 6362174320], "tags": {"shop": "supermarket"}}, {"type": "way", "id": 679428179, "nodes": [6362174325, 6362174324, 6362174323, 6362174321, 6362174322, 6362174325], "tags": {"shop": "supermarket"}}, {"type": "way", "id": 680524265, "nodes": [6371957566, 6371957565, 6371957564, 6371957563, 6371957566], "tags": {"amenity": "cafe", "name": "YASSIN"}}, {"type": "way", "id": 744568631, "nodes": [6968574513, 6968574512, 6968574511, 6968574510, 6968574513], "tags": {"amenity": "cafe", "building": "yes", "internet_access": "wlan", "internet_access:fee": "customers", "name": "Cafe Paris"}}, {"type": "way", "id": 744568691, "nodes": [6968574851, 6968574850, 6968574849, 6968574848, 6968574851], "tags": {"amenity": "pharmacy", "building": "yes", "dispensing": "yes", "healthcare": "pharmacy"}}, {"type": "way", "id": 744568693, "nodes": [6968574861, 6968574860, 6968574859, 6968574858, 6968574861], "tags": {"amenity": "cafe", "building": "yes"}}, {"type": "way", "id": 878928570, "nodes": [6968573485, 6968573488, 10294939500, 6968573494, 6968573485], "tags": {"amenity": "cafe", "building": "yes", "layer": "2", "name": "Salam"}}, {"type": "way", "id": 878928571, "nodes": [8176598571, 8176598572, 6968574956, 6968574955, 8176598571], "tags": {"amenity": "cafe", "building": "yes", "name": "Cafe Prestige"}}, {"type": "way", "id": 1068440575, "nodes": [9808205041, 9808205042, 9808205043, 9808205044, 9808205041], "tags": {"addr:city": "Tataouine", "addr:postcode": "3242", "addr:street": "\u0627\u0644\u0637\u0631\u064a\u0642 \u0627\u0644\u0648\u0637\u0646\u064a\u0629 \u0645\u062f\u0646\u064a\u0646 - \u0627\u0644\u0630\u0647\u064a\u0628\u0629", "building": "yes", "shop": "convenience"}}, {"type": "way", "id": 1069281700, "nodes": [9814771180, 9814771181, 9814771182, 9814771183, 9814771180], "tags": {"addr:city": "\u0634\u0646\u0646\u064a", "addr:postcode": "3222", "addr:street": "Route Chenini Tataouine", "amenity": "cafe", "building": "yes", "name": "\u0645\u0642\u0647\u0649 \u0627\u0644\u0642\u0635\u0648\u0631", "name:fr": "caf\u00e9 elgsour"}}, {"type": "way", "id": 1069281708, "nodes": [9814784419, 9814784420, 9814784421, 9977115754, 9814784422, 9977115750, 9814784419], "tags": {"addr:city": "\u0634\u0646\u0646\u064a", "addr:postcode": "3222", "addr:street": "\u0646\u0647\u062c \u0645\u0627\u0644\u0643 \u0625\u0628\u0646 \u0623\u0646\u0633", "building": "yes", "shop": "convenience"}}, {"type": "way", "id": 1069287342, "nodes": [9814817797, 9814817798, 9814817799, 9814817800, 9814817801, 9814817802, 9814817803, 9814817804, 9814817805, 9814817806, 9814817807, 9814817797], "tags": {"amenity": "cafe", "building": "yes", "name": "\u0645\u0642\u0647\u0649 \u0634\u0646\u0646\u064a"}}, {"type": "way", "id": 1069422988, "nodes": [9815811537, 9815811538, 9815811539, 9815811540, 9815811537], "tags": {"building": "yes", "shop": "convenience"}}, {"type": "way", "id": 1070365746, "nodes": [9823136345, 9823136348, 9823136356, 9823136357, 9823136345], "tags": {"building": "yes", "shop": "convenience"}}, {"type": "way", "id": 1070434870, "nodes": [9823657265, 9823657266, 9823657267, 9823657268, 9823657265], "tags": {"addr:city": "\u062a\u0637\u0627\u0648\u064a\u0646", "addr:postcode": "3200", "addr:street": "\u0646\u0647\u062c \u0627\u0644\u062d\u0628\u064a\u0628 \u0627\u0644\u062f\u0628\u0627\u0628\u064a", "building": "yes", "shop": "clothes"}}, {"type": "way", "id": 1070434871, "nodes": [9823657268, 9823657269, 9823657270, 9823657267, 9823657268], "tags": {"addr:city": "\u062a\u0637\u0627\u0648\u064a\u0646", "addr:postcode": "3200", "addr:street": "\u0646\u0647\u062c \u062d\u0628\u064a\u0628 \u062f\u0628\u0627\u0628\u064a", "building": "yes", "shop": "clothes"}}, {"type": "way", "id": 1070589779, "nodes": [9825061735, 9825110692, 9825061738, 9825061739, 9825061736, 9825061735], "tags": {"addr:city": "\u062a\u0637\u0627\u0648\u064a\u0646", "addr:postcode": "3200", "addr:street": "\u0634\u0627\u0631\u0639 \u0645\u062d\u0645\u062f \u0627\u0644\u062c\u0645\u0644", "amenity": "cafe", "building": "yes", "name": "\u0645\u0642\u0647\u0649 \u0628\u064a\u0627\u0646", "name:fr": "caf\u00e9 bayene"}}, {"type": "way", "id": 1070621136, "nodes": [9825317561, 9825317562, 9825317563, 9825317564, 9825317561], "tags": {"addr:city": "\u062a\u0637\u0627\u0648\u064a\u0646", "addr:postcode": "3200", "addr:street": "\u0646\u0647\u062c 2 \u0645\u0627\u0631\u0633 1954", "building": "yes", "shop": "clothes"}}, {"type": "way", "id": 1070624918, "nodes": [9825362524, 9825362525, 9825362526, 9825362527, 9825362528, 9825362529, 9825362530, 9825362531, 9825362524], "tags": {"amenity": "pharmacy", "building": "yes", "dispensing": "yes", "healthcare": "pharmacy", "name": "\u0635\u064a\u062f\u0644\u064a\u0629 \u0639\u0628\u062f\u0627\u0644\u0646\u0648\u0631", "name:ar": "\u0635\u064a\u062f\u0644\u064a\u0629 \u0639\u0628\u062f\u0627\u0644\u0646\u0648\u0631", "name:fr": "pharmacie abdelnour"}}, {"type": "way", "id": 1070624919, "nodes": [9825362533, 9825362534, 9825362535, 9825362536, 9825362537, 9825362538, 9825362533], "tags": {"amenity": "cafe", "building": "yes", "name": "\u0645\u0642\u0647\u0649 \u062a\u0637\u0627\u0648\u064a\u0646", "name:ar": "\u0645\u0642\u0647\u0649 \u062a\u0637\u0627\u0648\u064a\u0646", "name:fr": "caf\u00e9 tataouine"}}, {"type": "way", "id": 1070629601, "nodes": [9825389360, 9825383865, 9825383866, 9825383867, 9825389360], "tags": {"addr:city": "\u062a\u0637\u0627\u0648\u064a\u0646", "addr:postcode": "3200", "addr:street": "\u0646\u0647\u062c \u0641\u0631\u062d\u0627\u062a \u062d\u0634\u0627\u062f", "building": "yes", "name": "Dbira", "shop": "clothes"}}, {"type": "way", "id": 1070975712, "nodes": [9828066143, 9828066144, 9828066145, 9825320705, 9825320706, 9828066146, 9828066143], "tags": {"addr:city": "\u062a\u0637\u0627\u0648\u064a\u0646", "addr:postcode": "3200", "addr:street": "\u0634\u0627\u0631\u0639 \u0627\u0644\u062d\u0628\u064a\u0628 \u0628\u0648\u0631\u0642\u064a\u0628\u0629", "building": "yes", "shop": "clothes"}}, {"type": "way", "id": 1070975714, "nodes": [9828066148, 9828066158, 9828044264, 9828044261, 9828044259, 9828066159, 9828071617, 9828066149, 9828066148], "tags": {"addr:city": "\u062a\u0637\u0627\u0648\u064a\u0646", "addr:postcode": "3200", "addr:street": "\u0634\u0627\u0631\u0639 \u0627\u0644\u062d\u0628\u064a\u0628 \u0628\u0648\u0631\u0642\u064a\u0628\u0629", "amenity": "pharmacy", "building": "yes", "dispensing": "yes", "healthcare": "pharmacy"}}, {"type": "way", "id": 1070990259, "nodes": [9825383866, 9828044253, 9828044254, 9825383867, 9825383866], "tags": {"addr:city": "\u062a\u0637\u0627\u0648\u064a\u0646", "addr:postcode": "3200", "addr:street": "\u0646\u0647\u062c \u062d\u0645\u0627\u062f\u064a \u062e\u0630\u064a\u0631", "building": "yes", "name": "Galaoui", "shop": "clothes"}}, {"type": "way", "id": 1070990260, "nodes": [9828044253, 9828044255, 9828071619, 9828071620, 9828044254, 9828044253], "tags": {"addr:city": "\u062a\u0637\u0627\u0648\u064a\u0646", "addr:postcode": "3200", "addr:street": "\u0646\u0647\u062c \u062d\u0645\u0627\u062f\u064a \u062e\u0630\u064a\u0631", "building": "yes", "name": "Taher Galaoui", "shop": "clothes"}}, {"type": "way", "id": 1070990261, "nodes": [9828044255, 9828044256, 9828071618, 9828071619, 9828044255], "tags": {"addr:city": "\u062a\u0637\u0627\u0648\u064a\u0646", "addr:postcode": "3200", "addr:street": "\u0646\u0647\u062c \u062d\u0645\u0627\u062f\u064a \u062e\u0630\u064a\u0631", "building": "yes", "name": "Taher Bouharba", "shop": "clothes"}}, {"type": "way", "id": 1070990262, "nodes": [9828044256, 9828044258, 9828044259, 9828071618, 9828044256], "tags": {"addr:city": "\u062a\u0637\u0627\u0648\u064a\u0646", "addr:postcode": "3200", "addr:street": "\u0646\u0647\u062c \u062d\u0645\u0627\u062f\u064a \u062e\u0630\u064a\u0631", "building": "yes", "name": "Raouf", "shop": "clothes"}}, {"type": "way", "id": 1070990263, "nodes": [9828044258, 9828044260, 9828044261, 9828044259, 9828044258], "tags": {"addr:city": "\u062a\u0637\u0627\u0648\u064a\u0646", "addr:postcode": "3200", "addr:street": "\u0646\u0647\u062c \u062d\u0645\u0627\u062f\u064a \u062e\u0630\u064a\u0631", "building": "yes", "shop": "clothes"}}, {"type": "way", "id": 1070990264, "nodes": [9828044260, 9828044263, 9828044264, 9828044261, 9828044260], "tags": {"addr:city": "\u062a\u0637\u0627\u0648\u064a\u0646", "addr:postcode": "3200", "addr:street": "\u0646\u0647\u062c \u062d\u0645\u0627\u062f\u064a \u062e\u0630\u064a\u0631", "building": "yes", "shop": "clothes"}}, {"type": "way", "id": 1070990265, "nodes": [9828044263, 9828044266, 9828044267, 9828066158, 9828044264, 9828044263], "tags": {"addr:city": "\u062a\u0637\u0627\u0648\u064a\u0646", "addr:postcode": "3200", "addr:street": "\u0634\u0627\u0631\u0639 \u0627\u0644\u062d\u0628\u064a\u0628 \u0628\u0648\u0631\u0642\u064a\u0628\u0629", "building": "yes", "shop": "clothes"}}, {"type": "way", "id": 1071050010, "nodes": [9828565105, 9828565109, 9828565110, 9828565106, 9828565105], "tags": {"addr:city": "\u062a\u0637\u0627\u0648\u064a\u0646", "addr:postcode": "3200", "addr:street": "\u0646\u0647\u062c \u0641\u0631\u062d\u0627\u062a \u062d\u0634\u0627\u062f", "building": "yes", "shop": "convenience"}}, {"type": "way", "id": 1071050013, "nodes": [9823733687, 9828565114, 9828565115, 9823733689, 9823733688, 9823733687], "tags": {"addr:city": "\u062a\u0637\u0627\u0648\u064a\u0646", "addr:postcode": "3200", "addr:street": "\u0646\u0647\u062c \u0641\u0631\u062d\u0627\u062a \u062d\u0634\u0627\u062f", "building": "yes", "shop": "clothes"}}, {"type": "way", "id": 1071080332, "nodes": [9828800500, 9828800501, 9828800502, 9828800503, 9828800500], "tags": {"addr:city": "\u062a\u0637\u0627\u0648\u064a\u0646", "addr:postcode": "3200", "addr:street": "\u0646\u0647\u062c \u0627\u0644\u062d\u0628\u064a\u0628 \u0627\u0644\u062f\u0628\u0627\u0628\u064a", "amenity": "cafe", "building": "yes", "name": "\u0642\u0647\u0648\u0629 \u0627\u0644\u0628\u0648\u0644\u0627\u0631"}}, {"type": "way", "id": 1071385990, "nodes": [9831923606, 9831923607, 9831923608, 9831923609, 9831965622, 9831923606], "tags": {"addr:city": "\u062a\u0637\u0627\u0648\u064a\u0646", "addr:postcode": "3200", "addr:street": "\u0646\u0647\u062c \u0627\u0644\u0637\u064a\u0628 \u0627\u0644\u063a\u0631\u064a\u0627\u0646\u064a", "building": "yes", "shop": "convenience"}}, {"type": "way", "id": 1071427740, "nodes": [9832252312, 9832252315, 9832252316, 9832252517, 9832252312], "tags": {"addr:city": "\u062a\u0637\u0627\u0648\u064a\u0646", "addr:postcode": "3200", "addr:street": "\u0646\u0647\u062c \u0645\u0635\u0628\u0627\u062d \u0627\u0644\u062c\u0631\u0628\u0648\u0639", "building": "yes", "shop": "convenience"}}, {"type": "way", "id": 1071520575, "nodes": [9832850428, 9832850429, 9832850430, 9832850434, 9832850437, 9832850431, 9832850428], "tags": {"addr:city": "\u062a\u0637\u0627\u0648\u064a\u0646", "addr:postcode": "3200", "addr:street": "\u0634\u0627\u0631\u0639 \u0627\u0644\u062d\u0628\u064a\u0628 \u0628\u0648\u0631\u0642\u064a\u0628\u0629", "amenity": "cafe", "building": "yes"}}, {"type": "way", "id": 1071520577, "nodes": [9832850440, 9832850431, 9832850437, 9832850441, 9832850440], "tags": {"addr:city": "\u062a\u0637\u0627\u0648\u064a\u0646", "addr:postcode": "3200", "addr:street": "\u0634\u0627\u0631\u0639 \u0627\u0644\u062d\u0628\u064a\u0628 \u0628\u0648\u0631\u0642\u064a\u0628\u0629", "building": "yes", "shop": "clothes"}}, {"type": "way", "id": 1071520578, "nodes": [9832850442, 9832850443, 9832850444, 9832850445, 9832850442], "tags": {"addr:city": "\u062a\u0637\u0627\u0648\u064a\u0646", "addr:postcode": "3200", "addr:street": "\u0646\u0647\u062c \u0627\u0644\u062d\u0628\u064a\u0628 \u062b\u0627\u0645\u0631", "building": "yes", "name": "El Gaceur", "shop": "convenience"}}, {"type": "way", "id": 1071520579, "nodes": [9832850447, 9832850448, 9832850449, 9832850450, 9832850447], "tags": {"addr:city": "\u062a\u0637\u0627\u0648\u064a\u0646", "addr:postcode": "3200", "addr:street": "\u0646\u0647\u062c \u0627\u0644\u062d\u0628\u064a\u0628 \u062b\u0627\u0645\u0631", "building": "yes", "name": "El Dhib", "shop": "convenience"}}, {"type": "way", "id": 1071523051, "nodes": [9832872325, 9832872317, 9832872320, 9832872326, 9832872325], "tags": {"building": "yes", "shop": "convenience"}}, {"type": "way", "id": 1238483392, "nodes": [11505058286, 11505058287, 11505058288, 11505058289, 11505058286], "tags": {"amenity": "cafe", "building": "yes", "name": "Caf\u00e9 Ksar"}}]}