{"version": 0.6, "generator": "Overpass API 0.7.62.8 e802775f", "osm3s": {"timestamp_osm_base": "2025-12-20T09:24:18Z", "copyright": "The data included in this document is from www.openstreetmap.org. The data is made available under ODbL."}, "elements": [{"type": "node", "id": 558051345, "lat": 35.5300734, "lon": 11.0329857, "tags": {"shop": "supermarket"}}, {"type": "node", "id": 558051349, "lat": 35.5318388, "lon": 11.0328903, "tags": {"shop": "supermarket"}}, {"type": "node", "id": 558051363, "lat": 35.5363943, "lon": 11.030739, "tags": {"shop": "supermarket"}}, {"type": "node", "id": 567356438, "lat": 35.7739816, "lon": 10.8140905, "tags": {"addr:city": "\u0627\u0644\u0645\u0646\u0633\u062a\u064a\u0631", "addr:postcode": "5000", "amenity": "pharmacy", "healthcare": "pharmacy", "name": "\u0635\u064a\u062f\u0644\u064a\u0629 \u062d\u0645\u064a\u062f\u0629", "name:ar": "\u0635\u064a\u062f\u0644\u064a\u0629 \u062d\u0645\u064a\u062f\u0629", "name:fr": "Pharmacie Hamida"}}, {"type": "node", "id": 567356439, "lat": 35.7736148, "lon": 10.817704, "tags": {"addr:city": "\u0627\u0644\u0645\u0646\u0633\u062a\u064a\u0631", "addr:city:ar": "\u0627\u0644\u0645\u0646\u0633\u062a\u064a\u0631", "addr:housenumber": "7", "addr:postcode": "5000", "addr:street": "\u0634\u0627\u0631\u0639 \u0627\u0644\u062c\u0645\u0647\u0648\u0631\u064a\u0629", "amenity": "pharmacy", "name": "Charchour", "wheelchair": "yes"}}, {"type": "node", "id": 705250496, "lat": 35.6698776, "lon": 10.8907892, "tags": {"air_conditioning": "no", "amenity": "cafe", "changing_table": "no", "food": "no", "indoor_seating": "yes", "name": "Caf\u00e9 de l'orient", "outdoor_seating": "yes", "smoking": "yes", "toilets": "yes", "toilets:wheelchair": "no", "wheelchair": "limited"}}, {"type": "node", "id": 708254631, "lat": 35.6580571, "lon": 10.8906816, "tags": {"amenity": "cafe", "indoor_seating": "yes", "name": "Caf\u00e9 l'Excellence", "outdoor_seating": "yes"}}, {"type": "node", "id": 757457338, "lat": 35.7724176, "lon": 10.8307385, "tags": {"name": "\u0645\u0648\u0646\u0648\u0628\u0631\u064a", "name:ar": "\u0645\u0648\u0646\u0648\u0628\u0631\u064a", "name:fr": "Monoprix", "shop": "supermarket"}}, {"type": "node", "id": 1079725970, "lat": 35.6638343, "lon": 10.8908881, "tags": {"amenity": "cafe", "indoor_seating": "yes", "name": "Caf\u00e9 de Paris", "outdoor_seating": "yes"}}, {"type": "node", "id": 1279486065, "lat": 35.6692923, "lon": 10.8633583, "tags": {"addr:city": "\u0628\u0648\u062d\u062c\u0631", "addr:city:ar": "\u0628\u0648\u062d\u062c\u0631", "amenity": "pharmacy", "dispensing": "yes", "healthcare": "pharmacy", "language:ar": "main"}}, {"type": "node", "id": 1279486083, "lat": 35.6689543, "lon": 10.8649476, "tags": {"addr:city": "\u0628\u0648\u062d\u062c\u0631", "addr:city:ar": "\u0628\u0648\u062d\u062c\u0631", "amenity": "pharmacy", "dispensing": "yes", "healthcare": "pharmacy", "language:ar": "main"}}, {"type": "node", "id": 1279486164, "lat": 35.6759991, "lon": 10.835, "tags": {"amenity": "pharmacy", "dispensing": "yes", "opening_hours": "Mo-Su 20:00-05:00"}}, {"type": "node", "id": 2201476795, "lat": 35.7696395, "lon": 10.8420107}, {"type": "node", "id": 2201476796, "lat": 35.7692913, "lon": 10.8419011}, {"type": "node", "id": 2201476797, "lat": 35.7694352, "lon": 10.8417376}, {"type": "node", "id": 2201476798, "lat": 35.7694957, "lon": 10.8421741}, {"type": "node", "id": 2306456803, "lat": 35.7731172, "lon": 10.8292052, "tags": {"addr:city": "\u0627\u0644\u0645\u0646\u0633\u062a\u064a\u0631", "addr:city:ar": "\u0627\u0644\u0645\u0646\u0633\u062a\u064a\u0631", "addr:postcode": "5000", "name": "Lee Cooper", "shop": "clothes"}}, {"type": "node", "id": 2306462585, "lat": 35.7780375, "lon": 10.832601, "tags": {"addr:city": "\u0627\u0644\u0645\u0646\u0633\u062a\u064a\u0631", "addr:city:ar": "\u0627\u0644\u0645\u0646\u0633\u062a\u064a\u0631", "addr:postcode": "5000", "name": "Magasin G\u00e9n\u00e9rale - Marina", "shop": "supermarket"}}, {"type": "node", "id": 2306538117, "lat": 35.6677573, "lon": 10.8914102, "tags": {"amenity": "pharmacy", "check_date": "2025-11-16", "dispensing": "yes", "drive_through": "no", "healthcare": "pharmacy", "name": "Pharmacie Marzouk", "wheelchair": "yes"}}, {"type": "node", "id": 2306567814, "lat": 35.7737787, "lon": 10.8187553, "tags": {"amenity": "cafe", "indoor_seating": "yes", "name": "Caf\u00e9 el Ksar", "outdoor_seating": "yes"}}, {"type": "node", "id": 2306656352, "lat": 35.7754758, "lon": 10.8151067, "tags": {"amenity": "cafe", "name": "\u0627\u0644\u0628\u0648\u0633\u0641\u0648\u0631", "name:ar": "\u0627\u0644\u0628\u0648\u0633\u0641\u0648\u0631", "name:fr": "Le Bosphore"}}, {"type": "node", "id": 2306828211, "lat": 35.7700373, "lon": 10.8384464, "tags": {"amenity": "cafe", "indoor_seating": "yes", "name": "Queen", "outdoor_seating": "yes"}}, {"type": "node", "id": 2306836071, "lat": 35.7705668, "lon": 10.8425293, "tags": {"amenity": "cafe", "internet_access": "wlan", "name": "El Grotte Del Corsario", "name:fr": "El Grotte Del Corsario"}}, {"type": "node", "id": 2306836077, "lat": 35.7678533, "lon": 10.8427334, "tags": {"amenity": "cafe", "name": "Goal Freedom"}}, {"type": "node", "id": 2306850509, "lat": 35.7660783, "lon": 10.8416475, "tags": {"amenity": "cafe", "name": "Surfin"}}, {"type": "node", "id": 2306850510, "lat": 35.7667126, "lon": 10.8415799, "tags": {"amenity": "cafe", "name": "Dream Caf\u00e9"}}, {"type": "node", "id": 2306850512, "lat": 35.7655831, "lon": 10.8417574, "tags": {"amenity": "cafe", "cuisine": "Caf\u00e9_Maure", "name": "\u0627\u0644\u062f\u0643\u0627\u0646\u0629", "name:ar": "\u0627\u0644\u062f\u0643\u0627\u0646\u0629", "name:fr": "Doukana - \u0627\u0644\u062f\u0643\u0627\u0646\u0629"}}, {"type": "node", "id": 2320250009, "lat": 35.763858, "lon": 10.8074451, "tags": {"amenity": "cafe", "name": "Caf\u00e9 Panini"}}, {"type": "node", "id": 2320421927, "lat": 35.6726838, "lon": 10.8902704}, {"type": "node", "id": 2320421936, "lat": 35.672676, "lon": 10.8901196}, {"type": "node", "id": 2320421938, "lat": 35.6725865, "lon": 10.890061}, {"type": "node", "id": 2320421939, "lat": 35.6725327, "lon": 10.8901823}, {"type": "node", "id": 2320421940, "lat": 35.6725691, "lon": 10.8902121}, {"type": "node", "id": 2320421942, "lat": 35.6725486, "lon": 10.8902622}, {"type": "node", "id": 2320421943, "lat": 35.6726569, "lon": 10.8903352}, {"type": "node", "id": 2320434140, "lat": 35.6661572, "lon": 10.8916767, "tags": {"amenity": "pharmacy", "healthcare": "pharmacy", "name": "\u0635\u064a\u062f\u0644\u064a\u0629 \u0627\u0644\u0644\u064a\u0644", "name:ar": "\u0635\u064a\u062f\u0644\u064a\u0629 \u0627\u0644\u0644\u064a\u0644", "name:fr": "Pharmacie de Nuit"}}, {"type": "node", "id": 2320442996, "lat": 35.659839, "lon": 10.8911351, "tags": {"amenity": "cafe", "indoor_seating": "yes", "name": "\u0645\u0642\u0647\u0649 \u0627\u0644\u0623\u0642\u0648\u0627\u0633", "name:ar": "\u0645\u0642\u0647\u0649 \u0627\u0644\u0623\u0642\u0648\u0627\u0633", "name:fr": "Caf\u00e9 les Arches", "outdoor_seating": "yes"}}, {"type": "node", "id": 2545399724, "lat": 35.6708566, "lon": 10.9006926}, {"type": "node", "id": 2545399725, "lat": 35.6704365, "lon": 10.9012094}, {"type": "node", "id": 2545399726, "lat": 35.6703278, "lon": 10.9011864}, {"type": "node", "id": 2545399727, "lat": 35.6702824, "lon": 10.9012173}, {"type": "node", "id": 2545399728, "lat": 35.6702185, "lon": 10.901208}, {"type": "node", "id": 2545399729, "lat": 35.6702252, "lon": 10.9010633}, {"type": "node", "id": 2545399730, "lat": 35.6701999, "lon": 10.9009915}, {"type": "node", "id": 2545399731, "lat": 35.6702561, "lon": 10.900617}, {"type": "node", "id": 2545399732, "lat": 35.6703034, "lon": 10.9005781}, {"type": "node", "id": 2587005418, "lat": 35.774825, "lon": 10.8318894, "tags": {"addr:city": "\u0627\u0644\u0645\u0646\u0633\u062a\u064a\u0631", "addr:city:ar": "\u0627\u0644\u0645\u0646\u0633\u062a\u064a\u0631", "addr:postcode": "5000", "amenity": "cafe"}}, {"type": "node", "id": 2587084677, "lat": 35.7728405, "lon": 10.8307253, "tags": {"addr:city": "\u0627\u0644\u0645\u0646\u0633\u062a\u064a\u0631", "addr:city:ar": "\u0627\u0644\u0645\u0646\u0633\u062a\u064a\u0631", "addr:postcode": "5000", "amenity": "cafe", "internet_access": "no", "name": "\u0645\u0642\u0647\u0649 \u0627\u0644\u0628\u0627\u0628", "name:ar": "\u0645\u0642\u0647\u0649 \u0627\u0644\u0628\u0627\u0628", "name:fr": "Caf\u00e9 Al Bab"}}, {"type": "node", "id": 2587204394, "lat": 35.7803755, "lon": 10.8161747, "tags": {"amenity": "cafe", "internet_access": "yes", "name": "Caf\u00e9 Costa"}}, {"type": "node", "id": 2593035179, "lat": 35.7748512, "lon": 10.8319853, "tags": {"addr:city": "\u0627\u0644\u0645\u0646\u0633\u062a\u064a\u0631", "addr:city:ar": "\u0627\u0644\u0645\u0646\u0633\u062a\u064a\u0631", "addr:postcode": "5000", "amenity": "cafe", "name": "Caf\u00e9 Sidi Dhouib", "opening_hours": "Mo"}}, {"type": "node", "id": 2593044112, "lat": 35.7738459, "lon": 10.8307718, "tags": {"addr:city": "\u0627\u0644\u0645\u0646\u0633\u062a\u064a\u0631", "addr:city:ar": "\u0627\u0644\u0645\u0646\u0633\u062a\u064a\u0631", "addr:postcode": "5000", "amenity": "cafe", "name": "Caf\u00e9 Bir Andalous", "name:fr": "Caf\u00e9 Bir Andalous"}}, {"type": "node", "id": 2934040227, "lat": 35.7770549, "lon": 10.8155093, "tags": {"addr:city": "\u0627\u0644\u0645\u0646\u0633\u062a\u064a\u0631", "addr:city:ar": "\u0627\u0644\u0645\u0646\u0633\u062a\u064a\u0631", "addr:postcode": "5000", "amenity": "cafe", "name": "\u0645\u0642\u0647\u0649 \u0628\u0627\u0628\u0627 \u0639\u0644\u064a", "name:ar": "\u0645\u0642\u0647\u0649 \u0628\u0627\u0628\u0627 \u0639\u0644\u064a", "name:fr": "Baba Ali Caffe", "smoking": "yes"}}, {"type": "node", "id": 2934052181, "lat": 35.7708469, "lon": 10.8179006, "tags": {"addr:city": "\u0627\u0644\u0645\u0646\u0633\u062a\u064a\u0631", "addr:city:ar": "\u0627\u0644\u0645\u0646\u0633\u062a\u064a\u0631", "addr:postcode": "5000", "amenity": "pharmacy", "name": "Pharmacie Hergli"}}, {"type": "node", "id": 2934106800, "lat": 35.7760952, "lon": 10.8153483, "tags": {"air_conditioning": "yes", "amenity": "cafe", "changing_table": "no", "diet:halal": "only", "indoor_seating": "yes", "name": "\u0645\u0642\u0647\u0649 \u0627\u0644\u0633\u0648\u0627\u0646\u064a", "name:ar": "\u0645\u0642\u0647\u0649 \u0627\u0644\u0633\u0648\u0627\u0646\u064a", "name:fr": "Swani Cafe", "outdoor_seating": "yes", "smoking": "yes", "toilets": "yes", "toilets:wheelchair": "no", "wheelchair": "limited"}}, {"type": "node", "id": 2934113747, "lat": 35.7767655, "lon": 10.8158418, "tags": {"amenity": "cafe", "name": "\u0645\u0642\u0647\u0649 \u0627\u0644\u0623\u0646\u0627\u0642\u0629", "name:ar": "\u0645\u0642\u0647\u0649 \u0627\u0644\u0623\u0646\u0627\u0642\u0629", "name:fr": "L'El\u00e9gance Cafe"}}, {"type": "node", "id": 2934116767, "lat": 35.7761055, "lon": 10.81585, "tags": {"amenity": "cafe", "name": "\u0627\u0644\u0645\u0650\u0633\u0652\u0643", "name:ar": "\u0627\u0644\u0645\u0650\u0633\u0652\u0643", "name:fr": "Elmisk"}}, {"type": "node", "id": 2934121092, "lat": 35.7761012, "lon": 10.8164723, "tags": {"amenity": "cafe", "name": "Cleopatra"}}, {"type": "node", "id": 2934269874, "lat": 35.7788902, "lon": 10.8160254, "tags": {"amenity": "cafe", "name": "Moon Cafe"}}, {"type": "node", "id": 2934278331, "lat": 35.7774975, "lon": 10.8152798, "tags": {"brand": "\u0645\u0635\u0631\u0641 \u0627\u0644\u0632\u064a\u062a\u0648\u0646\u0629", "brand:ar": "\u0645\u0635\u0631\u0641 \u0627\u0644\u0632\u064a\u062a\u0648\u0646\u0629", "brand:fr": "Banque Zitouna", "brand:website": "https://www.banquezitouna.com/ar", "brand:wikidata": "Q2882969", "brand:wikipedia": "ar:\u0645\u0635\u0631\u0641 \u0627\u0644\u0632\u064a\u062a\u0648\u0646\u0629", "name": "\u0645\u0635\u0631\u0641 \u0627\u0644\u0632\u064a\u062a\u0648\u0646\u0629", "name:ar": "\u0645\u0635\u0631\u0641 \u0627\u0644\u0632\u064a\u062a\u0648\u0646\u0629", "name:en": "Zitouna", "name:fr": "Zitouna", "operator": "\u0645\u0635\u0631\u0641 \u0627\u0644\u0632\u064a\u062a\u0648\u0646\u0629", "operator:ar": "\u0645\u0635\u0631\u0641 \u0627\u0644\u0632\u064a\u062a\u0648\u0646\u0629", "operator:fr": "Banque Zitouna", "operator:website": "https://www.banquezitouna.com/ar", "operator:wikidata": "Q2882969", "operator:wikipedia": "ar:\u0645\u0635\u0631\u0641 \u0627\u0644\u0632\u064a\u062a\u0648\u0646\u0629", "shop": "supermarket"}}, {"type": "node", "id": 2935087807, "lat": 35.7737537, "lon": 10.8146349, "tags": {"addr:city": "\u0627\u0644\u0645\u0646\u0633\u062a\u064a\u0631", "addr:postcode": "5000", "amenity": "cafe", "name": "\u0625\u0646 \u0643\u0627\u0641\u064a", "name:ar": "\u0625\u0646 \u0643\u0627\u0641\u064a", "name:en": "In Cafe", "name:fr": "In Caf\u00e9"}}, {"type": "node", "id": 2935087808, "lat": 35.7752901, "lon": 10.8154234, "tags": {"amenity": "cafe", "name": "\u0627\u0644\u0631\u064a\u062d\u0627\u0646\u0629", "name:ar": "\u0627\u0644\u0631\u064a\u062d\u0627\u0646\u0629", "name:fr": "Rayhana"}}, {"type": "node", "id": 2935096507, "lat": 35.775956, "lon": 10.8152571, "tags": {"addr:city": "\u0627\u0644\u0645\u0646\u0633\u062a\u064a\u0631", "addr:city:ar": "\u0627\u0644\u0645\u0646\u0633\u062a\u064a\u0631", "addr:postcode": "5000", "amenity": "cafe", "cuisine": "pizza", "name": "Luna"}}, {"type": "node", "id": 2935096590, "lat": 35.7769135, "lon": 10.8154771, "tags": {"diet:halal": "only", "name": "Superette Esswani", "shop": "supermarket"}}, {"type": "node", "id": 2935098075, "lat": 35.7777186, "lon": 10.8153644, "tags": {"addr:city": "\u0627\u0644\u0645\u0646\u0633\u062a\u064a\u0631", "addr:city:ar": "\u0627\u0644\u0645\u0646\u0633\u062a\u064a\u0631", "addr:postcode": "5000", "amenity": "pharmacy", "name": "Esswani"}}, {"type": "node", "id": 2935195000, "lat": 35.7743718, "lon": 10.8318788, "tags": {"amenity": "cafe", "name": "Star"}}, {"type": "node", "id": 2935203300, "lat": 35.7701586, "lon": 10.8387613, "tags": {"amenity": "cafe", "indoor_seating": "yes", "name": "Springfield", "outdoor_seating": "yes"}}, {"type": "node", "id": 2935281703, "lat": 35.7705569, "lon": 10.8383429, "tags": {"amenity": "cafe", "name": "\u0633\u064a\u062f\u064a \u0645\u0646\u0635\u0648\u0631", "name:ar": "\u0633\u064a\u062f\u064a \u0645\u0646\u0635\u0648\u0631", "name:fr": "Sidi Mansour"}}, {"type": "node", "id": 2935723193, "lat": 35.7708594, "lon": 10.8395633, "tags": {"addr:city": "\u0627\u0644\u0645\u0646\u0633\u062a\u064a\u0631", "addr:city:ar": "\u0627\u0644\u0645\u0646\u0633\u062a\u064a\u0631", "addr:postcode": "5000", "amenity": "cafe", "name": "Sirene"}}, {"type": "node", "id": 2935723906, "lat": 35.7736145, "lon": 10.8335471, "tags": {"addr:city": "\u0627\u0644\u0645\u0646\u0633\u062a\u064a\u0631", "addr:city:ar": "\u0627\u0644\u0645\u0646\u0633\u062a\u064a\u0631", "addr:postcode": "5000", "amenity": "cafe", "name": "\u0639\u0628\u0627\u0633", "name:ar": "\u0639\u0628\u0627\u0633", "name:fr": "Abbas"}}, {"type": "node", "id": 2935727576, "lat": 35.7724219, "lon": 10.8359155, "tags": {"addr:city": "\u0627\u0644\u0645\u0646\u0633\u062a\u064a\u0631", "addr:city:ar": "\u0627\u0644\u0645\u0646\u0633\u062a\u064a\u0631", "addr:postcode": "5000", "amenity": "cafe", "name": "Golden Square"}}, {"type": "node", "id": 2935728301, "lat": 35.7739126, "lon": 10.8334318, "tags": {"addr:city": "\u0627\u0644\u0645\u0646\u0633\u062a\u064a\u0631", "addr:city:ar": "\u0627\u0644\u0645\u0646\u0633\u062a\u064a\u0631", "addr:postcode": "5000", "amenity": "cafe", "name": "\u0627\u0644\u0623\u0646\u062f\u0644\u0633", "name:ar": "\u0627\u0644\u0623\u0646\u062f\u0644\u0633", "name:fr": "Andalus"}}, {"type": "node", "id": 2935731145, "lat": 35.7736406, "lon": 10.8340701, "tags": {"amenity": "cafe", "name": "Baladia"}}, {"type": "node", "id": 2935736336, "lat": 35.7706657, "lon": 10.8393782, "tags": {"addr:city": "\u0627\u0644\u0645\u0646\u0633\u062a\u064a\u0631", "addr:postcode": "5000", "amenity": "cafe", "name": "\u0623\u0643\u0627\u062f\u064a\u0631", "name:ar": "\u0623\u0643\u0627\u062f\u064a\u0631", "name:en": "Agadir"}}, {"type": "node", "id": 2940072472, "lat": 35.7802645, "lon": 10.8286574, "tags": {"amenity": "cafe", "name": "Morjana"}}, {"type": "node", "id": 2981184778, "lat": 35.7719641, "lon": 10.825821, "tags": {"amenity": "pharmacy", "name": "Pharmacie FERCHIOU ep DEBBABI"}}, {"type": "node", "id": 2981186709, "lat": 35.7724763, "lon": 10.8165525, "tags": {"amenity": "pharmacy", "name": "Pharmacie TEKKARI ep BEN SALAH"}}, {"type": "node", "id": 2981191399, "lat": 35.7690046, "lon": 10.8183695, "tags": {"addr:city": "\u0627\u0644\u0645\u0646\u0633\u062a\u064a\u0631", "amenity": "pharmacy", "healthcare": "pharmacy", "name": "\u0635\u064a\u062f\u0644\u064a\u0629 \u062c\u0645\u0627\u0644\u064a", "name:ar": "\u0635\u064a\u062f\u0644\u064a\u0629 \u062c\u0645\u0627\u0644\u064a", "name:fr": "Pharmacie JEMALI"}}, {"type": "node", "id": 2981197841, "lat": 35.7701189, "lon": 10.8216043, "tags": {"addr:city": "\u0627\u0644\u0645\u0646\u0633\u062a\u064a\u0631", "amenity": "pharmacy", "healthcare": "pharmacy", "name": "\u0635\u064a\u062f\u0644\u064a\u0629 \u0628\u0644\u0639\u064a\u062f", "name:ar": "\u0635\u064a\u062f\u0644\u064a\u0629 \u0628\u0644\u0639\u064a\u062f", "name:fr": "Pharmacie BELAID"}}, {"type": "node", "id": 2981203470, "lat": 35.7710786, "lon": 10.8232699, "tags": {"amenity": "pharmacy", "name": "Pharmacie RHIM"}}, {"type": "node", "id": 2981207534, "lat": 35.7726955, "lon": 10.824603, "tags": {"amenity": "pharmacy", "name": "Pharmacie CHOUCHANE"}}, {"type": "node", "id": 2981211644, "lat": 35.7729458, "lon": 10.8291225, "tags": {"amenity": "pharmacy", "name": "\u0635\u064a\u062f\u0644\u064a\u0629 \u0628\u0648\u062f\u0646", "name:ar": "\u0635\u064a\u062f\u0644\u064a\u0629 \u0628\u0648\u062f\u0646", "name:fr": "Pharmacie BOUDEN"}}, {"type": "node", "id": 2981220069, "lat": 35.7723087, "lon": 10.8304785, "tags": {"amenity": "pharmacy", "name": "\u0635\u064a\u062f\u0644\u064a\u0629 \u0634\u0631\u0646\u064a\u0646", "name:ar": "\u0635\u064a\u062f\u0644\u064a\u0629 \u0634\u0631\u0646\u064a\u0646", "name:fr": "Pharmacie Charnine"}}, {"type": "node", "id": 2981220096, "lat": 35.7698033, "lon": 10.8364744, "tags": {"amenity": "pharmacy", "name": "Pharmacie ZILI ep SOUISSI"}}, {"type": "node", "id": 2981222704, "lat": 35.77033, "lon": 10.8324618, "tags": {"amenity": "pharmacy", "healthcare": "pharmacy", "name": "\u0635\u064a\u062f\u0644\u064a\u0629 \u063a\u062f\u064a\u0631\u0629", "name:ar": "\u0635\u064a\u062f\u0644\u064a\u0629 \u063a\u062f\u064a\u0631\u0629", "name:fr": "Pharmacie GHEDIRA"}}, {"type": "node", "id": 2981227370, "lat": 35.7684062, "lon": 10.8358253, "tags": {"amenity": "pharmacy"}}, {"type": "node", "id": 2981239197, "lat": 35.7700701, "lon": 10.8315252, "tags": {"amenity": "pharmacy", "healthcare": "pharmacy", "name": "Phramacie GRIRA MHALLA"}}, {"type": "node", "id": 2981240749, "lat": 35.7681385, "lon": 10.8293773, "tags": {"amenity": "pharmacy", "name": "Pharmacie JAAFOURA"}}, {"type": "node", "id": 2981288196, "lat": 35.7673071, "lon": 10.8222641, "tags": {"amenity": "pharmacy", "name": "Pharmacie EL MAY"}}, {"type": "node", "id": 3077362628, "lat": 35.6720727, "lon": 10.8898136, "tags": {"amenity": "cafe", "indoor_seating": "yes", "internet_access": "wlan", "name": "Caf\u00e9 La Roza", "outdoor_seating": "yes"}}, {"type": "node", "id": 3077391725, "lat": 35.6680647, "lon": 10.8915429, "tags": {"amenity": "cafe", "indoor_seating": "yes", "name": "Caf\u00e9 El Kattous", "outdoor_seating": "yes"}}, {"type": "node", "id": 3077490520, "lat": 35.6672619, "lon": 10.8927933, "tags": {"amenity": "cafe", "indoor_seating": "yes", "name": "Caf\u00e9 Hammadi", "outdoor_seating": "yes"}}, {"type": "node", "id": 3085493282, "lat": 35.6578718, "lon": 10.8906709, "tags": {"amenity": "cafe", "indoor_seating": "yes", "name": "Caf\u00e9 Holliwood", "outdoor_seating": "yes"}}, {"type": "node", "id": 3085493283, "lat": 35.6579176, "lon": 10.8910786, "tags": {"amenity": "cafe", "name": "Caf\u00e9 Kuriat"}}, {"type": "node", "id": 3085493284, "lat": 35.6581987, "lon": 10.890703, "tags": {"amenity": "cafe", "indoor_seating": "yes", "name": "Mio Mondo", "outdoor_seating": "yes"}}, {"type": "node", "id": 3085499673, "lat": 35.6723219, "lon": 10.8896304, "tags": {"amenity": "cafe", "internet_access": "wlan", "name": "Caf\u00e9 Hrouz", "outdoor_seating": "yes"}}, {"type": "node", "id": 3085499676, "lat": 35.672189, "lon": 10.8922133, "tags": {"diet:halal": "only", "name": "Magasin Ayad", "shop": "convenience"}}, {"type": "node", "id": 3085507000, "lat": 35.6666127, "lon": 10.8921152, "tags": {"check_date": "2025-11-16", "diet:halal": "yes", "name": "Magasin du Bled", "shop": "convenience", "wheelchair": "no"}}, {"type": "node", "id": 3359504010, "lat": 35.6399274, "lon": 10.967441, "tags": {"shop": "supermarket"}}, {"type": "node", "id": 3557305125, "lat": 35.6763529, "lon": 10.8361628, "tags": {"amenity": "pharmacy"}}, {"type": "node", "id": 3559956073, "lat": 35.6740182, "lon": 10.8415259, "tags": {"name": "Hanout Samira & Chieb", "shop": "convenience"}}, {"type": "node", "id": 3559961937, "lat": 35.675368, "lon": 10.8400989, "tags": {"name": "Hanout El Hedi", "shop": "convenience"}}, {"type": "node", "id": 3559963079, "lat": 35.6759162, "lon": 10.8358545, "tags": {"addr:city": "\u0628\u0646\u0627\u0646", "amenity": "cafe", "indoor_seating": "yes", "name": "\u0642\u0647\u0648\u0629 \u0627\u0644\u062d\u0637\u0627\u0628", "name:ar": "\u0642\u0647\u0648\u0629 \u0627\u0644\u062d\u0637\u0627\u0628", "name:fr": "Caf\u00e9 Al Hattab", "outdoor_seating": "yes"}}, {"type": "node", "id": 3559965501, "lat": 35.6736422, "lon": 10.8429415, "tags": {"amenity": "cafe", "name": "\u0642\u0647\u0648\u0629 \u0627\u0644\u0631\u0627\u064a\u0633", "name:ar": "\u0642\u0647\u0648\u0629 \u0627\u0644\u0631\u0627\u064a\u0633", "name:fr": "Caf\u00e9 El Raies"}}, {"type": "node", "id": 3559978093, "lat": 35.6768526, "lon": 10.8362229, "tags": {"addr:city": "\u0628\u0646\u0627\u0646", "amenity": "cafe", "indoor_seating": "yes", "name": "\u0642\u0647\u0648\u0629 \u0627\u0644\u062d\u0632\u0648\u0631\u064a", "name:ar": "\u0642\u0647\u0648\u0629 \u0627\u0644\u062d\u0632\u0648\u0631\u064a", "name:fr": "Caf\u00e9 Al Hizouri", "outdoor_seating": "yes"}}, {"type": "node", "id": 3656291747, "lat": 35.5667519, "lon": 10.8078712, "tags": {"amenity": "pharmacy", "name": "Farmacity"}}, {"type": "node", "id": 3715361227, "lat": 35.6420457, "lon": 10.8917811, "tags": {"addr:city": "\u0642\u0635\u0631 \u0647\u0644\u0627\u0644", "addr:city:ar": "\u0642\u0635\u0631 \u0647\u0644\u0627\u0644", "addr:postcode": "5070", "addr:street": "Avenue Hadj Ali Soua", "amenity": "pharmacy", "name": "Pharmacie Afef Gongi"}}, {"type": "node", "id": 3715370469, "lat": 35.6437764, "lon": 10.8911762, "tags": {"amenity": "cafe", "name": "Caf\u00e9 Ezzarka"}}, {"type": "node", "id": 3715374112, "lat": 35.6450984, "lon": 10.8911239, "tags": {"addr:city": "\u0642\u0635\u0631 \u0647\u0644\u0627\u0644", "addr:city:ar": "\u0642\u0635\u0631 \u0647\u0644\u0627\u0644", "addr:postcode": "5070", "addr:street": "Avenue Hadj Ali Soua", "name": "Epicerie Gaaloul", "operator": "Epicerie gaaloul", "shop": "convenience"}}, {"type": "node", "id": 3715375138, "lat": 35.6463083, "lon": 10.8910749, "tags": {"addr:city": "\u0642\u0635\u0631 \u0647\u0644\u0627\u0644", "addr:city:ar": "\u0642\u0635\u0631 \u0647\u0644\u0627\u0644", "addr:postcode": "5070", "addr:street": "Avenue Hadj Ali Soua", "amenity": "pharmacy", "name": "Pharmacie El Memmi"}}, {"type": "node", "id": 3715392030, "lat": 35.653178, "lon": 10.88124, "tags": {"addr:city": "\u0642\u0635\u0631 \u0647\u0644\u0627\u0644", "addr:city:ar": "\u0642\u0635\u0631 \u0647\u0644\u0627\u0644", "amenity": "cafe", "internet_access": "no", "name": "\u0645\u0642\u0647\u0649 \u0627\u0644\u0646\u062e\u064a\u0644", "name:ar": "\u0645\u0642\u0647\u0649 \u0627\u0644\u0646\u062e\u064a\u0644", "name:fr": "Caf\u00e9 Ennakhil"}}, {"type": "node", "id": 3718577581, "lat": 35.6446367, "lon": 10.8899535, "tags": {"addr:city": "\u0642\u0635\u0631 \u0647\u0644\u0627\u0644", "addr:city:ar": "\u0642\u0635\u0631 \u0647\u0644\u0627\u0644", "addr:postcode": "5070", "name": "\u0627\u0644\u0645\u063a\u0627\u0632\u0629 \u0627\u0644\u0639\u0627\u0645\u0629", "name:ar": "\u0627\u0644\u0645\u063a\u0627\u0632\u0629 \u0627\u0644\u0639\u0627\u0645\u0629", "name:en": "Magasin\u200b G\u00e9n\u00e9ral", "name:fr": "Magasin\u200b G\u00e9n\u00e9ral", "shop": "supermarket"}}, {"type": "node", "id": 3718578265, "lat": 35.6449925, "lon": 10.8867459, "tags": {"addr:city": "\u0642\u0635\u0631 \u0647\u0644\u0627\u0644", "addr:city:ar": "\u0642\u0635\u0631 \u0647\u0644\u0627\u0644", "addr:postcode": "5070", "addr:street": "\u0634\u0627\u0631\u0639 \u0627\u0644\u062d\u0628\u064a\u0628 \u0628\u0648\u0631\u0642\u064a\u0628\u0629", "addr:street:ar": "\u0634\u0627\u0631\u0639 \u0627\u0644\u062d\u0628\u064a\u0628 \u0628\u0648\u0631\u0642\u064a\u0628\u0629", "brand": "Carrefour", "brand:wikidata": "Q217599", "name": "\u0643\u0627\u0631\u0641\u0648\u0631", "name:ar": "\u0643\u0627\u0631\u0641\u0648\u0631", "name:en": "Carrefour", "name:fr": "Carrefour", "shop": "supermarket"}}, {"type": "node", "id": 3718586064, "lat": 35.6480016, "lon": 10.8848159, "tags": {"addr:city": "\u0642\u0635\u0631 \u0647\u0644\u0627\u0644", "addr:city:ar": "\u0642\u0635\u0631 \u0647\u0644\u0627\u0644", "addr:postcode": "5070", "addr:street": "\u0634\u0627\u0631\u0639 \u0627\u0644\u062d\u0628\u064a\u0628 \u0628\u0648\u0631\u0642\u064a\u0628\u0629", "addr:street:ar": "\u0634\u0627\u0631\u0639 \u0627\u0644\u062d\u0628\u064a\u0628 \u0628\u0648\u0631\u0642\u064a\u0628\u0629", "name": "Massimo Donati", "shop": "clothes"}}, {"type": "node", "id": 3718591609, "lat": 35.6451313, "lon": 10.8875478, "tags": {"amenity": "pharmacy", "name": "\u0635\u064a\u062f\u0644\u064a\u0629 \u0627\u0644\u0644\u064a\u0644", "name:ar": "\u0635\u064a\u062f\u0644\u064a\u0629 \u0627\u0644\u0644\u064a\u0644", "name:fr": "Pharmacie de nuit"}}, {"type": "node", "id": 3718594017, "lat": 35.6464717, "lon": 10.885968, "tags": {"addr:city": "\u0642\u0635\u0631 \u0647\u0644\u0627\u0644", "addr:city:ar": "\u0642\u0635\u0631 \u0647\u0644\u0627\u0644", "addr:postcode": "5070", "addr:street": "\u0634\u0627\u0631\u0639 \u0627\u0644\u062d\u0628\u064a\u0628 \u0628\u0648\u0631\u0642\u064a\u0628\u0629", "addr:street:ar": "\u0634\u0627\u0631\u0639 \u0627\u0644\u062d\u0628\u064a\u0628 \u0628\u0648\u0631\u0642\u064a\u0628\u0629", "amenity": "pharmacy", "name": "Pharmacie El Bahri"}}, {"type": "node", "id": 3718598540, "lat": 35.6437014, "lon": 10.8877517, "tags": {"amenity": "pharmacy", "name": "Pharmacie Marchawi"}}, {"type": "node", "id": 3754134065, "lat": 35.6456756, "lon": 10.886725}, {"type": "node", "id": 3754134066, "lat": 35.6457043, "lon": 10.8867657}, {"type": "node", "id": 3754134067, "lat": 35.6458927, "lon": 10.8865746}, {"type": "node", "id": 3754134068, "lat": 35.6458639, "lon": 10.8865374}, {"type": "node", "id": 3754135254, "lat": 35.6468864, "lon": 10.8854173, "tags": {"amenity": "cafe", "name": "Caf\u00e9 Orange"}}, {"type": "node", "id": 3790576734, "lat": 35.649972, "lon": 10.8896747, "tags": {"amenity": "pharmacy", "name": "Pharmacie Bettaieb EP Aouam"}}, {"type": "node", "id": 3790576737, "lat": 35.6287131, "lon": 10.8998354, "tags": {"amenity": "pharmacy", "name": "\u0635\u064a\u062f\u0644\u064a\u0629 \u0627\u0644\u0644\u064a\u0644", "name:ar": "\u0635\u064a\u062f\u0644\u064a\u0629 \u0627\u0644\u0644\u064a\u0644", "name:fr": "Pharmacie de nuit"}}, {"type": "node", "id": 4106875090, "lat": 35.6274902, "lon": 10.9001461, "tags": {"amenity": "cafe", "cuisine": "coffee_shop;tea", "internet_access": "wlan", "name": "\u0646\u0627\u062f\u064a \u0627\u0644\u062a\u0639\u0627\u0631\u0641", "name:ar": "\u0646\u0627\u062f\u064a \u0627\u0644\u062a\u0639\u0627\u0631\u0641", "name:fr": "Nadi al Taarof", "opening_hours": "24/7"}}, {"type": "node", "id": 4305918412, "lat": 35.6707687, "lon": 10.901284}, {"type": "node", "id": 4305924107, "lat": 35.6708204, "lon": 10.9023161}, {"type": "node", "id": 4305924108, "lat": 35.6708473, "lon": 10.9019916}, {"type": "node", "id": 4305924109, "lat": 35.6702597, "lon": 10.9019603}, {"type": "node", "id": 4305924110, "lat": 35.6703044, "lon": 10.9023387}, {"type": "node", "id": 4549564389, "lat": 35.7726077, "lon": 10.8373038, "tags": {"amenity": "cafe", "name": "Viking"}}, {"type": "node", "id": 4570782290, "lat": 35.7738782, "lon": 10.8140477, "tags": {"addr:city": "\u0627\u0644\u0645\u0646\u0633\u062a\u064a\u0631", "name": "\u0633\u0627\u0628\u064a\u064a", "name:ar": "\u0633\u0627\u0628\u064a\u064a", "name:fr": "SABI\u00c9", "shop": "clothes"}}, {"type": "node", "id": 4571339800, "lat": 35.6436626, "lon": 10.8900365, "tags": {"name:en": "Just Men", "shop": "clothes"}}, {"type": "node", "id": 4683245819, "lat": 35.6433026, "lon": 10.8901371, "tags": {"amenity": "cafe"}}, {"type": "node", "id": 4820605512, "lat": 35.6578213, "lon": 10.8758001}, {"type": "node", "id": 4820605513, "lat": 35.6574755, "lon": 10.8760741}, {"type": "node", "id": 4820605514, "lat": 35.6571392, "lon": 10.8754037}, {"type": "node", "id": 4820605515, "lat": 35.6575323, "lon": 10.8751238}, {"type": "node", "id": 4882338922, "lat": 35.7555048, "lon": 10.8244839, "tags": {"brand": "Monoprix", "brand:ar": "\u0645\u0648\u0646\u0648\u0628\u0631\u064a", "brand:wikidata": "Q2719231", "brand:wikipedia": "ar:\u0645\u0648\u0646\u0648\u0628\u0631\u064a (\u0641\u0631\u0646\u0633\u0627)", "brand:wikipedia:ar": "\u0645\u0648\u0646\u0648\u0628\u0631\u064a (\u0641\u0631\u0646\u0633\u0627)", "name": "\u0645\u0648\u0646\u0648\u0628\u0631\u064a", "name:ar": "\u0645\u0648\u0646\u0648\u0628\u0631\u064a", "name:en": "Monoprix", "name:fr": "Monoprix", "shop": "supermarket"}}, {"type": "node", "id": 4915907221, "lat": 35.7653384, "lon": 10.8368052, "tags": {"name": "Mzali drugstore", "name:fr": "Mzali drugstore", "opening_hours": "24/7", "shop": "convenience"}}, {"type": "node", "id": 5213020124, "lat": 35.7699127, "lon": 10.835597, "tags": {"shop": "convenience"}}, {"type": "node", "id": 5299832534, "lat": 35.6445035, "lon": 10.9704509, "tags": {"addr:city": "Teboulba", "addr:postcode": "5080", "description": "\u0627\u0644\u0641\u0631\u0639 \u0627\u0644\u062b\u0627\u0646\u064a \u0644\u0645\u063a\u0627\u0632\u0629 \u0639\u0632\u064a\u0632\u0629 \u0628\u0634\u0627\u0631\u0639 \u0627\u0644\u0646\u0635\u0631 , \u0637\u0628\u0644\u0628\u0629", "name": "\u0639\u0632\u064a\u0632\u0629", "name:en": "Aziza Teboulba", "name:fr": "Aziza Teboulba", "opening_hours": "Mo-Su 09:00-21:00", "shop": "supermarket"}}, {"type": "node", "id": 5300078922, "lat": 35.6415147, "lon": 10.9656077, "tags": {"addr:city": "\u0637\u0628\u0644\u0628\u0629", "addr:postcode": "5080", "addr:street": "\u0634\u0627\u0631\u0639 23 \u062c\u0627\u0646\u0641\u064a 1952", "amenity": "cafe", "internet_access": "yes", "internet_access:fee": "no", "name": "\u0645\u0642\u0647\u0649 \u0642\u0631\u0637\u0627\u062c", "name:ar": "\u0645\u0642\u0647\u0649 \u0642\u0631\u0637\u0627\u062c", "opening_hours": "24/7", "outdoor_seating": "yes", "smoking": "dedicated"}}, {"type": "node", "id": 5300078924, "lat": 35.6417793, "lon": 10.9654467, "tags": {"addr:city": "\u0637\u0628\u0644\u0628\u0629", "addr:postcode": "5080", "addr:street": "\u0634\u0627\u0631\u0639 23 \u062c\u0627\u0646\u0641\u064a 1952", "amenity": "cafe", "internet_access": "yes", "internet_access:fee": "no", "name": "\u0645\u0642\u0647\u0649 \u0646\u0648\u064a\u0631\u0629", "name:ar": "\u0645\u0642\u0647\u0649 \u0646\u0648\u064a\u0631\u0629", "opening_hours": "24/7", "outdoor_seating": "yes", "smoking": "yes"}}, {"type": "node", "id": 5300078926, "lat": 35.6430905, "lon": 10.9666764, "tags": {"addr:city": "\u0637\u0628\u0644\u0628\u0629", "addr:postcode": "5080", "addr:street": "\u0634\u0627\u0631\u0639 \u0625\u0628\u0646 \u062e\u0644\u062f\u0648\u0646", "amenity": "cafe", "internet_access": "yes", "internet_access:fee": "no", "name": "\u0645\u0642\u0647\u0649 \u0628\u0644\u0627\u0644", "name:ar": "\u0645\u0642\u0647\u0649 \u0628\u0644\u0627\u0644", "opening_hours": "Mo-Su 09:00-21:00", "outdoor_seating": "yes", "smoking": "yes"}}, {"type": "node", "id": 5300078928, "lat": 35.6428608, "lon": 10.9672354, "tags": {"addr:city": "\u0637\u0628\u0644\u0628\u0629", "addr:postcode": "5080", "addr:street": "\u0634\u0627\u0631\u0639 \u0627\u0644\u0646\u0635\u0631", "amenity": "cafe", "internet_access": "yes", "internet_access:fee": "no", "name": "\u0645\u0642\u0647\u0649 \u0644\u0637\u0641\u064a '' \u0627\u0644\u062c\u062f\u0645 ''", "name:ar": "\u0645\u0642\u0647\u0649 \u0644\u0637\u0641\u064a '' \u0627\u0644\u062c\u062f\u0645 ''", "opening_hours": "Mo-Su 09:00-21:00", "outdoor_seating": "yes", "smoking": "yes"}}, {"type": "node", "id": 5300078932, "lat": 35.6465524, "lon": 10.9653882, "tags": {"addr:city": "Teboulba", "addr:postcode": "5080", "addr:street": "\u0634\u0627\u0631\u0639 \u0625\u0628\u0646 \u062e\u0644\u062f\u0648\u0646", "amenity": "cafe", "internet_access:fee": "no", "name": "\u0645\u0642\u0647\u0649 \u0628\u0646 \u0631\u064a\u0627\u0646\u0629", "name:fr": "Cafe Ben Rayana", "opening_hours": "Mo-Su 10:00-22:00", "smoking": "yes"}}, {"type": "node", "id": 5300772451, "lat": 35.6423237, "lon": 10.9666486, "tags": {"amenity": "pharmacy", "healthcare": "pharmacy"}}, {"type": "node", "id": 5341552422, "lat": 35.5555331, "lon": 10.8695921, "tags": {"addr:postcode": "5024", "addr:street": "\u0634\u0627\u0631\u0639 \u0642\u0631\u0637\u0627\u062c", "addr:street:ar": "\u0634\u0627\u0631\u0639 \u0642\u0631\u0637\u0627\u062c", "amenity": "pharmacy", "healthcare": "pharmacy", "name": "\u0635\u064a\u062f\u0644\u064a\u0629 \u0627\u0644\u0641\u0629 \u0632\u0639\u0642", "name:ar": "\u0635\u064a\u062f\u0644\u064a\u0629 \u0627\u0644\u0641\u0629 \u0632\u0639\u0642", "name:fr": "Pharmacie Olfa Zaag"}}, {"type": "node", "id": 5341560721, "lat": 35.5483905, "lon": 10.868474, "tags": {"addr:postcode": "5024", "addr:street": "\u0634\u0627\u0631\u0639 \u0627\u0644\u062d\u0628\u064a\u0628 \u0628\u0648\u0631\u0642\u064a\u0628\u0629", "addr:street:ar": "\u0634\u0627\u0631\u0639 \u0627\u0644\u062d\u0628\u064a\u0628 \u0628\u0648\u0631\u0642\u064a\u0628\u0629", "amenity": "cafe", "internet_access": "wlan", "name": "\u0645\u0642\u0647\u0649 \u0627\u0644\u0645\u062f\u064a\u0646\u0629", "name:ar": "\u0645\u0642\u0647\u0649 \u0627\u0644\u0645\u062f\u064a\u0646\u0629", "name:fr": "Caf\u00e9 El Madina", "opening_hours": "Mo-Su 05:00-08:00", "phone": "+216 73 400 143"}}, {"type": "node", "id": 5341560822, "lat": 35.5533568, "lon": 10.869764, "tags": {"addr:postcode": "5024", "addr:street": "\u0634\u0627\u0631\u0639 \u0627\u0644\u062d\u0628\u064a\u0628 \u0628\u0648\u0631\u0642\u064a\u0628\u0629", "addr:street:ar": "\u0634\u0627\u0631\u0639 \u0627\u0644\u062d\u0628\u064a\u0628 \u0628\u0648\u0631\u0642\u064a\u0628\u0629", "amenity": "cafe", "internet_access": "wlan", "name": "\u0645\u0642\u0647\u0649 \u062f\u064a\u0646\u0627\u0631", "name:ar": "\u0645\u0642\u0647\u0649 \u062f\u064a\u0646\u0627\u0631", "name:fr": "Caf\u00e9 Dinar"}}, {"type": "node", "id": 5758576699, "lat": 35.6507911, "lon": 10.8898197, "tags": {"amenity": "cafe", "name": "Caf\u00e9 Bennissimo"}}, {"type": "node", "id": 5806583553, "lat": 35.6481975, "lon": 10.8847163, "tags": {"amenity": "pharmacy", "name": "\u0635\u064a\u062f\u0644\u064a\u0629 \u0641\u0646\u0637\u0631", "name:ar": "\u0635\u064a\u062f\u0644\u064a\u0629 \u0641\u0646\u0637\u0631", "name:fr": "Pharmacie Fantar"}}, {"type": "node", "id": 5813600185, "lat": 35.6378342, "lon": 10.9619968}, {"type": "node", "id": 5813600186, "lat": 35.637831, "lon": 10.9619404}, {"type": "node", "id": 5813600187, "lat": 35.6377317, "lon": 10.9618627}, {"type": "node", "id": 5813600188, "lat": 35.6376909, "lon": 10.9618995}, {"type": "node", "id": 5813600189, "lat": 35.6375426, "lon": 10.9621738}, {"type": "node", "id": 5813600192, "lat": 35.6375922, "lon": 10.9622341}, {"type": "node", "id": 5813600194, "lat": 35.6377601, "lon": 10.9620745}, {"type": "node", "id": 5872332307, "lat": 35.676849, "lon": 10.8832851, "tags": {"amenity": "cafe", "name": "Caf\u00e9 la Sir\u00e8ne"}}, {"type": "node", "id": 5872384360, "lat": 35.673643, "lon": 10.8850325, "tags": {"amenity": "pharmacy", "name": "\u0635\u064a\u062f\u0644\u064a\u0629 \u0627\u0644\u0644\u064a\u0644", "name:ar": "\u0635\u064a\u062f\u0644\u064a\u0629 \u0627\u0644\u0644\u064a\u0644", "name:fr": "Pharmacie de nuit"}}, {"type": "node", "id": 5878414246, "lat": 35.6748906, "lon": 10.8828405, "tags": {"addr:street": "\u0634\u0627\u0631\u0639 \u0627\u0644\u062d\u0628\u064a\u0628 \u0628\u0648\u0631\u0642\u064a\u0628\u0629", "addr:street:ar": "\u0634\u0627\u0631\u0639 \u0627\u0644\u062d\u0628\u064a\u0628 \u0628\u0648\u0631\u0642\u064a\u0628\u0629", "amenity": "pharmacy", "name": "Pharmacie Khoffi"}}, {"type": "node", "id": 5967447972, "lat": 35.6408029, "lon": 10.9666041}, {"type": "node", "id": 5967447973, "lat": 35.6407059, "lon": 10.9667506}, {"type": "node", "id": 5967447974, "lat": 35.6406367, "lon": 10.9666812}, {"type": "node", "id": 5967447975, "lat": 35.6407337, "lon": 10.9665346}, {"type": "node", "id": 6204569505, "lat": 35.6284409, "lon": 10.900298, "tags": {"amenity": "cafe", "name": "\u0645\u0642\u0647\u0649 \u0627\u0644\u062c\u0645\u0647\u0648\u0631\u064a\u0629", "name:ar": "\u0645\u0642\u0647\u0649 \u0627\u0644\u062c\u0645\u0647\u0648\u0631\u064a\u0629", "name:fr": "Caf\u00e9 de la R\u00e9publique"}}, {"type": "node", "id": 6204574854, "lat": 35.6281622, "lon": 10.8998761, "tags": {"amenity": "cafe", "name": "Caf\u00e9 5 septembre"}}, {"type": "node", "id": 6204581172, "lat": 35.6274271, "lon": 10.9001377, "tags": {"amenity": "cafe", "name": "Caf\u00e9 Lamine"}}, {"type": "node", "id": 6214158798, "lat": 35.6488702, "lon": 10.8841409, "tags": {"amenity": "cafe", "name": "caf\u00e9 Gara"}}, {"type": "node", "id": 6221994483, "lat": 35.6271795, "lon": 10.9076231, "tags": {"brand": "\u0645\u0648\u0646\u0648\u0628\u0631\u064a", "brand:ar": "\u0645\u0648\u0646\u0648\u0628\u0631\u064a", "brand:wikidata": "Q3321241", "brand:wikipedia": "ar:\u0645\u0648\u0646\u0648\u0628\u0631\u064a (\u0641\u0631\u0646\u0633\u0627)", "brand:wikipedia:ar": "\u0645\u0648\u0646\u0648\u0628\u0631\u064a (\u0641\u0631\u0646\u0633\u0627)", "name": "\u0645\u0648\u0646\u0648\u0628\u0631\u064a", "name:ar": "\u0645\u0648\u0646\u0648\u0628\u0631\u064a", "name:en": "Monoprix", "name:fr": "Monoprix", "shop": "supermarket"}}, {"type": "node", "id": 6419406143, "lat": 35.7802611, "lon": 10.8171382, "tags": {"amenity": "cafe", "name": "La Falaise"}}, {"type": "node", "id": 6643369776, "lat": 35.5413623, "lon": 11.0286298}, {"type": "node", "id": 6643369777, "lat": 35.5412948, "lon": 11.0283838}, {"type": "node", "id": 6643369778, "lat": 35.5412189, "lon": 11.0284152}, {"type": "node", "id": 6643369779, "lat": 35.5412348, "lon": 11.0284731}, {"type": "node", "id": 6643369780, "lat": 35.5411631, "lon": 11.0285028}, {"type": "node", "id": 6643369781, "lat": 35.5411805, "lon": 11.0285664}, {"type": "node", "id": 6643369782, "lat": 35.5408052, "lon": 11.0287144}, {"type": "node", "id": 6643369783, "lat": 35.5408426, "lon": 11.0288521}, {"type": "node", "id": 6699076354, "lat": 35.6398788, "lon": 10.9629029, "tags": {"amenity": "cafe", "name": "\u0645\u0642\u0647\u0649 \u0627\u0644\u0633\u0648\u0642", "name:ar": "\u0645\u0642\u0647\u0649 \u0627\u0644\u0633\u0648\u0642"}}, {"type": "node", "id": 6699076355, "lat": 35.6402058, "lon": 10.9637666, "tags": {"name": "Lee Cooper", "shop": "clothes"}}, {"type": "node", "id": 7046835268, "lat": 35.6662229, "lon": 10.8917637, "tags": {"diet:halal": "yes", "name": "Aziza Sayada", "opening_hours": "PH,Mo-Su 08:00-22:00+", "operator": "Aziza", "shop": "convenience", "wheelchair": "yes"}}, {"type": "node", "id": 7829655673, "lat": 35.7145088, "lon": 10.8186005, "tags": {"amenity": "cafe", "indoor_seating": "yes", "name": "Caf\u00e9 Bananas", "outdoor_seating": "yes"}}, {"type": "node", "id": 7829655674, "lat": 35.7144656, "lon": 10.8186863, "tags": {"amenity": "pharmacy", "dispensing": "yes", "healthcare": "pharmacy", "name": "\u0635\u064a\u062f\u0644\u064a\u0629 \u0627\u0644\u0644\u064a\u0644", "name:ar": "\u0635\u064a\u062f\u0644\u064a\u0629 \u0627\u0644\u0644\u064a\u0644", "name:fr": "Pharmacie de Nuit"}}, {"type": "node", "id": 7829655675, "lat": 35.7147469, "lon": 10.8184312, "tags": {"amenity": "cafe", "indoor_seating": "yes", "name": "Caf\u00e9 Essalem", "outdoor_seating": "yes"}}, {"type": "node", "id": 9014138817, "lat": 35.6315305, "lon": 10.8979177, "tags": {"addr:postcode": "5050", "addr:street": "\u0634\u0627\u0631\u0639 \u0627\u0644\u0634\u0647\u062f\u0627\u0621", "amenity": "cafe", "internet_access": "wlan", "name": "\u0646\u0645\u0628\u0631 \u0648\u0627\u0646", "name:en": "Number One", "opening_hours": "Mo-Su 08:00-19:00"}}, {"type": "node", "id": 9014138818, "lat": 35.6481426, "lon": 10.8848702, "tags": {"addr:street": "\u0634\u0627\u0631\u0639 \u0627\u0644\u062d\u0628\u064a\u0628 \u0628\u0648\u0631\u0642\u064a\u0628\u0629", "name:fr": "Zen", "shop": "clothes"}}, {"type": "node", "id": 9014138917, "lat": 35.6326362, "lon": 10.8977085, "tags": {"addr:postcode": "5050", "addr:street": "\u0634\u0627\u0631\u0639 \u0627\u0644\u0634\u0647\u062f\u0627\u0621", "amenity": "cafe", "cuisine": "coffee_shop", "internet_access": "wlan", "name": "\u0645\u0642\u0647\u0649 \u0627\u0644\u0646\u062e\u064a\u0644 (\u0628\u0627\u0644\u0623\u0632\u0631\u0642)", "name:fr": "Caf\u00e9 les palmiers"}}, {"type": "node", "id": 9014139017, "lat": 35.6401821, "lon": 10.893443, "tags": {"addr:street": "\u0634\u0627\u0631\u0639 \u0627\u0644\u062d\u0628\u064a\u0628 \u0628\u0648\u0631\u0642\u064a\u0628\u0629", "internet_access": "wlan", "name:fr": "Modeco", "opening_hours": "Mo-Su 09:00-21:00", "shop": "clothes"}}, {"type": "node", "id": 9014139117, "lat": 35.6400575, "lon": 10.8934864, "tags": {"addr:street": "\u0634\u0627\u0631\u0639 \u0627\u0644\u062d\u0628\u064a\u0628 \u0628\u0648\u0631\u0642\u064a\u0628\u0629", "internet_access": "wlan", "name:fr": "Blue Island Sasio", "shop": "clothes"}}, {"type": "node", "id": 9014139217, "lat": 35.6328282, "lon": 10.8975945, "tags": {"addr:street": "\u0634\u0627\u0631\u0639 \u0627\u0644\u0634\u0647\u062f\u0627\u0621", "amenity": "cafe", "cuisine": "coffee_shop", "internet_access": "wlan", "name": "\u0627\u0644\u0623\u0643\u0648\u0627\u0631\u064a\u0648\u0645", "name:fr": "L'aquarium"}}, {"type": "node", "id": 9014139517, "lat": 35.6314571, "lon": 10.8978354, "tags": {"addr:street": "\u0634\u0627\u0631\u0639 \u0627\u0644\u0634\u0647\u062f\u0627\u0621", "amenity": "pharmacy", "name": "\u0635\u064a\u062f\u0644\u064a\u0629 \u0633\u0627\u0645\u064a \u0627\u0644\u0635\u0643\u0644\u064a", "name:fr": "Pharmacie Sami Sakli"}}, {"type": "node", "id": 9014142418, "lat": 35.6313938, "lon": 10.8986354, "tags": {"addr:street": "\u0634\u0627\u0631\u0639 \u0627\u0644\u062d\u0628\u064a\u0628 \u0628\u0648\u0631\u0642\u064a\u0628\u0629", "amenity": "pharmacy", "name": "\u0635\u064a\u062f\u0644\u064a\u0629 \u0628\u0633\u0628\u0627\u0633", "name:fr": "Pharmacie Besbes"}}, {"type": "node", "id": 9014142419, "lat": 35.6341085, "lon": 10.8982794, "tags": {"addr:street": "\u0634\u0627\u0631\u0639 \u0627\u0644\u062d\u0628\u064a\u0628 \u0628\u0648\u0631\u0642\u064a\u0628\u0629", "amenity": "cafe", "cuisine": "coffee_shop", "name": "\u0645\u0642\u0647\u0649 \u0627\u0644\u0633\u0644\u0627\u0645", "name:fr": "Caf\u00e9 essalam"}}, {"type": "node", "id": 9014142717, "lat": 35.6383646, "lon": 10.8955564, "tags": {"addr:street": "\u0634\u0627\u0631\u0639 \u0627\u0644\u062d\u0628\u064a\u0628 \u0628\u0648\u0631\u0642\u064a\u0628\u0629", "amenity": "cafe", "cuisine": "coffee_shop", "name": "\u0645\u0642\u0647\u0649 \u0627\u0644\u0645\u0639\u0627\u0632\u064a\u0645", "name:fr": "Caf\u00e9 el maazim"}}, {"type": "node", "id": 9014142718, "lat": 35.6318086, "lon": 10.8978577, "tags": {"addr:street": "\u0634\u0627\u0631\u0639 \u0627\u0644\u0634\u0647\u062f\u0627\u0621", "name": "\u0639\u0632\u064a\u0632\u0629", "name:fr": "Aziza", "shop": "supermarket"}}, {"type": "node", "id": 9014183717, "lat": 35.6329196, "lon": 10.8976686, "tags": {"addr:street": "\u0634\u0627\u0631\u0639 \u0627\u0644\u0634\u0647\u062f\u0627\u0621", "amenity": "pharmacy", "name": "\u0635\u064a\u062f\u0644\u064a\u0629 \u0632\u0647\u0631\u0629 \u0632\u064a\u0644\u064a", "name:fr": "Pharmacie Zili"}}, {"type": "node", "id": 9014209217, "lat": 35.6266294, "lon": 10.9003054, "tags": {"amenity": "cafe", "cuisine": "coffee_shop", "name": "Caf\u00e9 Bel Gacem"}}, {"type": "node", "id": 9017963517, "lat": 35.62697, "lon": 10.900173, "tags": {"amenity": "pharmacy", "healthcare": "pharmacy", "name:fr": "Wiem hadj salah"}}, {"type": "node", "id": 9017963617, "lat": 35.6267872, "lon": 10.9009676, "tags": {"addr:street": "\u0634\u0627\u0631\u0639 \u0627\u0644\u062d\u0628\u064a\u0628 \u0628\u0648\u0631\u0642\u064a\u0628\u0629", "name": "\u0639\u0632\u064a\u0632\u0629", "name:fr": "Aziza", "shop": "supermarket"}}, {"type": "node", "id": 9055834041, "lat": 35.638147, "lon": 10.9699958, "tags": {"addr:city": "\u0637\u0628\u0644\u0628\u0629", "addr:postcode": "5080", "amenity": "pharmacy", "healthcare": "pharmacy", "name": "\u0635\u064a\u062f\u0644\u064a\u0629", "name:ar": "\u0635\u064a\u062f\u0644\u064a\u0629"}}, {"type": "node", "id": 9055834048, "lat": 35.641056, "lon": 10.9666686, "tags": {"amenity": "cafe"}}, {"type": "node", "id": 9055834049, "lat": 35.6413535, "lon": 10.9663712, "tags": {"amenity": "pharmacy", "dispensing": "yes", "healthcare": "pharmacy"}}, {"type": "node", "id": 9297834163, "lat": 35.6910337, "lon": 10.8452346, "tags": {"amenity": "cafe", "name": "Cafe au port"}}, {"type": "node", "id": 9667163255, "lat": 35.7548447, "lon": 10.8288527, "tags": {"amenity": "cafe", "cuisine": "coffee_shop", "name": "La"}}, {"type": "node", "id": 9791149558, "lat": 35.771549, "lon": 10.8242863, "tags": {"air_conditioning": "yes", "amenity": "cafe", "internet_access": "wlan", "internet_access:fee": "no", "level": "0;1", "name": "L'\u00e9poque", "operator": "Adel", "outdoor_seating": "no", "payment:cash": "yes", "smoking": "yes", "takeaway": "yes", "toilets": "yes", "toilets:access": "permissive", "toilets:wheelchair": "yes", "wheelchair": "yes"}}, {"type": "node", "id": 10007051428, "lat": 35.6717014, "lon": 10.8676963, "tags": {"amenity": "cafe", "indoor_seating": "yes", "name": "Caf\u00e9 Le Mondial", "outdoor_seating": "yes"}}, {"type": "node", "id": 10944160942, "lat": 35.7680984, "lon": 10.8406646, "tags": {"amenity": "cafe", "name": "Caf\u00e9 El Bahri"}}, {"type": "node", "id": 11061376702, "lat": 35.6870244, "lon": 10.8422049, "tags": {"addr:city": "Ksibet El Mediouni", "addr:postcode": "5031", "addr:street": "Rue Habib Bourguiba", "amenity": "cafe", "name": "Caf\u00e9 Ennassim", "outdoor_seating": "yes"}}, {"type": "node", "id": 11061397341, "lat": 35.6862099, "lon": 10.842425, "tags": {"addr:city": "Ksibet El Mediouni", "addr:postcode": "5031", "addr:street": "avenue Habib Bourguiba", "amenity": "cafe", "name": "Les sportifs", "outdoor_seating": "yes"}}, {"type": "node", "id": 11061407734, "lat": 35.6867561, "lon": 10.8428958, "tags": {"name": "\u0639\u0632\u064a\u0632\u0629", "name:ar": "\u0639\u0632\u064a\u0632\u0629", "name:fr": "Aziza", "shop": "supermarket"}}, {"type": "node", "id": 11061449365, "lat": 35.6819362, "lon": 10.8411148, "tags": {"amenity": "cafe", "cuisine": "coffee_shop"}}, {"type": "node", "id": 11061452951, "lat": 35.6857095, "lon": 10.8440086, "tags": {"addr:city": "Ksibet El Mediouni", "addr:postcode": "5031", "addr:street": "Rue Mohammed Ateb", "amenity": "cafe", "name": "Caf\u00e9 Diwan"}}, {"type": "node", "id": 11061455480, "lat": 35.6872584, "lon": 10.8424021, "tags": {"amenity": "cafe", "name": "Caf\u00e9 Rounda"}}, {"type": "node", "id": 11061459906, "lat": 35.6820232, "lon": 10.8412319, "tags": {"addr:city": "Ksibet El Mediouni", "addr:postcode": "5031", "addr:street": "Av. Habib Bourguiba", "name": "Sup\u00e9rette les oliviers", "shop": "convenience"}}, {"type": "node", "id": 11061461001, "lat": 35.6865865, "lon": 10.843158, "tags": {"addr:city": "Ksibet El Mediouni", "addr:postcode": "5031", "addr:street": "abd hkim abd jawed", "name": "Zicha", "shop": "convenience"}}, {"type": "node", "id": 11061461002, "lat": 35.6864128, "lon": 10.843342, "tags": {"addr:city": "Ksibet El Mediouni", "addr:postcode": "5031", "addr:street": "abd hkim abd jawed", "amenity": "cafe", "cuisine": "coffee_shop", "name": "Caf\u00e9 Moncef"}}, {"type": "node", "id": 11061477021, "lat": 35.6886741, "lon": 10.841484, "tags": {"amenity": "cafe", "name": "Caf\u00e9 Saad"}}, {"type": "node", "id": 11061479111, "lat": 35.6861412, "lon": 10.8443856, "tags": {"addr:city": "Ksibet El Mediouni", "addr:postcode": "5031", "addr:street": "Rue Mohammed Ateb", "amenity": "cafe", "name": "Caf\u00e9 The Wolf"}}, {"type": "node", "id": 11061482920, "lat": 35.6874316, "lon": 10.8423498, "tags": {"name": "Sup\u00e9rette Afif", "shop": "convenience"}}, {"type": "node", "id": 11061483109, "lat": 35.6863697, "lon": 10.8438329, "tags": {"addr:city": "Ksibet El Mediouni", "addr:postcode": "5031", "addr:street": "abd hkim abd jawed", "amenity": "cafe", "name": "Caf\u00e9 Khal"}}, {"type": "node", "id": 11061483110, "lat": 35.6867979, "lon": 10.8434155, "tags": {"amenity": "pharmacy", "healthcare": "pharmacy"}}, {"type": "node", "id": 11061483418, "lat": 35.6873608, "lon": 10.8423297, "tags": {"name": "Sup\u00e9rette Yemen", "shop": "convenience"}}, {"type": "node", "id": 11091448145, "lat": 35.6707025, "lon": 10.9017833}, {"type": "node", "id": 11091448146, "lat": 35.6702272, "lon": 10.90164}, {"type": "node", "id": 11091448147, "lat": 35.6704624, "lon": 10.9017352}, {"type": "node", "id": 11091448148, "lat": 35.6705285, "lon": 10.9012358}, {"type": "node", "id": 11116291453, "lat": 35.6718794, "lon": 10.8907714}, {"type": "node", "id": 11116291458, "lat": 35.6719061, "lon": 10.890613}, {"type": "node", "id": 11116291460, "lat": 35.6718226, "lon": 10.8907567}, {"type": "node", "id": 11116560730, "lat": 35.6740082, "lon": 10.8911955}, {"type": "node", "id": 11116560731, "lat": 35.6740623, "lon": 10.8912793}, {"type": "node", "id": 11116560732, "lat": 35.6742241, "lon": 10.8912413}, {"type": "node", "id": 11116560733, "lat": 35.6741117, "lon": 10.8910786}, {"type": "node", "id": 11146071193, "lat": 35.6703949, "lon": 10.9012006}, {"type": "node", "id": 11146071194, "lat": 35.6703948, "lon": 10.9011411}, {"type": "node", "id": 11146071195, "lat": 35.6704698, "lon": 10.9011548}, {"type": "node", "id": 11146071196, "lat": 35.6705111, "lon": 10.9008618}, {"type": "node", "id": 11146071197, "lat": 35.6703729, "lon": 10.9008367}, {"type": "node", "id": 11146071198, "lat": 35.6703461, "lon": 10.9007979}, {"type": "node", "id": 11146071199, "lat": 35.6703502, "lon": 10.900758}, {"type": "node", "id": 11146071200, "lat": 35.6702903, "lon": 10.900748}, {"type": "node", "id": 11146071201, "lat": 35.6702883, "lon": 10.9007842}, {"type": "node", "id": 11146071202, "lat": 35.6702497, "lon": 10.9008125}, {"type": "node", "id": 11146071203, "lat": 35.6702278, "lon": 10.9008064}, {"type": "node", "id": 11146071204, "lat": 35.6702158, "lon": 10.9008791}, {"type": "node", "id": 11146192305, "lat": 35.6702417, "lon": 10.900884}, {"type": "node", "id": 11146192306, "lat": 35.6702691, "lon": 10.9009439}, {"type": "node", "id": 11146192307, "lat": 35.670264, "lon": 10.9009901}, {"type": "node", "id": 11146192308, "lat": 35.6702315, "lon": 10.9009914}, {"type": "node", "id": 11146192309, "lat": 35.6702822, "lon": 10.9010662}, {"type": "node", "id": 11146192310, "lat": 35.6702755, "lon": 10.901178}, {"type": "node", "id": 11146192312, "lat": 35.6708183, "lon": 10.9009766}, {"type": "node", "id": 11146192313, "lat": 35.6706339, "lon": 10.9006455}, {"type": "node", "id": 11146192314, "lat": 35.6702212, "lon": 10.9008489, "tags": {"entrance": "main"}}, {"type": "node", "id": 11146192315, "lat": 35.6702126, "lon": 10.9010274, "tags": {"entrance": "main"}}, {"type": "node", "id": 11146192316, "lat": 35.6704444, "lon": 10.9008489}, {"type": "node", "id": 11146192317, "lat": 35.6704743, "lon": 10.9006146}, {"type": "node", "id": 11146285427, "lat": 35.670504, "lon": 10.9009174}, {"type": "node", "id": 11146285428, "lat": 35.6704693, "lon": 10.9016828}, {"type": "node", "id": 11146285429, "lat": 35.6703876, "lon": 10.9012875}, {"type": "node", "id": 11146285430, "lat": 35.67034, "lon": 10.9012863}, {"type": "node", "id": 11146285431, "lat": 35.670342, "lon": 10.9013262}, {"type": "node", "id": 11146285432, "lat": 35.6703258, "lon": 10.9013274}, {"type": "node", "id": 11146285433, "lat": 35.6703248, "lon": 10.9013674}, {"type": "node", "id": 11146285434, "lat": 35.6703005, "lon": 10.9014073}, {"type": "node", "id": 11146285435, "lat": 35.6702761, "lon": 10.9014285}, {"type": "node", "id": 11146285436, "lat": 35.6702498, "lon": 10.9014023}, {"type": "node", "id": 11146285437, "lat": 35.6702386, "lon": 10.9013699}, {"type": "node", "id": 11146285438, "lat": 35.6702447, "lon": 10.90131}, {"type": "node", "id": 11146285439, "lat": 35.6702177, "lon": 10.9013076}, {"type": "node", "id": 11146285442, "lat": 35.6704156, "lon": 10.9016721}, {"type": "node", "id": 11146285443, "lat": 35.6704672, "lon": 10.9016989, "tags": {"entrance": "main"}}, {"type": "node", "id": 11146285444, "lat": 35.6702182, "lon": 10.9013226, "tags": {"entrance": "main"}}, {"type": "node", "id": 11146285445, "lat": 35.6703528, "lon": 10.9016614, "tags": {"entrance": "secondary"}}, {"type": "node", "id": 11146285451, "lat": 35.670366, "lon": 10.9016637}, {"type": "node", "id": 11146285452, "lat": 35.6703336, "lon": 10.9016582}, {"type": "node", "id": 11146285459, "lat": 35.6702219, "lon": 10.901456}, {"type": "node", "id": 11146285460, "lat": 35.6702242, "lon": 10.9015373}, {"type": "node", "id": 11146285465, "lat": 35.6703082, "lon": 10.9016538}, {"type": "node", "id": 11146310925, "lat": 35.670418, "lon": 10.9020372}, {"type": "node", "id": 11146310926, "lat": 35.6704328, "lon": 10.9021843}, {"type": "node", "id": 11146310927, "lat": 35.6703209, "lon": 10.9022014}, {"type": "node", "id": 11146310928, "lat": 35.6703063, "lon": 10.9020563}, {"type": "node", "id": 11146310929, "lat": 35.670375, "lon": 10.9020438}, {"type": "node", "id": 11146310930, "lat": 35.6703692, "lon": 10.9019858}, {"type": "node", "id": 11146310931, "lat": 35.6702777, "lon": 10.9019998}, {"type": "node", "id": 11146310932, "lat": 35.6702837, "lon": 10.9020597}, {"type": "node", "id": 11146310933, "lat": 35.6706765, "lon": 10.9019813}, {"type": "node", "id": 11146310935, "lat": 35.6708358, "lon": 10.9021301}, {"type": "node", "id": 11146310936, "lat": 35.6702879, "lon": 10.9022114}, {"type": "node", "id": 11146310937, "lat": 35.670411, "lon": 10.9019654}, {"type": "node", "id": 11146310938, "lat": 35.670279, "lon": 10.9021292, "tags": {"entrance": "main"}}, {"type": "node", "id": 11146335241, "lat": 35.6706613, "lon": 10.9019804}, {"type": "node", "id": 11146335244, "lat": 35.6707629, "lon": 10.9023186}, {"type": "node", "id": 11150593689, "lat": 35.6727094, "lon": 10.8901414}, {"type": "node", "id": 11150593690, "lat": 35.6727288, "lon": 10.8901848}, {"type": "node", "id": 11150593691, "lat": 35.672724, "lon": 10.8902276}, {"type": "node", "id": 11150593692, "lat": 35.6726964, "lon": 10.8902614}, {"type": "node", "id": 11150593695, "lat": 35.6718498, "lon": 10.8905982}, {"type": "node", "id": 11251424042, "lat": 35.7619069, "lon": 10.8314432}, {"type": "node", "id": 11251424043, "lat": 35.7619188, "lon": 10.8314693}, {"type": "node", "id": 11251424044, "lat": 35.761923, "lon": 10.8314988}, {"type": "node", "id": 11251424045, "lat": 35.7619188, "lon": 10.8315283}, {"type": "node", "id": 11251424046, "lat": 35.7619068, "lon": 10.8315544}, {"type": "node", "id": 11251424047, "lat": 35.7618884, "lon": 10.8315739}, {"type": "node", "id": 11251424048, "lat": 35.7617991, "lon": 10.8315575}, {"type": "node", "id": 11251424049, "lat": 35.7617868, "lon": 10.8315342}, {"type": "node", "id": 11251424050, "lat": 35.7617811, "lon": 10.8315072}, {"type": "node", "id": 11251424051, "lat": 35.7617825, "lon": 10.8314795}, {"type": "node", "id": 11251424052, "lat": 35.7617909, "lon": 10.8314536}, {"type": "node", "id": 11251424053, "lat": 35.7618055, "lon": 10.8314323}, {"type": "node", "id": 11251424054, "lat": 35.7618657, "lon": 10.8315847}, {"type": "node", "id": 11251424055, "lat": 35.7618414, "lon": 10.8315854}, {"type": "node", "id": 11251424056, "lat": 35.7618183, "lon": 10.831576}, {"type": "node", "id": 11251424057, "lat": 35.7618247, "lon": 10.8314177}, {"type": "node", "id": 11251424058, "lat": 35.7618467, "lon": 10.8314113}, {"type": "node", "id": 11251424059, "lat": 35.7618692, "lon": 10.8314137}, {"type": "node", "id": 11251424060, "lat": 35.76189, "lon": 10.8314247}, {"type": "node", "id": 11850486799, "lat": 35.7654779, "lon": 10.8287862, "tags": {"amenity": "cafe", "name": "Tarantino"}}, {"type": "node", "id": 12435659304, "lat": 35.6449169, "lon": 10.8862559}, {"type": "node", "id": 12435659305, "lat": 35.6453333, "lon": 10.8867527}, {"type": "node", "id": 12435659306, "lat": 35.6451188, "lon": 10.8871118}, {"type": "node", "id": 12435659307, "lat": 35.6449674, "lon": 10.8869624}, {"type": "node", "id": 12435659308, "lat": 35.644868, "lon": 10.8871798}, {"type": "node", "id": 12435659309, "lat": 35.6446709, "lon": 10.8870167}, {"type": "node", "id": 12435659310, "lat": 35.6447371, "lon": 10.8869391}, {"type": "node", "id": 12435659311, "lat": 35.6446993, "lon": 10.8868847}, {"type": "node", "id": 12435659312, "lat": 35.644745, "lon": 10.8868304}, {"type": "node", "id": 12435659313, "lat": 35.6447387, "lon": 10.8868168}, {"type": "node", "id": 12435659314, "lat": 35.6447971, "lon": 10.8867663}, {"type": "node", "id": 12435659315, "lat": 35.644734, "lon": 10.8866829}, {"type": "node", "id": 12435659316, "lat": 35.6447781, "lon": 10.8866246}, {"type": "node", "id": 12435659317, "lat": 35.6446662, "lon": 10.8863879}, {"type": "node", "id": 12435659319, "lat": 35.645302, "lon": 10.8867154}, {"type": "way", "id": 209995815, "nodes": [2201476798, 2201476796, 2201476797, 2201476795, 2201476798], "tags": {"amenity": "cafe", "building": "yes", "internet_access": "yes", "name": "Haroun"}}, {"type": "way", "id": 223106265, "nodes": [2320421936, 2320421938, 2320421939, 2320421940, 2320421942, 2320421943, 2320421927, 11150593692, 11150593691, 11150593690, 11150593689, 2320421936], "tags": {"air_conditioning": "no", "amenity": "cafe", "building": "yes", "changing_table": "no", "food": "no", "indoor_seating": "yes", "name": "\u0645\u0642\u0647\u0649 \u0627\u0644\u0627\u062a\u062d\u0627\u062f \u0627\u0644\u0631\u064a\u0627\u0636\u064a \u0628\u0635\u064a\u0627\u062f\u0629", "name:ar": "\u0645\u0642\u0647\u0649 \u0627\u0644\u0627\u062a\u062d\u0627\u062f \u0627\u0644\u0631\u064a\u0627\u0636\u064a \u0628\u0635\u064a\u0627\u062f\u0629", "name:fr": "Caf\u00e9 de l'Union Sportive de Sayada", "outdoor_seating": "yes", "smoking": "yes", "toilets": "yes", "toilets:wheelchair": "no", "wheelchair": "limited"}}, {"type": "way", "id": 247665579, "nodes": [2545399724, 11146192312, 4305918412, 11091448148, 2545399725, 11146071193, 2545399726, 2545399727, 2545399728, 2545399729, 11146192315, 2545399730, 11146071204, 11146192314, 11146071203, 2545399731, 2545399732, 11146192317, 11146192313, 2545399724], "tags": {"air_conditioning": "no", "amenity": "cafe", "barrier": "fence", "changing_table": "no", "check_date": "2025-11-16", "diet:halal": "only", "fence_type": "wire", "indoor_seating": "yes", "name": "Royal Bayech", "nohousenumber": "yes", "outdoor_seating": "yes", "smoking": "separated", "toilets": "yes", "toilets:wheelchair": "no", "wheelchair": "limited"}}, {"type": "way", "id": 371862575, "nodes": [3754134065, 3754134066, 3754134067, 3754134068, 3754134065], "tags": {"building": "yes", "name": "Magasins de v\u00eatements", "shop": "clothes"}}, {"type": "way", "id": 431389734, "nodes": [4305924107, 11146310935, 4305924108, 11146310933, 11146335241, 11146310937, 4305924109, 11146310938, 11146310936, 4305924110, 11146335244, 4305924107], "tags": {"air_conditioning": "no", "amenity": "cafe", "barrier": "fence", "changing_table": "no", "check_date": "2025-11-16", "diet:halal": "only", "fence_type": "wire", "indoor_seating": "yes", "internet_access": "wlan", "name": "Fleur de Th\u00e9", "nohousenumber": "yes", "outdoor_seating": "yes", "roof:levels": "0", "smoking": "separated", "toilets": "yes", "toilets:wheelchair": "no", "wheelchair": "limited"}}, {"type": "way", "id": 489853780, "nodes": [4820605512, 4820605513, 4820605514, 4820605515, 4820605512], "tags": {"addr:city": "\u0642\u0635\u0631 \u0647\u0644\u0627\u0644", "addr:city:ar": "\u0642\u0635\u0631 \u0647\u0644\u0627\u0644", "addr:postcode": "5070", "addr:street": "\u0634\u0627\u0631\u0639 \u0627\u0644\u062d\u0628\u064a\u0628 \u0628\u0648\u0631\u0642\u064a\u0628\u0629", "addr:street:ar": "\u0634\u0627\u0631\u0639 \u0627\u0644\u062d\u0628\u064a\u0628 \u0628\u0648\u0631\u0642\u064a\u0628\u0629", "building": "commercial", "name": "Monoprix Ksar Hellal", "shop": "supermarket"}}, {"type": "way", "id": 614604820, "nodes": [5813600185, 5813600186, 5813600187, 5813600188, 5813600189, 5813600192, 5813600194, 5813600185], "tags": {"addr:city": "\u0637\u0628\u0644\u0628\u0629", "addr:postcode": "5080", "amenity": "cafe", "building": "yes", "cuisine": "burger", "internet_access": "yes", "internet_access:fee": "no", "name": "\u0645\u0642\u0647\u0649 \u0645\u062d\u0637\u0629 \u0627\u0644\u0642\u0637\u0627\u0631", "name:ar": "\u0645\u0642\u0647\u0649 \u0645\u062d\u0637\u0629 \u0627\u0644\u0642\u0637\u0627\u0631", "outdoor_seating": "yes", "smoking": "dedicated"}}, {"type": "way", "id": 631972003, "nodes": [5967447972, 5967447973, 5967447974, 5967447975, 5967447972], "tags": {"amenity": "cafe", "building": "yes"}}, {"type": "way", "id": 706955930, "nodes": [6643369776, 6643369777, 6643369778, 6643369779, 6643369780, 6643369781, 6643369782, 6643369783, 6643369776], "tags": {"building": "yes", "name": "\u0421arrefour \u0421ity", "shop": "supermarket"}}, {"type": "way", "id": 1194992753, "nodes": [4305918412, 11091448145, 11091448147, 11146285443, 11146285428, 11146285442, 11146285451, 11146285445, 11146285452, 11146285465, 11091448146, 11146285460, 11146285459, 11146285444, 11146285439, 2545399728, 2545399727, 2545399726, 11146071193, 2545399725, 11091448148, 4305918412], "tags": {"air_conditioning": "no", "amenity": "cafe", "barrier": "fence", "changing_table": "no", "check_date": "2025-11-16", "fence_type": "wire", "food": "no", "indoor_seating": "yes", "name": "El Flouka", "outdoor_seating": "yes", "smoking": "separated", "toilets": "yes", "toilets:wheelchair": "no", "wheelchair": "limited"}}, {"type": "way", "id": 1198271285, "nodes": [11116291458, 11150593695, 11116291460, 11116291453, 11116291458], "tags": {"air_conditioning": "no", "amenity": "cafe", "building": "yes", "changing_table": "no", "food": "no", "indoor_seating": "yes", "name": "Caf\u00e9 du Kiosque", "outdoor_seating": "yes", "smoking": "yes", "wheelchair": "no"}}, {"type": "way", "id": 1198316805, "nodes": [11116560730, 11116560731, 11116560732, 11116560733, 11116560730], "tags": {"air_conditioning": "no", "amenity": "cafe", "building": "yes", "changing_table": "no", "check_date": "2025-11-16", "food": "no", "indoor_seating": "yes", "name": "Caf\u00e9 du Port", "outdoor_seating": "yes", "smoking": "yes", "toilets": "yes", "toilets:wheelchair": "no", "wheelchair": "limited"}}, {"type": "way", "id": 1202303343, "nodes": [11146071193, 11146071194, 11146071195, 11146285427, 11146071196, 11146192316, 11146071197, 11146071198, 11146071199, 11146071200, 11146071201, 11146071202, 11146071203, 11146192314, 11146071204, 11146192305, 11146192306, 11146192307, 11146192308, 2545399729, 11146192309, 11146192310, 2545399726, 11146071193], "tags": {"air_conditioning": "no", "amenity": "cafe", "building": "yes", "changing_table": "no", "check_date": "2025-11-16", "diet:halal": "only", "indoor_seating": "yes", "name": "Royal Bayech", "outdoor_seating": "yes", "smoking": "separated", "toilets": "yes", "toilets:wheelchair": "no", "wheelchair": "limited"}}, {"type": "way", "id": 1202313732, "nodes": [11146071193, 11146285429, 11146285430, 11146285431, 11146285432, 11146285433, 11146285434, 11146285435, 11146285436, 11146285437, 11146285438, 11146285439, 2545399728, 2545399727, 2545399726, 11146071193], "tags": {"air_conditioning": "no", "amenity": "cafe", "building": "yes", "changing_table": "no", "check_date": "2025-11-16", "diet:halal": "only", "indoor_seating": "yes", "name": "El Flouka", "outdoor_seating": "yes", "smoking": "outside", "toilets": "yes", "toilets:wheelchair": "no", "wheelchair": "limited"}}, {"type": "way", "id": 1202316270, "nodes": [11146310925, 11146310926, 11146310927, 11146310928, 11146310932, 11146310931, 11146310930, 11146310929, 11146310925], "tags": {"air_conditioning": "no", "amenity": "cafe", "building": "yes", "changing_table": "no", "check_date": "2025-11-16", "diet:halal": "only", "indoor_seating": "yes", "name": "Fleur de Th\u00e9", "outdoor_seating": "yes", "smoking": "outside", "toilets": "yes", "toilets:wheelchair": "no", "wheelchair": "limited"}}, {"type": "way", "id": 1214374369, "nodes": [11251424057, 11251424058, 11251424059, 11251424060, 11251424042, 11251424043, 11251424044, 11251424045, 11251424046, 11251424047, 11251424054, 11251424055, 11251424056, 11251424048, 11251424049, 11251424050, 11251424051, 11251424052, 11251424053, 11251424057], "tags": {"amenity": "cafe", "building": "yes", "name": "Caf\u00e9 de l'environnement"}}, {"type": "way", "id": 1344055597, "nodes": [12435659304, 12435659319, 12435659305, 12435659306, 12435659307, 12435659308, 12435659309, 12435659310, 12435659311, 12435659312, 12435659313, 12435659314, 12435659315, 12435659316, 12435659317, 12435659304], "tags": {"brand": "Carrefour", "brand:wikidata": "Q217599", "building": "yes", "name": "Carrefour", "shop": "supermarket"}}]}