{"version": 0.6, "generator": "Overpass API 0.7.62.8 e802775f", "osm3s": {"timestamp_osm_base": "2025-12-20T09:17:17Z", "copyright": "The data included in this document is from www.openstreetmap.org. The data is made available under ODbL."}, "elements": [{"type": "node", "id": 559394560, "lat": 34.2662537, "lon": 10.0501817, "tags": {"shop": "supermarket"}}, {"type": "node", "id": 3143412704, "lat": 34.2917227, "lon": 10.0650208}, {"type": "node", "id": 3143412705, "lat": 34.2915209, "lon": 10.0649076}, {"type": "node", "id": 3143412706, "lat": 34.2914244, "lon": 10.0651376}, {"type": "node", "id": 3143412707, "lat": 34.2916349, "lon": 10.0652615}, {"type": "node", "id": 7028738526, "lat": 34.2573328, "lon": 9.9102541, "tags": {"amenity": "pharmacy", "dispensing": "yes", "healthcare": "pharmacy", "name": "\u0635\u064a\u062f\u0644\u064a\u0629 \u0635\u0628\u064a\u062d", "name:ar": "\u0635\u064a\u062f\u0644\u064a\u0629 \u0635\u0628\u064a\u062d", "name:fr": "Pharmacie Sbih"}}, {"type": "node", "id": 7029082589, "lat": 34.4665734, "lon": 9.9251958, "tags": {"amenity": "cafe", "name": "\u0645\u0642\u0647\u0649 \u0628\u0648\u062a\u0631\u0639\u0629", "name:ar": "\u0645\u0642\u0647\u0649 \u0628\u0648\u062a\u0631\u0639\u0629", "name:fr": "Caf\u00e9 Bouteraa"}}, {"type": "node", "id": 9035062542, "lat": 34.2422336, "lon": 9.8926666, "tags": {"amenity": "cafe", "name": "Caf\u00e9 El Majles Sbih Sud"}}, {"type": "node", "id": 10008679392, "lat": 34.4807141, "lon": 9.6985895, "tags": {"amenity": "cafe", "name": "Caf\u00e9 El Bouaa", "name:fr": "Caf\u00e9 El Bouaa"}}, {"type": "node", "id": 12787373156, "lat": 34.6295104, "lon": 9.7481576}, {"type": "node", "id": 12787373162, "lat": 34.6294636, "lon": 9.7480958}, {"type": "node", "id": 12787373163, "lat": 34.629455, "lon": 9.7480899}, {"type": "node", "id": 12787373164, "lat": 34.6294467, "lon": 9.7481171}, {"type": "node", "id": 12787373165, "lat": 34.6295357, "lon": 9.7481013}, {"type": "node", "id": 12787373166, "lat": 34.6294771, "lon": 9.7480643}, {"type": "node", "id": 12787386053, "lat": 34.6301787, "lon": 9.7470557}, {"type": "node", "id": 12787386054, "lat": 34.630259, "lon": 9.7471045}, {"type": "node", "id": 12787386055, "lat": 34.6302858, "lon": 9.7470232}, {"type": "node", "id": 12787386056, "lat": 34.6302028, "lon": 9.7469711}, {"type": "node", "id": 12787386209, "lat": 34.6312091, "lon": 9.7440093}, {"type": "node", "id": 12787386210, "lat": 34.6311888, "lon": 9.7440906}, {"type": "node", "id": 12787386211, "lat": 34.6311372, "lon": 9.744096}, {"type": "node", "id": 12787386212, "lat": 34.6311584, "lon": 9.7439994}, {"type": "node", "id": 12787386226, "lat": 34.630657, "lon": 9.7446911}, {"type": "node", "id": 12787386228, "lat": 34.6307838, "lon": 9.7446283}, {"type": "node", "id": 12787386229, "lat": 34.6306935, "lon": 9.7445925}, {"type": "node", "id": 12787386230, "lat": 34.6307148, "lon": 9.7447244}, {"type": "node", "id": 12787386231, "lat": 34.630725, "lon": 9.7446961}, {"type": "node", "id": 12787386232, "lat": 34.6307616, "lon": 9.7447109}, {"type": "way", "id": 309030746, "nodes": [3143412704, 3143412705, 3143412706, 3143412707, 3143412704], "tags": {"amenity": "cafe", "building": "yes"}}, {"type": "way", "id": 1381299617, "nodes": [12787373165, 12787373156, 12787373164, 12787373163, 12787373162, 12787373166, 12787373165], "tags": {"building": "yes", "name": "3ammek Ettayeb", "shop": "convenience"}}, {"type": "way", "id": 1381299636, "nodes": [12787386053, 12787386054, 12787386055, 12787386056, 12787386053], "tags": {"amenity": "cafe", "building": "yes", "name": "3ammek 7abib"}}, {"type": "way", "id": 1381299674, "nodes": [12787386209, 12787386210, 12787386211, 12787386212, 12787386209], "tags": {"building": "yes", "shop": "convenience"}}, {"type": "way", "id": 1381299677, "nodes": [12787386228, 12787386229, 12787386226, 12787386230, 12787386231, 12787386232, 12787386228], "tags": {"amenity": "cafe", "building": "yes", "cuisine": "cake", "name": "Caf\u00e9 Ettayeb"}}]}