{"version": 0.6, "generator": "Overpass API 0.7.62.8 e802775f", "osm3s": {"timestamp_osm_base": "2025-12-20T09:21:16Z", "copyright": "The data included in this document is from www.openstreetmap.org. The data is made available under ODbL."}, "elements": [{"type": "node", "id": 436206030, "lat": 34.7706035, "lon": 10.7328268, "tags": {"addr:street": "Route de Gremda Km 4", "amenity": "pharmacy", "healthcare": "pharmacy", "name": "\u0635\u064a\u062f\u0644\u064a\u0629 \u0627\u0644\u0644\u064a\u0644 \u0632\u0647\u064a\u0631 \u0627\u0644\u0639\u062c\u064a\u0644\u064a", "name:ar": "\u0635\u064a\u062f\u0644\u064a\u0629 \u0627\u0644\u0644\u064a\u0644 \u0632\u0647\u064a\u0631 \u0627\u0644\u0639\u062c\u064a\u0644\u064a", "name:fr": "Pharmacie de Nuit Zouhir Ajili", "opening_hours": "Mo-Su 19:30-08:30", "phone": "+216 74 266 380"}}, {"type": "node", "id": 436206148, "lat": 34.7722604, "lon": 10.73123, "tags": {"addr:city": "\u0635\u0641\u0627\u0642\u0633", "addr:city:ar": "\u0635\u0641\u0627\u0642\u0633", "addr:street": "Route de Gremda Km 5", "amenity": "pharmacy", "healthcare": "pharmacy", "name": "\u0635\u064a\u062f\u0644\u064a\u0629 \u0633\u0647\u0644\u0629 \u0628\u0633\u0628\u0627\u0633 \u062d\u0631\u0645 \u0627\u0644\u0634\u0639\u0628\u0648\u0646\u064a", "name:ar": "\u0635\u064a\u062f\u0644\u064a\u0629 \u0633\u0647\u0644\u0629 \u0628\u0633\u0628\u0627\u0633 \u062d\u0631\u0645 \u0627\u0644\u0634\u0639\u0628\u0648\u0646\u064a", "name:fr": "Pharmacie Sahla Besbes Ep. Chaabouni", "opening_hours": "Mo-Fr 08:30-13:00, 15:00-19:30; Sa 08:30-13:00", "phone": "+216 74 267 616"}}, {"type": "node", "id": 436206493, "lat": 34.7744753, "lon": 10.7292164, "tags": {"amenity": "pharmacy", "dispensing": "yes", "healthcare": "pharmacy", "name": "\u0635\u064a\u062f\u0644\u064a\u0629 \u0633\u0645\u064a\u0631 \u0627\u0644\u0633\u0644\u0627\u0645\u064a", "name:ar": "\u0635\u064a\u062f\u0644\u064a\u0629 \u0633\u0645\u064a\u0631 \u0627\u0644\u0633\u0644\u0627\u0645\u064a", "name:fr": "Pharmacie Samir Sallemi", "opening_hours": "Mo-Fr 08:30-13:00, 15:00-19:30; Sa 08:30-13:00"}}, {"type": "node", "id": 436207515, "lat": 34.7788242, "lon": 10.7251899, "tags": {"addr:city": "\u0635\u0641\u0627\u0642\u0633", "addr:city:ar": "\u0635\u0641\u0627\u0642\u0633", "addr:street": "\u0637\u0631\u064a\u0642 \u0642\u0631\u0645\u062f\u0629", "amenity": "pharmacy", "healthcare": "pharmacy", "name": "\u0635\u064a\u062f\u0644\u064a\u0629 \u0645\u0646\u064a\u0631\u0629 \u0628\u0646 \u0633\u0644\u064a\u0645\u0629 \u062d\u0631\u0645 \u063a\u0631\u0628\u0627\u0644", "name:ar": "\u0635\u064a\u062f\u0644\u064a\u0629 \u0645\u0646\u064a\u0631\u0629 \u0628\u0646 \u0633\u0644\u064a\u0645\u0629 \u062d\u0631\u0645 \u063a\u0631\u0628\u0627\u0644", "name:fr": "Pharmacie Mounira Ben Slima", "opening_hours": "Mo-Fr 08:30-13:00, 15:00-19:30; Sa 08:30-13:00", "operator": "\u0645\u0646\u064a\u0631\u0629 \u0628\u0646 \u0633\u0644\u064a\u0645\u0629", "phone": "+216 74 611 444"}}, {"type": "node", "id": 436218746, "lat": 34.7776759, "lon": 10.7262584, "tags": {"amenity": "cafe", "name": "\u0645\u0642\u0647\u0649 \u0627\u0644\u0646\u062e\u0644\u0629", "name:ar": "\u0645\u0642\u0647\u0649 \u0627\u0644\u0646\u062e\u0644\u0629", "name:fr": "Caf\u00e9 La Palme"}}, {"type": "node", "id": 436218908, "lat": 34.7799484, "lon": 10.7243946, "tags": {"amenity": "cafe", "name": "\u0645\u0642\u0647\u0649 \u062d\u0646\u0628\u0639\u0644", "name:ar": "\u0645\u0642\u0647\u0649 \u062d\u0646\u0628\u0639\u0644", "name:fr": "Caf\u00e9 Hannibal"}}, {"type": "node", "id": 438738951, "lat": 34.7346463, "lon": 10.762075, "tags": {"addr:city": "\u0635\u0641\u0627\u0642\u0633", "addr:city:ar": "\u0635\u0641\u0627\u0642\u0633", "amenity": "cafe", "name": "\u0645\u0642\u0647\u0649 \u0628\u0627\u0628 \u0627\u0644\u062f\u064a\u0648\u0627\u0646", "name:ar": "\u0645\u0642\u0647\u0649 \u0628\u0627\u0628 \u0627\u0644\u062f\u064a\u0648\u0627\u0646", "name:fr": "Caf\u00e9 Beb Diwan"}}, {"type": "node", "id": 439787668, "lat": 34.7675549, "lon": 10.7355729, "tags": {"addr:street": "Route de Gremda Km4 Sidi Abbes", "amenity": "pharmacy", "healthcare": "pharmacy", "name": "\u0635\u064a\u062f\u0644\u064a\u0629 \u0646\u062c\u0648\u0649 \u062f\u0627\u0648\u062f \u062d\u0631\u0645 \u0628\u0646 \u062c\u0645\u0627\u0639\u0629", "name:ar": "\u0635\u064a\u062f\u0644\u064a\u0629 \u0646\u062c\u0648\u0649 \u062f\u0627\u0648\u062f \u062d\u0631\u0645 \u0628\u0646 \u062c\u0645\u0627\u0639\u0629", "name:fr": "Pharmacie Najoua Daoud Ep. Ben Jemaa", "opening_hours": "Mo-Fr 08:30-13:00, 15:00-19:30; Sa 08:30-13:00", "phone": "+216 74 266 294"}}, {"type": "node", "id": 439797001, "lat": 34.7639956, "lon": 10.7385862, "tags": {"addr:city": "\u0635\u0641\u0627\u0642\u0633", "addr:city:ar": "\u0635\u0641\u0627\u0642\u0633", "addr:postcode": "3062", "addr:street": "Route de Gremda Km 3,5", "amenity": "pharmacy", "healthcare": "pharmacy", "name": "\u0635\u064a\u062f\u0644\u064a\u0629 \u0635\u0641\u064a\u0629 \u0639\u0637\u064a\u0629 \u062d\u0631\u0645 \u0627\u0644\u0632\u0631\u064a\u0628\u064a", "name:ar": "\u0635\u064a\u062f\u0644\u064a\u0629 \u0635\u0641\u064a\u0629 \u0639\u0637\u064a\u0629 \u062d\u0631\u0645 \u0627\u0644\u0632\u0631\u064a\u0628\u064a", "name:fr": "Pharmacie Safia Attia Ep. Zribi", "opening_hours": "Mo-Fr 08:30-13:00, 15:00-19:30; Sa 08:30-13:00", "phone": "+216 74 265 265"}}, {"type": "node", "id": 439797103, "lat": 34.7655072, "lon": 10.7366238, "tags": {"amenity": "cafe", "name": "Caf\u00e9 Al Yosr", "name:fr": "Caf\u00e9 Al Yosr"}}, {"type": "node", "id": 439797526, "lat": 34.7641573, "lon": 10.7380622, "tags": {"amenity": "cafe", "name": "Caf\u00e9 Chams", "name:fr": "Caf\u00e9 Chams"}}, {"type": "node", "id": 439798833, "lat": 34.7476686, "lon": 10.7387226, "tags": {"addr:city": "\u0635\u0641\u0627\u0642\u0633", "addr:city:ar": "\u0635\u0641\u0627\u0642\u0633", "addr:postcode": "3051", "addr:street": "Route El Ain Km 2,2 Merkez El Alia", "amenity": "pharmacy", "healthcare": "pharmacy", "name": "\u0635\u064a\u062f\u0644\u064a\u0629 \u0639\u0628\u062f \u0627\u0644\u0633\u0644\u0627\u0645 \u063a\u0631\u0628\u0627\u0644", "name:ar": "\u0635\u064a\u062f\u0644\u064a\u0629 \u0639\u0628\u062f \u0627\u0644\u0633\u0644\u0627\u0645 \u063a\u0631\u0628\u0627\u0644", "name:fr": "Pharmacie Abdessalem Ghorbel", "opening_hours": "Mo-Fr 08:30-13:00, 15:00-19:30; Sa 08:30-13:00", "phone": "+216 74 247 527"}}, {"type": "node", "id": 439801004, "lat": 34.7653453, "lon": 10.7252509, "tags": {"addr:city": "\u0635\u0641\u0627\u0642\u0633", "addr:city:ar": "\u0635\u0641\u0627\u0642\u0633", "addr:street": "Route Lafrane Km 4", "amenity": "pharmacy", "healthcare": "pharmacy", "name": "\u0635\u064a\u062f\u0644\u064a\u0629 \u0645\u062d\u0645\u062f \u0639\u0628\u0627\u0633", "name:ar": "\u0635\u064a\u062f\u0644\u064a\u0629 \u0645\u062d\u0645\u062f \u0639\u0628\u0627\u0633", "name:fr": "Pharmacie Mohamed Abbes", "opening_hours": "Mo-Fr 08:30-13:00, 15:00-19:30; Sa 08:30-13:00", "phone": "+216 74 267 276"}}, {"type": "node", "id": 439912004, "lat": 34.7330713, "lon": 10.7625562, "tags": {"addr:city": "\u0635\u0641\u0627\u0642\u0633", "addr:city:ar": "\u0635\u0641\u0627\u0642\u0633", "amenity": "cafe", "name": "\u0645\u0642\u0647\u0649 \u0625\u0643\u0633 \u0625\u0643\u0633 \u0625\u0643\u0633", "name:ar": "\u0645\u0642\u0647\u0649 \u0625\u0643\u0633 \u0625\u0643\u0633 \u0625\u0643\u0633", "name:fr": "Caf\u00e9 xxx", "wheelchair": "no"}}, {"type": "node", "id": 480182890, "lat": 34.7322111, "lon": 10.764407, "tags": {"addr:city": "\u0635\u0641\u0627\u0642\u0633", "addr:city:ar": "\u0635\u0641\u0627\u0642\u0633", "brand": "\u0645\u0648\u0646\u0648\u0628\u0631\u064a", "brand:ar": "\u0645\u0648\u0646\u0648\u0628\u0631\u064a", "name": "\u0645\u0648\u0646\u0648\u0628\u0631\u064a", "name:ar": "\u0645\u0648\u0646\u0648\u0628\u0631\u064a", "name:fr": "Monoprix", "shop": "supermarket"}}, {"type": "node", "id": 494264591, "lat": 34.741079, "lon": 10.7578405, "tags": {"addr:city": "\u0635\u0641\u0627\u0642\u0633", "addr:city:ar": "\u0635\u0641\u0627\u0642\u0633", "addr:postcode": "3027", "addr:street": "Avenue de Carthage Debut Route de Gremda Immeuble OLIVIA", "amenity": "pharmacy", "dispensing": "no", "healthcare": "pharmacy", "name": "\u0635\u064a\u062f\u0644\u064a\u0629 \u0639\u0628\u062f \u0627\u0644\u0633\u062a\u0627\u0631 \u0627\u0644\u0634\u0639\u0631\u064a", "name:ar": "\u0635\u064a\u062f\u0644\u064a\u0629 \u0639\u0628\u062f \u0627\u0644\u0633\u062a\u0627\u0631 \u0627\u0644\u0634\u0639\u0631\u064a", "name:fr": "Pharmacie Abdessatar Chaari", "opening_hours": "Mo-Fr 08:30-13:00, 15:00-19:30; Sa 08:30-13:00", "phone": "+216 74 406 499"}}, {"type": "node", "id": 494264726, "lat": 34.7280859, "lon": 10.704004}, {"type": "node", "id": 494264727, "lat": 34.7277641, "lon": 10.7042965}, {"type": "node", "id": 494264728, "lat": 34.7277827, "lon": 10.7041025}, {"type": "node", "id": 494264729, "lat": 34.7280129, "lon": 10.7038892}, {"type": "node", "id": 494264733, "lat": 34.7274239, "lon": 10.7037611}, {"type": "node", "id": 494264734, "lat": 34.7277506, "lon": 10.7034567}, {"type": "node", "id": 494264737, "lat": 34.7275915, "lon": 10.7037907}, {"type": "node", "id": 494264738, "lat": 34.7278231, "lon": 10.7035753}, {"type": "node", "id": 494264739, "lat": 34.7278781, "lon": 10.7036688}, {"type": "node", "id": 494264743, "lat": 34.7276447, "lon": 10.7038769}, {"type": "node", "id": 494264744, "lat": 34.7277148, "lon": 10.7039993}, {"type": "node", "id": 494264745, "lat": 34.7279412, "lon": 10.7037787}, {"type": "node", "id": 494264858, "lat": 34.7463221, "lon": 10.7238139}, {"type": "node", "id": 494264859, "lat": 34.7462062, "lon": 10.723922}, {"type": "node", "id": 494264860, "lat": 34.7467132, "lon": 10.7245219}, {"type": "node", "id": 494264863, "lat": 34.747142, "lon": 10.723551}, {"type": "node", "id": 494264864, "lat": 34.7466646, "lon": 10.72262}, {"type": "node", "id": 494264865, "lat": 34.7460493, "lon": 10.7230265}, {"type": "node", "id": 494264866, "lat": 34.7469435, "lon": 10.7240468}, {"type": "node", "id": 495806518, "lat": 34.7424529, "lon": 10.7614193}, {"type": "node", "id": 495806521, "lat": 34.7419923, "lon": 10.761865}, {"type": "node", "id": 495806524, "lat": 34.742421, "lon": 10.7625022}, {"type": "node", "id": 495806527, "lat": 34.7428543, "lon": 10.7620752}, {"type": "node", "id": 506035848, "lat": 34.7773649, "lon": 10.7002727, "tags": {"shop": "convenience"}}, {"type": "node", "id": 506035849, "lat": 34.7770905, "lon": 10.7001926, "tags": {"shop": "convenience"}}, {"type": "node", "id": 506035850, "lat": 34.7746437, "lon": 10.7024243, "tags": {"addr:postcode": "3013", "addr:street": "Route El Ain Km 6,5 Merkez Moalla", "amenity": "pharmacy", "dispensing": "no", "healthcare": "pharmacy", "name": "\u0635\u064a\u062f\u0644\u064a\u0629 \u0633\u0646\u064a\u0629 \u0627\u0644\u0642\u0637\u064a", "name:ar": "\u0635\u064a\u062f\u0644\u064a\u0629 \u0633\u0646\u064a\u0629 \u0627\u0644\u0642\u0637\u064a", "name:fr": "Pharmacie Sonia Kotti", "opening_hours": "Mo-Fr 08:30-13:00, 15:00-19:30; Sa 08:30-13:00", "phone": "+216 74 630 411"}}, {"type": "node", "id": 506035853, "lat": 34.7748988, "lon": 10.6960775, "tags": {"shop": "convenience"}}, {"type": "node", "id": 506384239, "lat": 34.8016731, "lon": 10.7619888, "tags": {"amenity": "cafe", "name": "\u0643\u0627\u0641\u064a\u062a\u064a\u0631\u064a\u0627 \u0645\u0627\u0632\u064a\u0643\u0627", "name:ar": "\u0643\u0627\u0641\u064a\u062a\u064a\u0631\u064a\u0627 \u0645\u0627\u0632\u064a\u0643\u0627", "name:fr": "Buvette Mazzika"}}, {"type": "node", "id": 521613379, "lat": 34.7476866, "lon": 10.702767, "tags": {"amenity": "cafe"}}, {"type": "node", "id": 582143335, "lat": 34.763434, "lon": 10.7822578, "tags": {"amenity": "cafe", "name": "\u0645\u0642\u0647\u0649 \u0627\u0644\u0632\u064a\u062a\u0648\u0646\u0629", "name:ar": "\u0645\u0642\u0647\u0649 \u0627\u0644\u0632\u064a\u062a\u0648\u0646\u0629", "name:fr": "Caf\u00e9 Zitouna"}}, {"type": "node", "id": 615849554, "lat": 34.728413, "lon": 10.7378398, "tags": {"amenity": "cafe", "name": "Caf\u00e9 Dolce Amaro", "name:ar": ""}}, {"type": "node", "id": 843377967, "lat": 34.7230549, "lon": 10.7182939, "tags": {"addr:street": "Rte Soukra Km 4 Cit\u00e9 El Habib", "amenity": "pharmacy", "healthcare": "pharmacy", "name": "\u0635\u064a\u062f\u0644\u064a\u0629 \u0633\u0643\u0631\u0629 \u062a\u064a\u062c\u0627\u0646\u064a \u0627\u0644\u062c\u0631\u0627\u064a\u0629", "name:ar": "\u0635\u064a\u062f\u0644\u064a\u0629 \u0633\u0643\u0631\u0629 \u062a\u064a\u062c\u0627\u0646\u064a \u0627\u0644\u062c\u0631\u0627\u064a\u0629", "name:fr": "Pharmacie Soukra Tijani Jarraya", "opening_hours": "Mo-Fr 08:30-13:00, 15:00-19:30; Sa 08:30-13:00", "phone": "+216 74 276 825"}}, {"type": "node", "id": 983115208, "lat": 34.7454187, "lon": 10.764806, "tags": {"addr:city": "\u0635\u0641\u0627\u0642\u0633", "addr:city:ar": "\u0635\u0641\u0627\u0642\u0633", "addr:street": "\u0646\u0647\u062c \u0628\u062d\u0632\u064a \u0643\u0648\u064a\u0643\u0629", "amenity": "cafe", "name": "\u0645\u0642\u0647\u0649 \u0627\u0644\u0642\u0644\u0639\u0629", "name:ar": "\u0645\u0642\u0647\u0649 \u0627\u0644\u0642\u0644\u0639\u0629", "name:fr": "Caf\u00e9 El Kalaa"}}, {"type": "node", "id": 983115214, "lat": 34.7478241, "lon": 10.7663936, "tags": {"addr:city": "\u0635\u0641\u0627\u0642\u0633", "addr:city:ar": "\u0635\u0641\u0627\u0642\u0633", "addr:street": "\u0634\u0627\u0631\u0639 \u0627\u0644\u062d\u0628\u064a\u0628 \u0628\u0648\u0642\u0637\u0641\u0629", "amenity": "cafe", "name": "\u0645\u0642\u0647\u0649 \u0627\u0644\u0645\u0646\u0635\u0648\u0631", "name:ar": "\u0645\u0642\u0647\u0649 \u0627\u0644\u0645\u0646\u0635\u0648\u0631", "name:fr": "Caf\u00e9 El Mansour"}}, {"type": "node", "id": 983115320, "lat": 34.7440442, "lon": 10.7641861, "tags": {"addr:housenumber": "1", "addr:street": "Avenue de Baghdad", "amenity": "pharmacy", "healthcare": "pharmacy", "name": "\u0635\u064a\u062f\u0644\u064a\u0629 \u0627\u0644\u0644\u064a\u0644 \u0637\u0627\u0647\u0631 \u0628\u0646 \u0639\u0645\u0627\u0631", "name:ar": "\u0635\u064a\u062f\u0644\u064a\u0629 \u0627\u0644\u0644\u064a\u0644 \u0637\u0627\u0647\u0631 \u0628\u0646 \u0639\u0645\u0627\u0631", "name:fr": "Pharmacie de Nuit Taher Ben Ammar", "opening_hours": "Mo-Su 19:30-08:30", "phone": "+216 74 299 644"}}, {"type": "node", "id": 983115324, "lat": 34.7554063, "lon": 10.7700491, "tags": {"addr:city": "\u0635\u0641\u0627\u0642\u0633", "addr:city:ar": "\u0635\u0641\u0627\u0642\u0633", "addr:street": "Route Mahdia Km 2", "amenity": "pharmacy", "healthcare": "pharmacy", "name": "\u0635\u064a\u062f\u0644\u064a\u0629 \u0644\u064a\u0644\u0649 \u0627\u0644\u0632\u063a\u0644 \u062d\u0631\u0645 \u0628\u0646 \u0634\u0647\u064a\u062f\u0629", "name:ar": "\u0635\u064a\u062f\u0644\u064a\u0629 \u0644\u064a\u0644\u0649 \u0627\u0644\u0632\u063a\u0644 \u062d\u0631\u0645 \u0628\u0646 \u0634\u0647\u064a\u062f\u0629", "name:fr": "Pharmacie Leila Zghal Ep. Ben Chhida", "opening_hours": "Mo-Fr 08:30-13:00, 15:00-19:30; Sa 08:30-13:00", "phone": "+216 74 230 640"}}, {"type": "node", "id": 983115328, "lat": 34.7549771, "lon": 10.7623015, "tags": {"addr:street": "Route Tunis Km 1.5", "amenity": "pharmacy", "dispensing": "yes", "healthcare": "pharmacy", "name": "\u0635\u064a\u062f\u0644\u064a\u0629 \u062a\u0648\u0641\u064a\u0642 \u0642\u0627\u0633\u0645", "name:ar": "\u0635\u064a\u062f\u0644\u064a\u0629 \u062a\u0648\u0641\u064a\u0642 \u0642\u0627\u0633\u0645", "name:fr": "Pharmacie Taoufik Kacem", "opening_hours": "Mo-Fr 08:30-13:00, 15:00-19:30; Sa 08:30-13:00", "phone": "+216 74 230 499"}}, {"type": "node", "id": 1412841047, "lat": 34.7920364, "lon": 10.7160446, "tags": {"amenity": "cafe", "name": "\u0645\u0642\u0647\u0649 \u0627\u0644\u0643\u0631\u0648\u0627\u0646", "name:ar": "\u0645\u0642\u0647\u0649 \u0627\u0644\u0643\u0631\u0648\u0627\u0646", "name:fr": "Caf\u00e9 Karawen"}}, {"type": "node", "id": 1696100428, "lat": 34.7317862, "lon": 10.7652087, "tags": {"name": "Boutique Heni", "shop": "convenience"}}, {"type": "node", "id": 1728331299, "lat": 34.7704948, "lon": 10.733043, "tags": {"name": "Dalas", "shop": "supermarket"}}, {"type": "node", "id": 1739279271, "lat": 34.740656, "lon": 10.7573662, "tags": {"brand": "\u0643\u0627\u0631\u0641\u0648\u0631 \u0645\u0627\u0631\u0643\u062a", "brand:ar": "\u0643\u0627\u0631\u0641\u0648\u0631 \u0645\u0627\u0631\u0643\u062a", "brand:wikidata": "Q2689639", "brand:wikipedia": "ar:\u0643\u0627\u0631\u0641\u0648\u0631 \u0645\u0627\u0631\u0643\u062a", "brand:wikipedia:ar": "\u0643\u0627\u0631\u0641\u0648\u0631 \u0645\u0627\u0631\u0643\u062a", "name": "\u0643\u0627\u0631\u0641\u0648\u0631 \u0645\u0627\u0631\u0643\u062a", "name:ar": "\u0643\u0627\u0631\u0641\u0648\u0631 \u0645\u0627\u0631\u0643\u062a", "name:en": "Carrefour Market", "name:fr": "Carrefour Market", "operator": "\u0645\u062c\u0645\u0648\u0639\u0629 \u0643\u0627\u0631\u0641\u0648\u0631", "operator:ar": "\u0645\u062c\u0645\u0648\u0639\u0629 \u0643\u0627\u0631\u0641\u0648\u0631", "operator:wikidata": "Q3117359", "operator:wikipedia": "ar:\u0643\u0627\u0631\u0641\u0648\u0631", "operator:wikipedia:ar": "\u0643\u0627\u0631\u0641\u0648\u0631", "shop": "supermarket"}}, {"type": "node", "id": 1941535169, "lat": 34.801831, "lon": 10.7608997, "tags": {"amenity": "cafe", "name": "\u0645\u0642\u0647\u0649 \u0627\u0644\u0646\u0635\u0631", "name:ar": "\u0645\u0642\u0647\u0649 \u0627\u0644\u0646\u0635\u0631", "name:fr": "Caf\u00e9 Ennasr"}}, {"type": "node", "id": 1941535170, "lat": 34.7999447, "lon": 10.7608754, "tags": {"amenity": "cafe", "name": "\u0645\u0642\u0647\u0649 \u0632\u064a\u0627\u062f", "name:ar": "\u0645\u0642\u0647\u0649 \u0632\u064a\u0627\u062f", "name:fr": "Caf\u00e9 Zied"}}, {"type": "node", "id": 1941536142, "lat": 34.7994404, "lon": 10.7574992, "tags": {"amenity": "cafe", "cuisine": "coffee_shop", "name": "Salon de Th\u00e9 M\u00e9t\u00e9or"}}, {"type": "node", "id": 1941544103, "lat": 34.7990896, "lon": 10.7573105, "tags": {"name": "Shopping Club", "name:fr": "Shopping Club", "shop": "supermarket"}}, {"type": "node", "id": 1941549914, "lat": 34.803561, "lon": 10.7612666, "tags": {"addr:postcode": "3021", "addr:street": "\u0637\u0631\u064a\u0642 \u062a\u0648\u0646\u0633", "name": "\u0645\u063a\u0627\u0632\u0629 \u062f\u0627\u0631\u0646\u0627", "name:ar": "\u0645\u063a\u0627\u0632\u0629 \u062f\u0627\u0631\u0646\u0627", "name:fr": "Magasin Darna", "shop": "supermarket"}}, {"type": "node", "id": 1944300912, "lat": 34.8027334, "lon": 10.7602466, "tags": {"addr:city": "\u0633\u0627\u0642\u064a\u0629 \u0627\u0644\u0632\u064a\u062a", "addr:postcode": "3021", "addr:street": "\u0634\u0627\u0631\u0639 \u0627\u0644\u0637\u064a\u0628 \u0627\u0644\u0645\u0647\u064a\u0631\u064a", "amenity": "cafe", "name": "\u0645\u0642\u0647\u0649 \u0644\u0627\u0631\u0648\u0632\u0627", "name:ar": "\u0645\u0642\u0647\u0649 \u0644\u0627\u0631\u0648\u0632\u0627", "name:fr": "Caf\u00e9 La Rosa"}}, {"type": "node", "id": 1944316911, "lat": 34.7997187, "lon": 10.7607993, "tags": {"addr:city": "Sakiet Ezzit", "addr:postcode": "3021", "addr:street": "Avenue Habib Bourguiba", "amenity": "pharmacy", "dispensing": "no", "healthcare": "pharmacy", "name": "\u0635\u064a\u062f\u0644\u064a\u0629 \u0633\u0627\u0645\u064a\u0629 \u0627\u0644\u0645\u0639\u0627\u0644\u062c \u062d\u0631\u0645 \u0646\u062c\u0627\u062d", "name:ar": "\u0635\u064a\u062f\u0644\u064a\u0629 \u0633\u0627\u0645\u064a\u0629 \u0627\u0644\u0645\u0639\u0627\u0644\u062c \u062d\u0631\u0645 \u0646\u062c\u0627\u062d", "name:fr": "Pharmacie Samia Maalej Ep. Njeh", "opening_hours": "Mo-Fr 08:30-13:00, 15:00-19:30; Sa 08:30-13:00", "phone": "+216 74 250 510"}}, {"type": "node", "id": 1972195161, "lat": 34.7982107, "lon": 10.7604379}, {"type": "node", "id": 1972195164, "lat": 34.7982029, "lon": 10.7606635}, {"type": "node", "id": 1972195165, "lat": 34.7983355, "lon": 10.7604515}, {"type": "node", "id": 1972195171, "lat": 34.7983318, "lon": 10.7606772}, {"type": "node", "id": 1975700898, "lat": 34.7294061, "lon": 10.761344}, {"type": "node", "id": 1975700900, "lat": 34.7297368, "lon": 10.7617477}, {"type": "node", "id": 1975700903, "lat": 34.7299306, "lon": 10.7607351}, {"type": "node", "id": 1975700905, "lat": 34.7302613, "lon": 10.7611535}, {"type": "node", "id": 1985563331, "lat": 34.7700637, "lon": 10.7432545, "tags": {"amenity": "cafe", "cuisine": "coffee_shop", "name": "\u0628\u0631\u064a\u0641\u064a\u0644\u0627\u062c", "name:ar": "\u0628\u0631\u064a\u0641\u064a\u0644\u0627\u062c", "name:fr": "Privilege", "smoking": "yes", "wifi": "free"}}, {"type": "node", "id": 2023866350, "lat": 34.745659, "lon": 10.7274777, "tags": {"name": "Les Trois Chemins", "name:fr": "Les Trois Chemins", "shop": "supermarket"}}, {"type": "node", "id": 2161950856, "lat": 34.8243111, "lon": 10.7631533, "tags": {"amenity": "cafe"}}, {"type": "node", "id": 2178596324, "lat": 34.7979767, "lon": 10.7602664, "tags": {"addr:street": "Route Tunis Km 6 Immeuble El Mansour", "amenity": "pharmacy", "healthcare": "pharmacy", "name": "\u0635\u064a\u062f\u0644\u064a\u0629 \u0641\u0631\u0627\u0633 \u0627\u0644\u0644\u0648\u0645\u064a", "name:ar": "\u0635\u064a\u062f\u0644\u064a\u0629 \u0641\u0631\u0627\u0633 \u0627\u0644\u0644\u0648\u0645\u064a", "name:fr": "Pharmacie Firas Elloumi", "opening_hours": "Mo-Fr 08:30-13:00, 15:00-19:30; Sa 08:30-13:00", "phone": "+216 74 853 843", "wheelchair": "yes"}}, {"type": "node", "id": 2534713693, "lat": 34.7404267, "lon": 10.7593751, "tags": {"amenity": "cafe"}}, {"type": "node", "id": 2593121780, "lat": 34.7663719, "lon": 10.7237128, "tags": {"amenity": "cafe", "name": "\u0645\u0642\u0647\u0649 \u0645\u064a\u0631\u0627\u0643\u0644", "name:ar": "\u0645\u0642\u0647\u0649 \u0645\u064a\u0631\u0627\u0643\u0644", "name:fr": "Caf\u00e9 Miracle"}}, {"type": "node", "id": 2661119547, "lat": 34.7366264, "lon": 10.7499471, "tags": {"addr:city": "\u0635\u0641\u0627\u0642\u0633", "addr:city:ar": "\u0635\u0641\u0627\u0642\u0633", "amenity": "cafe", "name": "\u062a\u0631\u0627\u0633", "name:ar": "\u062a\u0631\u0627\u0633", "name:en": "Terasse"}}, {"type": "node", "id": 3910539298, "lat": 34.7397514, "lon": 10.7537446, "tags": {"addr:housenumber": "12", "addr:street": "Avenue 14 Janvier Imm. Hammami", "amenity": "pharmacy", "healthcare": "pharmacy", "name": "\u0635\u064a\u062f\u0644\u064a\u0629 \u0641\u062a\u062d\u064a \u0627\u0644\u0633\u0644\u0627\u0645\u064a", "name:ar": "\u0635\u064a\u062f\u0644\u064a\u0629 \u0641\u062a\u062d\u064a \u0627\u0644\u0633\u0644\u0627\u0645\u064a", "name:fr": "Pharmacie Fathi Sellami", "opening_hours": "Mo-Fr 08:30-13:00, 15:00-19:30; Sa 08:30-13:00", "phone": "+216 74 400 448"}}, {"type": "node", "id": 3913116590, "lat": 34.7682782, "lon": 10.7425305, "tags": {"amenity": "cafe", "cuisine": "coffee_shop", "name": "\u0644\u0627 \u0645\u0633\u0643\u0648\u062a", "name:ar": "\u0644\u0627 \u0645\u0633\u0643\u0648\u062a", "name:fr": "La Mascotte", "smoking": "yes", "wheelchair": "no"}}, {"type": "node", "id": 4359381992, "lat": 34.8111105, "lon": 10.7615713, "tags": {"amenity": "cafe", "internet_access": "wlan", "name": "\u0645\u0642\u0647\u0649 \u0643\u0631\u064a\u0645", "name:ar": "\u0645\u0642\u0647\u0649 \u0643\u0631\u064a\u0645", "name:fr": "Caf\u00e9 Karim"}}, {"type": "node", "id": 4389450390, "lat": 34.7703142, "lon": 10.7538588, "tags": {"addr:street": "Centure Bourguiba", "amenity": "cafe", "name": "White Square", "name:fr": "White Square"}}, {"type": "node", "id": 4390540191, "lat": 34.7371258, "lon": 10.7503637, "tags": {"amenity": "cafe", "name": "Caf\u00e9 Belle Vue", "name:en": "Belle Vue Coffee", "name:fr": "Caf\u00e9 Belle Vue"}}, {"type": "node", "id": 4390625089, "lat": 34.7374398, "lon": 10.750025, "tags": {"amenity": "cafe", "name": "Mama Rosa", "name:fr": "Mama Rosa"}}, {"type": "node", "id": 4574838596, "lat": 34.7470411, "lon": 10.7640844, "tags": {"addr:street": "Rue Ahmed Bayrem", "amenity": "cafe", "cuisine": "breakfast;ice_cream;savory_pancakes;crepe;tea;cake;coffee_shop;pancake", "internet_access": "wlan", "name": "\u0642\u0627\u0639\u0629 \u0634\u0627\u064a \u0623\u0628\u0648 \u0646\u0648\u0627\u0633", "name:ar": "\u0642\u0627\u0639\u0629 \u0634\u0627\u064a \u0623\u0628\u0648 \u0646\u0648\u0627\u0633", "name:fr": "Salon de Th\u00e9 Abou Nawas", "opening_hours": "Mo-Su 07:30-24:00", "phone": "+216 29 291 306"}}, {"type": "node", "id": 4574874791, "lat": 34.7505216, "lon": 10.7628697, "tags": {"addr:housenumber": "93", "addr:postcode": "3002", "addr:street": "Rue du Caire El Bassatine 2", "amenity": "pharmacy", "healthcare": "pharmacy", "name": "\u0635\u064a\u062f\u0644\u064a\u0629 \u0645\u062d\u0645\u062f \u0639\u0645\u0627\u0631", "name:ar": "\u0635\u064a\u062f\u0644\u064a\u0629 \u0645\u062d\u0645\u062f \u0639\u0645\u0627\u0631", "name:fr": "Pharmacie Mohamed Ammar", "opening_hours": "Mo-Fr 08:30-13:00, 15:00-19:30; Sa 08:30-13:00", "phone": "+216 74 289 241"}}, {"type": "node", "id": 4574874793, "lat": 34.7464208, "lon": 10.7631782, "tags": {"addr:city": "\u0635\u0641\u0627\u0642\u0633", "addr:city:ar": "\u0635\u0641\u0627\u0642\u0633", "addr:street": "\u0646\u0647\u062c \u0628\u063a\u062f\u0627\u062f", "amenity": "cafe", "name": "\u0645\u0642\u0647\u0649 \u0627\u0644\u0628\u0631\u064a\u0633\u062a\u064a\u062c", "name:ar": "\u0645\u0642\u0647\u0649 \u0627\u0644\u0628\u0631\u064a\u0633\u062a\u064a\u062c", "name:fr": "Caf\u00e9 Prestige"}}, {"type": "node", "id": 4575469295, "lat": 34.7491404, "lon": 10.7635065, "tags": {"addr:city": "\u0635\u0641\u0627\u0642\u0633", "addr:city:ar": "\u0635\u0641\u0627\u0642\u0633", "addr:street": "Rue du Caire Cit\u00e9 Jardins", "amenity": "pharmacy", "healthcare": "pharmacy", "name": "\u0635\u064a\u062f\u0644\u064a\u0629 \u0646\u062c\u064a\u0628 \u0628\u0648\u0639\u062a\u0648\u0631", "name:ar": "\u0635\u064a\u062f\u0644\u064a\u0629 \u0646\u062c\u064a\u0628 \u0628\u0648\u0639\u062a\u0648\u0631", "name:fr": "Pharmacie Najib Bouatour", "opening_hours": "Mo-Fr 08:30-13:00, 15:00-19:30; Sa 08:30-13:00", "phone": "+216 74 224 321"}}, {"type": "node", "id": 4575527791, "lat": 34.7493166, "lon": 10.761681, "tags": {"addr:street": "Rue Moussa", "shop": "supermarket"}}, {"type": "node", "id": 4575898197, "lat": 34.7516639, "lon": 10.7612362, "tags": {"addr:street": "Route Nationale 1", "amenity": "cafe", "name": "\u0642\u0647\u0648\u0629 \u0634\u064a\u0634\u062e\u0627\u0646", "name:ar": "\u0642\u0647\u0648\u0629 \u0634\u064a\u0634\u062e\u0627\u0646", "name:fr": "Caf\u00e9 Chichkhan"}}, {"type": "node", "id": 4575927491, "lat": 34.7461276, "lon": 10.765992, "tags": {"addr:street": "Avenue Habib Bougafta", "amenity": "cafe", "internet_access": "wlan", "name": "\u0645\u0642\u0647\u0649 \u0645\u0648\u0644\u0627\u0646 \u0631\u0648\u062c", "name:ar": "\u0645\u0642\u0647\u0649 \u0645\u0648\u0644\u0627\u0646 \u0631\u0648\u062c", "name:fr": "Caf\u00e9 Moulin Rouge"}}, {"type": "node", "id": 4575938789, "lat": 34.7498306, "lon": 10.7608452, "tags": {"addr:street": "Route Nationale 1", "amenity": "cafe", "internet_access": "wlan", "name": "\u0645\u0642\u0647\u0649 \u062e\u0627\u0644\u062f", "name:ar": "\u0645\u0642\u0647\u0649 \u062e\u0627\u0644\u062f", "name:fr": "Caf\u00e9 Khaled", "phone": "+216 74 216 733"}}, {"type": "node", "id": 4629644295, "lat": 34.7328748, "lon": 10.7561224, "tags": {"addr:housenumber": "109", "addr:street": "Av. Farhat Hached", "amenity": "pharmacy", "healthcare": "pharmacy", "name": "\u0635\u064a\u062f\u0644\u064a\u0629 \u0645\u062d\u0645\u062f \u0628\u0646 \u062d\u0628\u064a\u0628 \u062f\u0631\u064a\u0631\u0629", "name:ar": "\u0635\u064a\u062f\u0644\u064a\u0629 \u0645\u062d\u0645\u062f \u0628\u0646 \u062d\u0628\u064a\u0628 \u062f\u0631\u064a\u0631\u0629", "name:fr": "Pharmacie Mohamed Ben Habib Drira", "opening_hours": "Mo-Fr 08:30-13:00, 15:00-19:30; Sa 08:30-13:00", "phone": "+216 74 222 817"}}, {"type": "node", "id": 4629644306, "lat": 34.7323789, "lon": 10.7617148, "tags": {"name": "Hammadi Abid", "shop": "clothes"}}, {"type": "node", "id": 4629644307, "lat": 34.7319154, "lon": 10.7615173, "tags": {"addr:housenumber": "39", "addr:street": "Rue Haffouz", "amenity": "pharmacy", "healthcare": "pharmacy", "name": "\u0635\u064a\u062f\u0644\u064a\u0629 \u0645\u0646\u0635\u0641 \u0627\u0644\u062d\u0634\u064a\u0634\u0629", "name:ar": "\u0635\u064a\u062f\u0644\u064a\u0629 \u0645\u0646\u0635\u0641 \u0627\u0644\u062d\u0634\u064a\u0634\u0629", "name:fr": "Pharmacie Moncef Hachicha", "opening_hours": "Mo-Fr 08:30-13:00, 15:00-19:30; Sa 08:30-13:00", "phone": "+216 74 220 549"}}, {"type": "node", "id": 4639983019, "lat": 34.7324529, "lon": 10.7598731, "tags": {"brand": "\u0645\u0635\u0631\u0641 \u0627\u0644\u0632\u064a\u062a\u0648\u0646\u0629", "brand:ar": "\u0645\u0635\u0631\u0641 \u0627\u0644\u0632\u064a\u062a\u0648\u0646\u0629", "brand:fr": "Banque Zitouna", "brand:website": "https://www.banquezitouna.com/ar", "brand:wikidata": "Q2882969", "brand:wikipedia": "ar:\u0645\u0635\u0631\u0641 \u0627\u0644\u0632\u064a\u062a\u0648\u0646\u0629", "name": "\u0645\u063a\u0627\u0632\u0629 \u0627\u0644\u0632\u064a\u062a\u0648\u0646\u0629", "name:ar": "\u0645\u063a\u0627\u0632\u0629 \u0627\u0644\u0632\u064a\u062a\u0648\u0646\u0629", "name:en": "Zitouna Supermarket", "name:fr": "Supermarch\u00e9 Zitouna", "operator:ar": "\u0645\u0635\u0631\u0641 \u0627\u0644\u0632\u064a\u062a\u0648\u0646\u0629", "operator:fr": "Banque Zitouna", "operator:website": "https://www.banquezitouna.com/ar", "operator:wikidata": "Q2882969", "operator:wikipedia": "ar:\u0645\u0635\u0631\u0641 \u0627\u0644\u0632\u064a\u062a\u0648\u0646\u0629", "shop": "supermarket"}}, {"type": "node", "id": 4639983021, "lat": 34.7313321, "lon": 10.7606155, "tags": {"amenity": "cafe", "name": "Popeye"}}, {"type": "node", "id": 4639983049, "lat": 34.7306182, "lon": 10.7615517, "tags": {"name": "Rimes Kids", "shop": "clothes"}}, {"type": "node", "id": 4639983050, "lat": 34.7304969, "lon": 10.7614015, "tags": {"name": "Le Dacus", "shop": "convenience"}}, {"type": "node", "id": 4639983055, "lat": 34.7315757, "lon": 10.7611284, "tags": {"amenity": "cafe", "name": "Caf\u00e9 Intilaka"}}, {"type": "node", "id": 4639983062, "lat": 34.73104, "lon": 10.7625902, "tags": {"name": "ZEN", "shop": "clothes"}}, {"type": "node", "id": 4639983063, "lat": 34.7310129, "lon": 10.7630186, "tags": {"amenity": "cafe", "name": "Pataya"}}, {"type": "node", "id": 4639983064, "lat": 34.7309142, "lon": 10.7631361, "tags": {"amenity": "cafe", "name": "Donia"}}, {"type": "node", "id": 4639983065, "lat": 34.7312979, "lon": 10.7629254, "tags": {"brand": "Celio", "brand:wikidata": "Q2672003", "brand:wikipedia": "en:Celio (retailer)", "name": "Celio", "shop": "clothes"}}, {"type": "node", "id": 4639983071, "lat": 34.7302795, "lon": 10.763883, "tags": {"name": "FATALES", "shop": "clothes"}}, {"type": "node", "id": 4639983072, "lat": 34.73009, "lon": 10.7642129, "tags": {"name": "Kract\u00e8re", "shop": "clothes"}}, {"type": "node", "id": 4639983074, "lat": 34.7296447, "lon": 10.7641539, "tags": {"amenity": "cafe", "name": "Dadi"}}, {"type": "node", "id": 4639983077, "lat": 34.7298916, "lon": 10.7648674, "tags": {"amenity": "cafe", "name": "Tutti Frutti"}}, {"type": "node", "id": 4639983087, "lat": 34.7340709, "lon": 10.761233, "tags": {"addr:city": "\u0635\u0641\u0627\u0642\u0633", "addr:city:ar": "\u0635\u0641\u0627\u0642\u0633", "amenity": "cafe", "name": "\u0627\u0644\u062f\u064a\u0648\u0627\u0646", "name:ar": "\u0627\u0644\u062f\u064a\u0648\u0627\u0646", "name:en": "Diwan"}}, {"type": "node", "id": 4639983088, "lat": 34.7333612, "lon": 10.7617506, "tags": {"addr:city": "\u0635\u0641\u0627\u0642\u0633", "addr:city:ar": "\u0635\u0641\u0627\u0642\u0633", "addr:housenumber": "28", "addr:street": "\u0634\u0627\u0631\u0639 \u0641\u0631\u062d\u0627\u062a \u062d\u0634\u0627\u062f", "addr:street:ar": "\u0634\u0627\u0631\u0639 \u0641\u0631\u062d\u0627\u062a \u062d\u0634\u0627\u062f", "amenity": "pharmacy", "diet:halal": "yes", "healthcare": "pharmacy", "language:ar": "main", "name": "\u0635\u064a\u062f\u0644\u064a\u0629 \u0639\u0628\u062f \u0627\u0644\u0639\u0632\u064a\u0632 \u0639\u0628\u064a\u062f", "name:ar": "\u0635\u064a\u062f\u0644\u064a\u0629 \u0639\u0628\u062f \u0627\u0644\u0639\u0632\u064a\u0632 \u0639\u0628\u064a\u062f", "name:fr": "Pharmacie Abdelaziz Abid", "opening_hours": "Mo-Fr 08:30-13:00, 15:00-19:30; Sa 08:30-13:00", "phone": "+216 74 220 527"}}, {"type": "node", "id": 4639995430, "lat": 34.7321648, "lon": 10.7644972, "tags": {"addr:city": "\u0635\u0641\u0627\u0642\u0633", "addr:city:ar": "\u0635\u0641\u0627\u0642\u0633", "brand": "\u0644\u0627\u0643\u0633\u062a", "brand:ar": "\u0644\u0627\u0643\u0633\u062a", "brand:en": "Lacoste", "brand:wikidata": "Q309031", "brand:wikipedia": "ar:\u0644\u0627\u0643\u0648\u0633\u062a", "name": "\u0644\u0627\u0643\u0633\u062a", "name:ar": "\u0644\u0627\u0643\u0633\u062a", "name:en": "Lacoste", "name:fr": "Lacoste", "shop": "clothes"}}, {"type": "node", "id": 4639995432, "lat": 34.7324073, "lon": 10.764178, "tags": {"addr:city": "\u0635\u0641\u0627\u0642\u0633", "addr:city:ar": "\u0635\u0641\u0627\u0642\u0633", "amenity": "cafe", "name": "\u062c\u0627\u0632", "name:ar": "\u062c\u0627\u0632", "name:en": "Jazz", "outdoor_seating": "no"}}, {"type": "node", "id": 4646766589, "lat": 34.7330341, "lon": 10.7636955, "tags": {"addr:city": "\u0635\u0641\u0627\u0642\u0633", "addr:city:ar": "\u0635\u0641\u0627\u0642\u0633", "amenity": "cafe"}}, {"type": "node", "id": 4699620492, "lat": 34.7359511, "lon": 10.7518932, "tags": {"amenity": "cafe", "name": "Red Moon", "name:fr": "Red Moon"}}, {"type": "node", "id": 4699675990, "lat": 34.7626938, "lon": 10.6918975, "tags": {"addr:street": "Route Manzel Chaker", "amenity": "cafe", "internet_access": "wlan", "name": "\u0645\u0642\u0647\u0649 \u0627\u0644\u0641\u0646\u0648\u0646", "name:ar": "\u0645\u0642\u0647\u0649 \u0627\u0644\u0641\u0646\u0648\u0646", "name:fr": "Caf\u00e9 El Founoun", "opening_hours": "Mo-Su 05:00-24:00"}}, {"type": "node", "id": 4829315423, "lat": 34.745094, "lon": 10.7444448, "tags": {"addr:city": "\u0635\u0641\u0627\u0642\u0633", "addr:city:ar": "\u0635\u0641\u0627\u0642\u0633", "addr:street": "\u0637\u0631\u064a\u0642 \u0627\u0644\u0639\u064a\u0646", "brand": "\u0645\u0648\u0646\u0648\u0628\u0631\u064a", "brand:ar": "\u0645\u0648\u0646\u0648\u0628\u0631\u064a", "brand:wikidata": "Q3321241", "brand:wikipedia": "ar:\u0645\u0648\u0646\u0648\u0628\u0631\u064a (\u0641\u0631\u0646\u0633\u0627)", "name": "\u0645\u0648\u0646\u0648\u0628\u0631\u064a", "name:ar": "\u0645\u0648\u0646\u0648\u0628\u0631\u064a", "name:en": "Monoprix", "name:fr": "Monoprix", "shop": "supermarket"}}, {"type": "node", "id": 5032063023, "lat": 34.7409944, "lon": 10.7528078, "tags": {"amenity": "cafe", "name": "\u0643\u0631\u064a\u0628", "name:ar": "\u0643\u0631\u064a\u0628", "name:fr": "Creep"}}, {"type": "node", "id": 5063645721, "lat": 34.7400942, "lon": 10.7595255, "tags": {"amenity": "cafe", "name": "Espace Er-Ribat", "name:en": "Espace Er-Ribat", "name:fr": "Espace Er-Ribat"}}, {"type": "node", "id": 5063645821, "lat": 34.7408551, "lon": 10.760792, "tags": {"addr:city": "\u0635\u0641\u0627\u0642\u0633", "addr:city:ar": "\u0635\u0641\u0627\u0642\u0633", "name": "\u0645\u0648\u0646\u0648\u0628\u0631\u064a", "name:ar": "\u0645\u0648\u0646\u0648\u0628\u0631\u064a", "name:en": "Monoprix Sfax 2000", "name:fr": "Monoprix", "operator": "\u0645\u0648\u0646\u0648\u0628\u0631\u064a", "shop": "supermarket"}}, {"type": "node", "id": 5107888722, "lat": 34.7403325, "lon": 10.7527531, "tags": {"amenity": "cafe", "name": "\u0628\u0648\u0644\u064a\u062a\u064a\u0643\u0627", "name:ar": "\u0628\u0648\u0644\u064a\u062a\u064a\u0643\u0627", "name:fr": "Politika"}}, {"type": "node", "id": 5159455422, "lat": 34.7267272, "lon": 10.7255146, "tags": {"name": "Barsha", "name:en": "Barsha", "name:fr": "Barsha", "shop": "clothes"}}, {"type": "node", "id": 5159455521, "lat": 34.7363153, "lon": 10.7518798, "tags": {"amenity": "cafe", "name": "Ci Gusta", "name:en": "Ci Gusta", "name:fr": "Ci Gusta"}}, {"type": "node", "id": 5159455522, "lat": 34.7263317, "lon": 10.7254918, "tags": {"amenity": "cafe", "name": "Salon de Th\u00e9 - Resto Granini", "name:ar": "", "name:en": "Granini", "name:fr": "Salon de Th\u00e9 - Resto Granini"}}, {"type": "node", "id": 5201639822, "lat": 34.7344258, "lon": 10.7582396, "tags": {"addr:housenumber": "24900220", "addr:postcode": "3000", "addr:street": "\u0646\u0647\u062c \u0628\u0631\u062c \u0627\u0644\u0642\u0635\u0631", "amenity": "cafe", "internet_access": "wlan", "name:fr": "Caf\u00e9 fadi", "phone": "+216 24 900 220"}}, {"type": "node", "id": 5246870229, "lat": 34.7732543, "lon": 10.730468, "tags": {"addr:street": "\u0637\u0631\u064a\u0642 \u0642\u0631\u0645\u062f\u0629", "amenity": "cafe", "internet_access": "wlan", "name": "\u0642\u0647\u0648\u0629 legends", "name:en": "Caf\u00e9 Legends", "name:fr": "Caf\u00e9 Legends", "opening_hours": "24/7"}}, {"type": "node", "id": 5427550723, "lat": 34.7791215, "lon": 10.7254792, "tags": {"addr:city": "\u0635\u0641\u0627\u0642\u0633", "addr:city:ar": "\u0635\u0641\u0627\u0642\u0633", "name": "\u0633\u0648\u0631\u064a\u0645\u0627\u0643\u0633", "name:ar": "\u0633\u0648\u0631\u064a\u0645\u0627\u0643\u0633", "name:fr": "SORIMEX", "shop": "supermarket"}}, {"type": "node", "id": 5483367221, "lat": 34.7826246, "lon": 10.6671372, "tags": {"amenity": "cafe", "name": "Moving Club", "name:fr": "Moving Club"}}, {"type": "node", "id": 6115231889, "lat": 34.6926763, "lon": 10.7130489, "tags": {"amenity": "cafe", "name": "\u0645\u0642\u0647\u0649 \u0627\u0644\u0646\u062c\u0648\u0645", "name:ar": "\u0645\u0642\u0647\u0649 \u0627\u0644\u0646\u062c\u0648\u0645", "name:fr": "Caf\u00e9 Ennoujoum"}}, {"type": "node", "id": 6268867487, "lat": 34.8144984, "lon": 10.7098331, "tags": {"name": "\u0627\u0644\u0645\u062f\u064a\u0646\u0629 \u0644\u0644\u0645\u0643\u0633\u0631\u0627\u062a", "name:ar": "\u0627\u0644\u0645\u062f\u064a\u0646\u0629 \u0644\u0644\u0645\u0643\u0633\u0631\u0627\u062a", "name:fr": "El Madina Fruits Secs", "shop": "supermarket"}}, {"type": "node", "id": 6484257625, "lat": 34.7940108, "lon": 10.760239, "tags": {"amenity": "cafe", "name": "\u0645\u0642\u0647\u0649 \u0627\u0643\u0633\u062a\u0631\u0627 \u062a\u0627\u064a\u0645", "name:ar": "\u0645\u0642\u0647\u0649 \u0627\u0643\u0633\u062a\u0631\u0627 \u062a\u0627\u064a\u0645", "name:fr": "Caf\u00e9 Extra Time"}}, {"type": "node", "id": 6484261730, "lat": 34.7962207, "lon": 10.7604346, "tags": {"amenity": "cafe", "name": "\u0645\u0642\u0647\u0649 \u0627\u0644\u0642\u0627\u062f\u0633\u064a\u0629 2", "name:ar": "\u0645\u0642\u0647\u0649 \u0627\u0644\u0642\u0627\u062f\u0633\u064a\u0629 2", "name:fr": "Caf\u00e9 Al Kadisiya 2"}}, {"type": "node", "id": 6484265137, "lat": 34.7982828, "lon": 10.7604413}, {"type": "node", "id": 6484476797, "lat": 34.8011747, "lon": 10.7633449, "tags": {"amenity": "cafe", "name": "\u0645\u0642\u0647\u0649 \u0642\u0627\u0644\u0627\u0631\u064a\u0627", "name:ar": "\u0645\u0642\u0647\u0649 \u0642\u0627\u0644\u0627\u0631\u064a\u0627", "name:fr": "Caf\u00e9 Galeria"}}, {"type": "node", "id": 6486772783, "lat": 34.7639833, "lon": 10.7826322, "tags": {"amenity": "cafe", "name": "\u0643\u0627\u0641\u064a\u062a\u064a\u0631\u064a\u0627 \u0628\u0648\u0632", "name:ar": "\u0643\u0627\u0641\u064a\u062a\u064a\u0631\u064a\u0627 \u0628\u0648\u0632", "name:fr": "Caf\u00e9t\u00e9ria Pause"}}, {"type": "node", "id": 6490372018, "lat": 34.7850653, "lon": 10.7782184, "tags": {"amenity": "cafe", "name": "\u0645\u0642\u0647\u0649 \u0627\u0628\u062a\u0633\u0627\u0645", "name:ar": "\u0645\u0642\u0647\u0649 \u0627\u0628\u062a\u0633\u0627\u0645", "name:fr": "Caf\u00e9 Ibtissem"}}, {"type": "node", "id": 6490372019, "lat": 34.7860797, "lon": 10.778603, "tags": {"amenity": "cafe", "name": "\u0642\u0627\u0639\u0629 \u0634\u0627\u064a \u0628\u064a\u0642 \u0628\u0627\u0646", "name:ar": "\u0642\u0627\u0639\u0629 \u0634\u0627\u064a \u0628\u064a\u0642 \u0628\u0627\u0646", "name:fr": "Salon de Th\u00e9 Big Ben"}}, {"type": "node", "id": 6490372020, "lat": 34.7876858, "lon": 10.7792733, "tags": {"amenity": "cafe", "name": "\u0645\u0642\u0647\u0649 \u0623\u0645\u064a\u0645\u0629", "name:ar": "\u0645\u0642\u0647\u0649 \u0623\u0645\u064a\u0645\u0629", "name:fr": "Caf\u00e9 Omaima"}}, {"type": "node", "id": 6490372021, "lat": 34.7876047, "lon": 10.779524, "tags": {"addr:city": "\u0635\u0641\u0627\u0642\u0633", "addr:city:ar": "\u0635\u0641\u0627\u0642\u0633", "addr:housenumber": "249", "addr:postcode": "3011", "addr:street": "Avenue Habib Bourguiba Sakiet Eddaier", "amenity": "pharmacy", "dispensing": "yes", "healthcare": "pharmacy", "name": "\u0635\u064a\u062f\u0644\u064a\u0629 \u0645\u062d\u0633\u0646 \u0634\u0637\u0648\u0631\u0648", "name:ar": "\u0635\u064a\u062f\u0644\u064a\u0629 \u0645\u062d\u0633\u0646 \u0634\u0637\u0648\u0631\u0648", "name:fr": "Pharmacie Mohsen Chtourou", "opening_hours": "Mo-Fr 08:30-13:00, 15:00-19:30; Sa 08:30-13:00", "phone": "+216 74 292 336;+216 20 411 729"}}, {"type": "node", "id": 6495103114, "lat": 34.7721428, "lon": 10.7755232, "tags": {"amenity": "cafe", "name": "\u0645\u0642\u0647\u0649 \u0627\u0644\u0643\u0627\u0628\u064a\u062a\u0648\u0644", "name:ar": "\u0645\u0642\u0647\u0649 \u0627\u0644\u0643\u0627\u0628\u064a\u062a\u0648\u0644", "name:fr": "Caf\u00e9 Capitole"}}, {"type": "node", "id": 6495103116, "lat": 34.7753971, "lon": 10.7764168, "tags": {"amenity": "cafe", "name": "V12 \u0645\u0642\u0647\u0649 \u0628\u0627\u0646\u064a\u0648\u0644\u0627", "name:fr": "Caf\u00e9 Baniola V12"}}, {"type": "node", "id": 6495103135, "lat": 34.7758034, "lon": 10.7769394, "tags": {"amenity": "cafe", "name": "\u0645\u0642\u0647\u0649 \u0643\u0627\u0631\u0627\u0645\u0627\u0644\u0627", "name:ar": "\u0645\u0642\u0647\u0649 \u0643\u0627\u0631\u0627\u0645\u0627\u0644\u0627", "name:fr": "Caf\u00e9 Caramella"}}, {"type": "node", "id": 6495103136, "lat": 34.7785761, "lon": 10.7774773, "tags": {"amenity": "cafe", "name": "\u0645\u0642\u0647\u0649 \u062d\u0627\u062a\u0645", "name:ar": "\u0645\u0642\u0647\u0649 \u062d\u0627\u062a\u0645", "name:fr": "Caf\u00e9 Hatem"}}, {"type": "node", "id": 6495103141, "lat": 34.7817451, "lon": 10.7781623, "tags": {"addr:city": "\u0635\u0641\u0627\u0642\u0633", "addr:city:ar": "\u0635\u0641\u0627\u0642\u0633", "addr:housenumber": "75", "addr:postcode": "3011", "addr:street": "Avenue Habib Bourguiba Sakiet Eddaier", "amenity": "pharmacy", "dispensing": "yes", "healthcare": "pharmacy", "name": "\u0635\u064a\u062f\u0644\u064a\u0629 \u0639\u0644\u064a \u0628\u0646 \u0639\u0645\u0631", "name:ar": "\u0635\u064a\u062f\u0644\u064a\u0629 \u0639\u0644\u064a \u0628\u0646 \u0639\u0645\u0631", "name:fr": "Pharmacie Ali Ben Amar", "opening_hours": "Mo-Fr 08:30-13:00, 15:00-19:30; Sa 08:30-13:00", "phone": "+216 74 890 360"}}, {"type": "node", "id": 6495103168, "lat": 34.7840812, "lon": 10.7781581, "tags": {"addr:postcode": "3011", "amenity": "pharmacy", "dispensing": "yes", "healthcare": "pharmacy", "name": "\u0635\u064a\u062f\u0644\u064a\u0629 \u0627\u0644\u0644\u064a\u0644 \u0645\u062d\u0645\u062f \u0644\u0633\u0639\u062f \u0627\u0644\u0642\u0631\u0642\u0648\u0631\u064a", "name:ar": "\u0635\u064a\u062f\u0644\u064a\u0629 \u0627\u0644\u0644\u064a\u0644 \u0645\u062d\u0645\u062f \u0644\u0633\u0639\u062f \u0627\u0644\u0642\u0631\u0642\u0648\u0631\u064a", "name:fr": "Pharmacie de Nuit Mohamed Lassaad Gargouri", "opening_hours": "Mo-Su 19:30-08:30"}}, {"type": "node", "id": 6495193215, "lat": 34.7859514, "lon": 10.7785606, "tags": {"name": "\u0627\u0644\u0631\u0628\u064a\u0639", "name:ar": "\u0627\u0644\u0631\u0628\u064a\u0639", "name:fr": "Epicerie Le Printemps", "shop": "convenience"}}, {"type": "node", "id": 6495193228, "lat": 34.7894563, "lon": 10.7797685, "tags": {"addr:city": "\u0635\u0641\u0627\u0642\u0633", "addr:city:ar": "\u0635\u0641\u0627\u0642\u0633", "addr:postcode": "3011", "addr:street": "Avenue Habib Bourguiba KM 6 Sakiet Eddaier", "amenity": "pharmacy", "dispensing": "yes", "healthcare": "pharmacy", "name": "\u0635\u064a\u062f\u0644\u064a\u0629 \u0646\u062c\u0627\u0629 \u063a\u0636\u0628\u0627\u0646 \u062d\u0631\u0645 \u0627\u0644\u0639\u064a\u0627\u062f\u064a", "name:ar": "\u0635\u064a\u062f\u0644\u064a\u0629 \u0646\u062c\u0627\u0629 \u063a\u0636\u0628\u0627\u0646 \u062d\u0631\u0645 \u0627\u0644\u0639\u064a\u0627\u062f\u064a", "name:fr": "Pharmacie Najet Ghodhbane Ep. Ayadi", "opening_hours": "Mo-Fr 08:30-13:00, 15:00-19:30; Sa 08:30-13:00", "phone": "+216 74 893 632"}}, {"type": "node", "id": 6495193230, "lat": 34.7897385, "lon": 10.7789923, "tags": {"addr:postcode": "3011", "amenity": "cafe", "name": "\u0645\u0642\u0647\u0649 \u0633\u062a\u0627\u062f\u064a\u0648\u0645", "name:ar": "\u0645\u0642\u0647\u0649 \u0633\u062a\u0627\u062f\u064a\u0648\u0645", "name:fr": "Caf\u00e9 Stadium"}}, {"type": "node", "id": 6495193235, "lat": 34.7917542, "lon": 10.7803813, "tags": {"amenity": "pharmacy", "dispensing": "yes", "healthcare": "pharmacy", "name": "\u0635\u064a\u062f\u0644\u064a\u0629 \u0647\u0627\u062f\u064a\u0629 \u0627\u0644\u0644\u0648\u0632 \u062d\u0631\u0645 \u063a\u0631\u0628\u0627\u0644", "name:ar": "\u0635\u064a\u062f\u0644\u064a\u0629 \u0647\u0627\u062f\u064a\u0629 \u0627\u0644\u0644\u0648\u0632 \u062d\u0631\u0645 \u063a\u0631\u0628\u0627\u0644", "name:fr": "Pharmacie Hedia Ellouze Ep. Ghorbel", "opening_hours": "Mo-Fr 08:30-13:00, 15:00-19:30; Sa 08:30-13:00", "phone": "+216 74 893 831"}}, {"type": "node", "id": 6495193237, "lat": 34.7920047, "lon": 10.7807603, "tags": {"amenity": "cafe", "name": "\u0645\u0642\u0647\u0649 \u0639\u0644\u064a\u0633\u0629", "name:ar": "\u0645\u0642\u0647\u0649 \u0639\u0644\u064a\u0633\u0629", "name:fr": "Caf\u00e9 Elissa"}}, {"type": "node", "id": 6495193238, "lat": 34.7923248, "lon": 10.7808311, "tags": {"amenity": "cafe", "name": "\u0645\u0642\u0647\u0649 \u0643\u0648\u0631\u062a\u0627\u062f\u0648", "name:ar": "\u0645\u0642\u0647\u0649 \u0643\u0648\u0631\u062a\u0627\u062f\u0648", "name:fr": "Caf\u00e9 Cortado"}}, {"type": "node", "id": 6495193259, "lat": 34.7934873, "lon": 10.7810942, "tags": {"addr:city": "\u0635\u0641\u0627\u0642\u0633", "addr:city:ar": "\u0635\u0641\u0627\u0642\u0633", "addr:postcode": "3011", "addr:street": "Avenue Habib Bourguiba Sakiet Eddaier", "amenity": "pharmacy", "dispensing": "yes", "healthcare": "pharmacy", "name": "\u0635\u064a\u062f\u0644\u064a\u0629 \u0631\u0627\u0636\u064a\u0629 \u0627\u0644\u0632\u0648\u0627\u0631\u064a \u062d\u0631\u0645 \u0627\u0644\u0634\u0639\u0628\u0648\u0646\u064a", "name:ar": "\u0635\u064a\u062f\u0644\u064a\u0629 \u0631\u0627\u0636\u064a\u0629 \u0627\u0644\u0632\u0648\u0627\u0631\u064a \u062d\u0631\u0645 \u0627\u0644\u0634\u0639\u0628\u0648\u0646\u064a", "name:fr": "Pharmacie Radhia Zouari Ep. Chaabouni", "opening_hours": "Mo-Fr 08:30-13:00, 15:00-19:30; Sa 08:30-13:00", "phone": "+216 74 294 818"}}, {"type": "node", "id": 6495193262, "lat": 34.7948102, "lon": 10.7815017, "tags": {"amenity": "cafe", "name": "\u0645\u0642\u0647\u0649 \u0639\u0635\u0627\u0645", "name:ar": "\u0645\u0642\u0647\u0649 \u0639\u0635\u0627\u0645", "name:fr": "Caf\u00e9 Issam"}}, {"type": "node", "id": 6495193265, "lat": 34.7962833, "lon": 10.7817052, "tags": {"addr:city": "\u0635\u0641\u0627\u0642\u0633", "addr:city:ar": "\u0635\u0641\u0627\u0642\u0633", "addr:postcode": "3011", "addr:street": "Route de Mahdia Km 7 Merkez El Hattab", "amenity": "pharmacy", "dispensing": "yes", "healthcare": "pharmacy", "name": "\u0635\u064a\u062f\u0644\u064a\u0629 \u062f\u0631\u0629 \u0627\u0644\u0642\u0644\u0627\u0644 \u062d\u0631\u0645 \u0627\u0644\u062c\u0631\u0627\u064a\u0629", "name:ar": "\u0635\u064a\u062f\u0644\u064a\u0629 \u062f\u0631\u0629 \u0627\u0644\u0642\u0644\u0627\u0644 \u062d\u0631\u0645 \u0627\u0644\u062c\u0631\u0627\u064a\u0629", "name:fr": "Pharmacie Dorra Kallel Ep. Jarraya", "opening_hours": "Mo-Fr 08:30-13:00, 15:00-19:30; Sa 08:30-13:00", "phone": "+216 74 292 795"}}, {"type": "node", "id": 6495193266, "lat": 34.7961829, "lon": 10.7820432, "tags": {"amenity": "cafe", "name": "\u0645\u0642\u0647\u0649 \u0627\u0644\u062a\u0627\u062c", "name:ar": "\u0645\u0642\u0647\u0649 \u0627\u0644\u062a\u0627\u062c", "name:fr": "Caf\u00e9 Tej"}}, {"type": "node", "id": 6495193267, "lat": 34.7968231, "lon": 10.7817621, "tags": {"amenity": "cafe", "name": "\u0645\u0642\u0647\u0649 \u0642\u0648\u0644\u0641", "name:ar": "\u0645\u0642\u0647\u0649 \u0642\u0648\u0644\u0641", "name:fr": "Caf\u00e9 Golf"}}, {"type": "node", "id": 6495722017, "lat": 34.7971999, "lon": 10.7820829, "tags": {"name": "\u0645\u063a\u0627\u0632\u0629 \u0632\u0627\u062f\u0646\u0627", "name:ar": "\u0645\u063a\u0627\u0632\u0629 \u0632\u0627\u062f\u0646\u0627", "name:fr": "Magasin Zedna", "shop": "supermarket"}}, {"type": "node", "id": 6495722018, "lat": 34.7978849, "lon": 10.7827885, "tags": {"addr:city": "\u0635\u0641\u0627\u0642\u0633", "addr:city:ar": "\u0635\u0641\u0627\u0642\u0633", "addr:street": "Route de Mahdia Km 7 Markez Hattab", "amenity": "pharmacy", "dispensing": "yes", "healthcare": "pharmacy", "name": "\u0635\u064a\u062f\u0644\u064a\u0629 \u0645\u0647\u062f\u064a \u0628\u0646 \u0645\u0646\u0635\u0648\u0631", "name:ar": "\u0635\u064a\u062f\u0644\u064a\u0629 \u0645\u0647\u062f\u064a \u0628\u0646 \u0645\u0646\u0635\u0648\u0631", "name:fr": "Pharmacie Mahdi Ben Mansour", "opening_hours": "Mo-Fr 08:30-13:00, 15:00-19:30; Sa 08:30-13:00", "phone": "+216 74 294 740"}}, {"type": "node", "id": 6495722025, "lat": 34.7999253, "lon": 10.7837047, "tags": {"amenity": "cafe", "name": "\u0645\u0642\u0647\u0649 \u0633\u0645\u064a\u0631", "name:ar": "\u0645\u0642\u0647\u0649 \u0633\u0645\u064a\u0631", "name:fr": "Caf\u00e9 Samir"}}, {"type": "node", "id": 6495722026, "lat": 34.8009271, "lon": 10.7837149, "tags": {"amenity": "cafe", "name": "Caf\u00e9 Les Fr\u00e8res", "name:ar": "\u0645\u0642\u0647\u0649 \u0627\u0644\u0623\u062e\u0648\u0629", "name:fr": "Caf\u00e9 Les Fr\u00e8res"}}, {"type": "node", "id": 6497155786, "lat": 34.7554248, "lon": 10.7625109, "tags": {"name": "\u0627\u0644\u0645\u063a\u0627\u0632\u0629 \u0627\u0644\u0639\u0627\u0645\u0629 \u0633\u064a\u062a\u064a", "name:ar": "\u0627\u0644\u0645\u063a\u0627\u0632\u0629 \u0627\u0644\u0639\u0627\u0645\u0629 \u0633\u064a\u062a\u064a", "name:fr": "MG City", "operator": "Magasin General", "shop": "supermarket"}}, {"type": "node", "id": 6497155787, "lat": 34.7564035, "lon": 10.7628457, "tags": {"amenity": "cafe", "name": "DUO Coffee"}}, {"type": "node", "id": 6497282919, "lat": 34.7927234, "lon": 10.7745304, "tags": {"amenity": "cafe", "name": "\u0645\u0642\u0647\u0649 \u0628\u0627\u0646\u0648\u0631\u0627\u0645\u0627", "name:ar": "\u0645\u0642\u0647\u0649 \u0628\u0627\u0646\u0648\u0631\u0627\u0645\u0627", "name:fr": "Caf\u00e9 Panorama"}}, {"type": "node", "id": 6503295419, "lat": 34.7469451, "lon": 10.7619435, "tags": {"addr:city": "\u0635\u0641\u0627\u0642\u0633", "addr:city:ar": "\u0635\u0641\u0627\u0642\u0633", "addr:street": "Avenue 5 Ao\u00fbt", "amenity": "cafe", "internet_access": "wlan", "name": "\u0645\u0642\u0647\u0649 \u0631\u0648\u0628\u064a\u0633\u062a\u0627", "name:ar": "\u0645\u0642\u0647\u0649 \u0631\u0648\u0628\u064a\u0633\u062a\u0627", "name:fr": "Caf\u00e9 Robusta"}}, {"type": "node", "id": 6503870468, "lat": 34.7456246, "lon": 10.7657318, "tags": {"amenity": "cafe", "name": "\u0645\u0642\u0647\u0649 \u062c\u0644\u0627\u0644", "name:ar": "\u0645\u0642\u0647\u0649 \u062c\u0644\u0627\u0644", "name:fr": "Caf\u00e9 Jalel"}}, {"type": "node", "id": 6503886669, "lat": 34.7457775, "lon": 10.7624784, "tags": {"amenity": "cafe", "name": "\u0645\u0642\u0647\u0649 \u0645\u0639\u0632", "name:ar": "\u0645\u0642\u0647\u0649 \u0645\u0639\u0632", "name:fr": "Caf\u00e9 Moez"}}, {"type": "node", "id": 6506218738, "lat": 34.7418068, "lon": 10.7366729, "tags": {"addr:street": "Rte Menzel Chaker Km 1.5", "amenity": "pharmacy", "dispensing": "yes", "healthcare": "pharmacy", "name": "\u0635\u064a\u062f\u0644\u064a\u0629 \u0647\u0627\u062c\u0631 \u062e\u0644\u064a\u0641 \u062d\u0631\u0645 \u0627\u0644\u0645\u0647\u064a\u0631\u064a", "name:ar": "\u0635\u064a\u062f\u0644\u064a\u0629 \u0647\u0627\u062c\u0631 \u062e\u0644\u064a\u0641 \u062d\u0631\u0645 \u0627\u0644\u0645\u0647\u064a\u0631\u064a", "name:fr": "Pharmacie Hajer Khlif Ep. Mhiri", "opening_hours": "Mo-Fr 08:30-13:00, 15:00-19:30; Sa 08:30-13:00", "phone": "+216 74 240 370"}}, {"type": "node", "id": 6507019839, "lat": 34.7654167, "lon": 10.7737909, "tags": {"amenity": "cafe", "name": "\u0645\u0642\u0647\u0649 \u0627\u0644\u062d\u0628\u064a\u0628", "name:ar": "\u0645\u0642\u0647\u0649 \u0627\u0644\u062d\u0628\u064a\u0628", "name:fr": "Caf\u00e9 El Habib"}}, {"type": "node", "id": 6507019840, "lat": 34.7823012, "lon": 10.7778765, "tags": {"addr:postcode": "3011", "amenity": "cafe", "name": "\u0645\u0642\u0647\u0649 \u0631\u0648\u0632\u0627\u0644\u064a\u0646\u0627", "name:ar": "\u0645\u0642\u0647\u0649 \u0631\u0648\u0632\u0627\u0644\u064a\u0646\u0627", "name:fr": "Caf\u00e9 Rosalina"}}, {"type": "node", "id": 6508166869, "lat": 34.7264207, "lon": 10.7256475, "tags": {"addr:city": "\u0635\u0641\u0627\u0642\u0633", "addr:city:ar": "\u0635\u0641\u0627\u0642\u0633", "addr:postcode": "3052", "addr:street": "Route Sokra Km 2.5", "amenity": "pharmacy", "dispensing": "yes", "healthcare": "pharmacy", "name": "\u0635\u064a\u062f\u0644\u064a\u0629 \u062a\u0648\u0641\u064a\u0642 \u0627\u0644\u0645\u0639\u0627\u0644\u062c", "name:ar": "\u0635\u064a\u062f\u0644\u064a\u0629 \u062a\u0648\u0641\u064a\u0642 \u0627\u0644\u0645\u0639\u0627\u0644\u062c", "name:fr": "Pharmacie Taoufik Maalej", "opening_hours": "Mo-Fr 08:30-13:00, 15:00-19:30; Sa 08:30-13:00", "phone": "+216 74 674 307"}}, {"type": "node", "id": 6535419165, "lat": 34.7310331, "lon": 10.7504826, "tags": {"amenity": "cafe", "name": "\u0645\u0642\u0647\u0649 \u0627\u0644\u062d\u0644\u0645\u064a\u0629", "name:ar": "\u0645\u0642\u0647\u0649 \u0627\u0644\u062d\u0644\u0645\u064a\u0629", "name:fr": "Caf\u00e9 El Helmia"}}, {"type": "node", "id": 6535422893, "lat": 34.7296514, "lon": 10.7537095, "tags": {"amenity": "cafe", "name": "\u0645\u0642\u0647\u0649 \u0627\u0644\u0642\u0627\u062f\u0633\u064a\u0629", "name:ar": "\u0645\u0642\u0647\u0649 \u0627\u0644\u0642\u0627\u062f\u0633\u064a\u0629", "name:fr": "Caf\u00e9 Al Kadisia"}}, {"type": "node", "id": 6548563595, "lat": 34.7888303, "lon": 10.7815583, "tags": {"addr:postcode": "3011", "amenity": "cafe", "name": "\u0645\u0642\u0647\u0649 \u0627\u0644\u0643\u0627\u0628", "name:ar": "\u0645\u0642\u0647\u0649 \u0627\u0644\u0643\u0627\u0628", "name:fr": "Caf\u00e9 Le Cap"}}, {"type": "node", "id": 6549301073, "lat": 34.7624218, "lon": 10.7412878, "tags": {"name": "ZEN", "operator": "Groupe Zouari", "shop": "clothes"}}, {"type": "node", "id": 6550856497, "lat": 34.7611297, "lon": 10.7806719, "tags": {"amenity": "cafe", "name": "\u0645\u0642\u0647\u0649 \u0627\u0644\u0631\u064a\u0627\u0644", "name:ar": "\u0645\u0642\u0647\u0649 \u0627\u0644\u0631\u064a\u0627\u0644", "name:fr": "Caf\u00e9 Real"}}, {"type": "node", "id": 6550867164, "lat": 34.7505922, "lon": 10.7716673, "tags": {"amenity": "cafe", "name": "\u0645\u0642\u0647\u0649 \u0645\u0627\u0641\u064a", "name:ar": "\u0645\u0642\u0647\u0649 \u0645\u0627\u0641\u064a", "name:fr": "Caf\u00e9 Mavie"}}, {"type": "node", "id": 6553443185, "lat": 34.7377359, "lon": 10.7569318, "tags": {"addr:city": "\u0635\u0641\u0627\u0642\u0633", "addr:city:ar": "\u0635\u0641\u0627\u0642\u0633", "addr:postcode": "3000", "addr:street": "Avenue des Martyrs Place Bab Jebli", "amenity": "pharmacy", "dispensing": "yes", "healthcare": "pharmacy", "name": "\u0635\u064a\u062f\u0644\u064a\u0629 \u0646\u062c\u0645 \u0627\u0644\u062f\u064a\u0646 \u0627\u0644\u0641\u0631\u064a\u062e\u0629", "name:ar": "\u0635\u064a\u062f\u0644\u064a\u0629 \u0646\u062c\u0645 \u0627\u0644\u062f\u064a\u0646 \u0627\u0644\u0641\u0631\u064a\u062e\u0629", "name:fr": "Pharmacie Najmeddine Frikha", "opening_hours": "Mo-Fr 08:30-13:00, 15:00-19:30; Sa 08:30-13:00", "phone": "+216 74 403 800"}}, {"type": "node", "id": 6561724719, "lat": 34.8004963, "lon": 10.7622304}, {"type": "node", "id": 6561724720, "lat": 34.8005514, "lon": 10.762389}, {"type": "node", "id": 6561724721, "lat": 34.8005269, "lon": 10.7624571}, {"type": "node", "id": 6561724722, "lat": 34.8003215, "lon": 10.7625082}, {"type": "node", "id": 6561724723, "lat": 34.8002594, "lon": 10.7622996}, {"type": "node", "id": 6561724724, "lat": 34.8004561, "lon": 10.7622112}, {"type": "node", "id": 6572783254, "lat": 34.7649288, "lon": 10.7742079}, {"type": "node", "id": 6572783255, "lat": 34.7646061, "lon": 10.7750952}, {"type": "node", "id": 6572783256, "lat": 34.7642783, "lon": 10.7749273}, {"type": "node", "id": 6572783257, "lat": 34.7642986, "lon": 10.7748641}, {"type": "node", "id": 6572783258, "lat": 34.7642454, "lon": 10.7748395}, {"type": "node", "id": 6572783259, "lat": 34.7642682, "lon": 10.7747671}, {"type": "node", "id": 6572783260, "lat": 34.7642948, "lon": 10.7747779}, {"type": "node", "id": 6572783261, "lat": 34.7643365, "lon": 10.7746438}, {"type": "node", "id": 6572783262, "lat": 34.7643682, "lon": 10.7746562}, {"type": "node", "id": 6572783263, "lat": 34.7643796, "lon": 10.7746146}, {"type": "node", "id": 6572783264, "lat": 34.7643922, "lon": 10.7746176}, {"type": "node", "id": 6572783265, "lat": 34.7644137, "lon": 10.7745606}, {"type": "node", "id": 6572783266, "lat": 34.7644036, "lon": 10.7745545}, {"type": "node", "id": 6572783267, "lat": 34.7644327, "lon": 10.7744836}, {"type": "node", "id": 6572783268, "lat": 34.7644834, "lon": 10.7745052}, {"type": "node", "id": 6572783269, "lat": 34.7645112, "lon": 10.7744374}, {"type": "node", "id": 6572783270, "lat": 34.7644973, "lon": 10.7744343}, {"type": "node", "id": 6572783271, "lat": 34.7645099, "lon": 10.7744097}, {"type": "node", "id": 6572783272, "lat": 34.7645783, "lon": 10.7742387}, {"type": "node", "id": 6572783273, "lat": 34.7646934, "lon": 10.7741724}, {"type": "node", "id": 6572783274, "lat": 34.7647086, "lon": 10.7741801}, {"type": "node", "id": 6572783275, "lat": 34.7647289, "lon": 10.7741694}, {"type": "node", "id": 6572783276, "lat": 34.7647618, "lon": 10.7741801}, {"type": "node", "id": 6572783277, "lat": 34.7647909, "lon": 10.7741231}, {"type": "node", "id": 6576478205, "lat": 34.7123286, "lon": 10.7267998}, {"type": "node", "id": 6576478206, "lat": 34.7121628, "lon": 10.7266104}, {"type": "node", "id": 6576478207, "lat": 34.7116027, "lon": 10.727336}, {"type": "node", "id": 6576478208, "lat": 34.7117765, "lon": 10.7275265}, {"type": "node", "id": 6579567441, "lat": 34.7990656, "lon": 10.7830647, "tags": {"amenity": "cafe", "name": "Amalfi Coffee", "name:ar": "\u0623\u0645\u0627\u0644\u0641\u064a \u0643\u0648\u063a\u064a", "name:fr": "Amalfi Coffee"}}, {"type": "node", "id": 6580138622, "lat": 34.7881433, "lon": 10.7805315}, {"type": "node", "id": 6580138623, "lat": 34.7882799, "lon": 10.780156}, {"type": "node", "id": 6580138624, "lat": 34.7888262, "lon": 10.7804094}, {"type": "node", "id": 6580138625, "lat": 34.7888317, "lon": 10.780392}, {"type": "node", "id": 6580138626, "lat": 34.7889848, "lon": 10.7804577}, {"type": "node", "id": 6580138627, "lat": 34.788965, "lon": 10.7805073}, {"type": "node", "id": 6580138628, "lat": 34.7890068, "lon": 10.7805301}, {"type": "node", "id": 6580138629, "lat": 34.7889176, "lon": 10.7807983}, {"type": "node", "id": 6580138630, "lat": 34.7888394, "lon": 10.7808694}, {"type": "node", "id": 6580138631, "lat": 34.7888265, "lon": 10.7809046}, {"type": "node", "id": 6580525099, "lat": 34.7998002, "lon": 10.7562806, "tags": {"amenity": "cafe", "name": "\u0645\u0642\u0647\u0649 \u0645\u0635\u0641\u0627\u0631", "name:ar": "\u0645\u0642\u0647\u0649 \u0645\u0635\u0641\u0627\u0631", "name:fr": "Caf\u00e9 Mesfar"}}, {"type": "node", "id": 6586684831, "lat": 34.8285778, "lon": 10.7794799, "tags": {"amenity": "cafe", "name": "espace familial"}}, {"type": "node", "id": 6586696438, "lat": 34.730739, "lon": 10.7660945, "tags": {"addr:city": "\u0635\u0641\u0627\u0642\u0633", "addr:city:ar": "\u0635\u0641\u0627\u0642\u0633", "addr:postcode": "3000", "addr:street": "\u0634\u0627\u0631\u0639 \u0627\u0644\u0647\u0627\u062f\u064a \u0634\u0627\u0643\u0631", "addr:street:ar": "\u0634\u0627\u0631\u0639 \u0627\u0644\u0647\u0627\u062f\u064a \u0634\u0627\u0643\u0631", "addr:street:fr": "Avenue Hedi Chaker ", "amenity": "cafe", "cuisine": "coffee_shop", "name": "A bord"}}, {"type": "node", "id": 6594685019, "lat": 34.7467161, "lon": 10.722681}, {"type": "node", "id": 6594685020, "lat": 34.7460655, "lon": 10.7234686}, {"type": "node", "id": 6594685021, "lat": 34.7462284, "lon": 10.7233364}, {"type": "node", "id": 6594885805, "lat": 34.7278726, "lon": 10.7038475}, {"type": "node", "id": 6594885806, "lat": 34.7279109, "lon": 10.7038979}, {"type": "node", "id": 6594885807, "lat": 34.7278251, "lon": 10.7039827}, {"type": "node", "id": 6594885808, "lat": 34.7277901, "lon": 10.7039356}, {"type": "node", "id": 6594885809, "lat": 34.7277937, "lon": 10.7037148}, {"type": "node", "id": 6594885810, "lat": 34.7277778, "lon": 10.70369}, {"type": "node", "id": 6594885811, "lat": 34.7276824, "lon": 10.7037733}, {"type": "node", "id": 6594885812, "lat": 34.7277099, "lon": 10.7038171}, {"type": "node", "id": 6627558893, "lat": 34.8033453, "lon": 10.7612108, "tags": {"amenity": "pharmacy", "dispensing": "yes", "healthcare": "pharmacy", "name": "\u0635\u064a\u062f\u0644\u064a\u0629 \u0627\u0644\u0644\u064a\u0644 \u0641\u0627\u0626\u0632\u0629 \u0627\u0644\u0641\u0646\u062f\u0631\u064a \u062d\u0631\u0645 \u0627\u0644\u0643\u0634\u0648", "name:ar": "\u0635\u064a\u062f\u0644\u064a\u0629 \u0627\u0644\u0644\u064a\u0644 \u0641\u0627\u0626\u0632\u0629 \u0627\u0644\u0641\u0646\u062f\u0631\u064a \u062d\u0631\u0645 \u0627\u0644\u0643\u0634\u0648", "name:fr": "Pharmacie de Nuit Faiza Fendri Ep. Kchaou", "opening_hours": "Mo-Su 19:30-08:30", "phone": "+216 74 251 464"}}, {"type": "node", "id": 6627558895, "lat": 34.8034057, "lon": 10.7608688, "tags": {"addr:city": "\u0633\u0627\u0642\u064a\u0629 \u0627\u0644\u0632\u064a\u062a", "addr:postcode": "3021", "amenity": "cafe", "name": "\u0645\u0642\u0647\u0649 \u0645\u0646\u0649", "name:ar": "\u0645\u0642\u0647\u0649 \u0645\u0646\u0649", "name:fr": "Caf\u00e9 Mouna"}}, {"type": "node", "id": 6635557537, "lat": 34.7971425, "lon": 10.7725807, "tags": {"amenity": "cafe", "name": "\u0643\u0627\u0641\u064a\u062a\u064a\u0631\u064a\u0627 \u0641\u0631\u062d", "name:ar": "\u0643\u0627\u0641\u064a\u062a\u064a\u0631\u064a\u0627 \u0641\u0631\u062d", "name:fr": "Caf\u00e9t\u00e9ria Farah"}}, {"type": "node", "id": 6653285026, "lat": 34.7482358, "lon": 10.760671, "tags": {"addr:city": "\u0635\u0641\u0627\u0642\u0633", "addr:city:ar": "\u0635\u0641\u0627\u0642\u0633", "addr:street": "Route de Tunis", "amenity": "cafe", "name": "\u0645\u0642\u0647\u0649 \u0627\u0644\u0632\u0632\u0648\u0629", "name:ar": "\u0645\u0642\u0647\u0649 \u0627\u0644\u0632\u0632\u0648\u0629", "name:fr": "Caf\u00e9 Zezoua"}}, {"type": "node", "id": 6656869570, "lat": 34.7866616, "lon": 10.7788808, "tags": {"amenity": "cafe", "name": "\u0645\u0642\u0647\u0649 \u062a\u0648\u0631\u064a\u0646\u0648", "name:ar": "\u0645\u0642\u0647\u0649 \u062a\u0648\u0631\u064a\u0646\u0648", "name:fr": "Caf\u00e9 Torino"}}, {"type": "node", "id": 6723512187, "lat": 34.7501869, "lon": 10.7675167, "tags": {"amenity": "cafe", "name": "\u0645\u0642\u0647\u0649 \u062f\u0648\u0631\u0643\u0627\u0633", "name:ar": "\u0645\u0642\u0647\u0649 \u062f\u0648\u0631\u0643\u0627\u0633", "name:fr": "Caf\u00e9 Dorcas", "phone": "+216 22 095 686"}}, {"type": "node", "id": 6723512189, "lat": 34.7504326, "lon": 10.7672646, "tags": {"amenity": "cafe", "name": "\u0645\u0642\u0647\u0649 \u0643\u0627\u064a\u0645\u0627\u0646\u0648", "name:ar": "\u0645\u0642\u0647\u0649 \u0643\u0627\u064a\u0645\u0627\u0646\u0648", "name:fr": "Caf\u00e9 Kaimano"}}, {"type": "node", "id": 6744430621, "lat": 34.7624475, "lon": 10.7286459, "tags": {"addr:city": "\u0635\u0641\u0627\u0642\u0633", "addr:city:ar": "\u0635\u0641\u0627\u0642\u0633", "addr:street": "Route Lafrane Km 3 Immeuble Mahsouna", "amenity": "pharmacy", "dispensing": "yes", "healthcare": "pharmacy", "name": "\u0635\u064a\u062f\u0644\u064a\u0629 \u0627\u0644\u0633\u064a\u0627\u0644\u0629", "name:ar": "\u0635\u064a\u062f\u0644\u064a\u0629 \u0627\u0644\u0633\u064a\u0627\u0644\u0629", "name:fr": "Pharmacie Siala", "opening_hours": "Mo-Fr 08:30-13:00, 15:00-19:30; Sa 08:30-13:00", "phone": "+216 74 618 325"}}, {"type": "node", "id": 6744430622, "lat": 34.7626877, "lon": 10.728362, "tags": {"brand": "\u0643\u0627\u0631\u0641\u0648\u0631 \u0645\u0627\u0631\u0643\u062a", "brand:ar": "\u0643\u0627\u0631\u0641\u0648\u0631 \u0645\u0627\u0631\u0643\u062a", "brand:wikidata": "Q2689639", "brand:wikipedia": "ar:\u0643\u0627\u0631\u0641\u0648\u0631 \u0645\u0627\u0631\u0643\u062a", "brand:wikipedia:ar": "\u0643\u0627\u0631\u0641\u0648\u0631 \u0645\u0627\u0631\u0643\u062a", "name": "\u0643\u0627\u0631\u0641\u0648\u0631 \u0645\u0627\u0631\u0643\u062a", "name:ar": "\u0643\u0627\u0631\u0641\u0648\u0631 \u0645\u0627\u0631\u0643\u062a", "name:en": "Carrefour Market", "name:fr": "Carrefour Market", "operator": "\u0645\u062c\u0645\u0648\u0639\u0629 \u0643\u0627\u0631\u0641\u0648\u0631", "operator:ar": "\u0645\u062c\u0645\u0648\u0639\u0629 \u0643\u0627\u0631\u0641\u0648\u0631", "operator:wikidata": "Q3117359", "operator:wikipedia": "ar:\u0643\u0627\u0631\u0641\u0648\u0631", "operator:wikipedia:ar": "\u0643\u0627\u0631\u0641\u0648\u0631", "shop": "supermarket"}}, {"type": "node", "id": 6744430623, "lat": 34.7633311, "lon": 10.728616, "tags": {"amenity": "cafe", "name": "O'Chichi", "name:fr": "O'Chichi"}}, {"type": "node", "id": 6744490244, "lat": 34.7633873, "lon": 10.7291331, "tags": {"amenity": "cafe", "name": "Trocadero"}}, {"type": "node", "id": 6744490267, "lat": 34.7731591, "lon": 10.7165656, "tags": {"addr:street": "Route Lafrane Km 5 Imm el Baraka", "amenity": "pharmacy", "dispensing": "yes", "healthcare": "pharmacy", "name": "\u0635\u064a\u062f\u0644\u064a\u0629 \u0625\u064a\u0646\u0627\u0633 \u0627\u0644\u0642\u0633\u0646\u0637\u064a\u0646\u064a", "name:ar": "\u0635\u064a\u062f\u0644\u064a\u0629 \u0625\u064a\u0646\u0627\u0633 \u0627\u0644\u0642\u0633\u0646\u0637\u064a\u0646\u064a", "name:fr": "Pharmacie Ines Kessentini", "opening_hours": "Mo-Fr 08:30-13:00, 15:00-19:30; Sa 08:30-13:00", "phone": "+216 74 619 306"}}, {"type": "node", "id": 6744490269, "lat": 34.7745353, "lon": 10.7150512, "tags": {"amenity": "cafe", "name": "\u0645\u0642\u0647\u0649 \u0623\u0648\u0628\u0631\u0627", "name:ar": "\u0645\u0642\u0647\u0649 \u0623\u0648\u0628\u0631\u0627", "name:fr": "Caf\u00e9 Opera"}}, {"type": "node", "id": 6744490281, "lat": 34.7765848, "lon": 10.7124969, "tags": {"amenity": "cafe", "name": "Caf\u00e9 Sallemi", "name:ar": "\u0645\u0642\u0647\u0649 \u0627\u0644\u0633\u0644\u0627\u0645\u064a", "name:fr": "Caf\u00e9 Sallemi"}}, {"type": "node", "id": 6744490282, "lat": 34.7831591, "lon": 10.7065357, "tags": {"amenity": "cafe", "name": "\u0645\u0642\u0647\u0649 \u062f\u0646\u064a\u0627", "name:ar": "\u0645\u0642\u0647\u0649 \u062f\u0646\u064a\u0627", "name:fr": "Caf\u00e9 Donia"}}, {"type": "node", "id": 6744647072, "lat": 34.7870803, "lon": 10.7032748, "tags": {"amenity": "cafe", "name": "\u0645\u0642\u0647\u0649 \u0627\u0644\u062e\u0645\u0633\u0629", "name:ar": "\u0645\u0642\u0647\u0649 \u0627\u0644\u062e\u0645\u0633\u0629", "name:fr": "Caf\u00e9 El Khomsa"}}, {"type": "node", "id": 6744647073, "lat": 34.7882729, "lon": 10.7017107, "tags": {"amenity": "cafe", "name": "Caf\u00e9 Atlas Plus", "name:fr": "Caf\u00e9 Atlas Plus"}}, {"type": "node", "id": 6744647074, "lat": 34.7892346, "lon": 10.7011405, "tags": {"amenity": "cafe", "name": "\u0645\u0642\u0647\u0649 \u062d\u0633\u0627\u0645", "name:ar": "\u0645\u0642\u0647\u0649 \u062d\u0633\u0627\u0645", "name:fr": "Caf\u00e9 Houssem"}}, {"type": "node", "id": 6744647076, "lat": 34.7920371, "lon": 10.6980315, "tags": {"addr:city": "\u0635\u0641\u0627\u0642\u0633", "addr:city:ar": "\u0635\u0641\u0627\u0642\u0633", "amenity": "cafe", "diet:halal": "yes", "language:ar": "main", "name": "\u0645\u0642\u0647\u0649 \u0633\u062a\u0648\u0631\u0629", "name:ar": "\u0645\u0642\u0647\u0649 \u0633\u062a\u0648\u0631\u0629", "name:fr": "Caf\u00e9 Stoura"}}, {"type": "node", "id": 6744647077, "lat": 34.7932365, "lon": 10.6973154, "tags": {"amenity": "cafe", "name": "\u0645\u0642\u0647\u0649 \u0627\u0644\u0632\u064a\u062a\u0648\u0646\u0629", "name:ar": "\u0645\u0642\u0647\u0649 \u0627\u0644\u0632\u064a\u062a\u0648\u0646\u0629", "name:fr": "Caf\u00e9 Ezzitouna"}}, {"type": "node", "id": 6749753874, "lat": 34.7406203, "lon": 10.5282927, "tags": {"addr:city": "\u0639\u0642\u0627\u0631\u0628", "addr:street": "Avenue Maghreb Arabe Agareb", "amenity": "pharmacy", "dispensing": "yes", "healthcare": "pharmacy", "name": "\u0635\u064a\u062f\u0644\u064a\u0629 \u0627\u0644\u0644\u064a\u0644 \u0623\u0633\u0627\u0645\u0629 \u0643\u0631\u064a\u0634\u0627\u0646", "name:ar": "\u0635\u064a\u062f\u0644\u064a\u0629 \u0627\u0644\u0644\u064a\u0644 \u0623\u0633\u0627\u0645\u0629 \u0643\u0631\u064a\u0634\u0627\u0646", "name:fr": "Pharmacie de Nuit Oussema Krichen", "opening_hours": "Mo-Su 19:30-08:30", "phone": "+216 74 271 674"}}, {"type": "node", "id": 6749781385, "lat": 34.7389511, "lon": 10.528653, "tags": {"addr:city": "\u0639\u0642\u0627\u0631\u0628", "amenity": "cafe", "name": "\u0645\u0642\u0647\u0649 \u0628\u0648\u062f\u064a\u0645", "name:ar": "\u0645\u0642\u0647\u0649 \u0628\u0648\u062f\u064a\u0645", "name:fr": "Caf\u00e9 Podium"}}, {"type": "node", "id": 6752658197, "lat": 34.7409841, "lon": 10.5286951, "tags": {"addr:city": "\u0639\u0642\u0627\u0631\u0628", "amenity": "cafe", "name": "\u0645\u0642\u0647\u0649 \u0628\u0646 \u062d\u0641\u0635\u064a\u0629", "name:ar": "\u0645\u0642\u0647\u0649 \u0628\u0646 \u062d\u0641\u0635\u064a\u0629", "name:fr": "Caf\u00e9 ben hafsia"}}, {"type": "node", "id": 6811423668, "lat": 34.789584, "lon": 10.7795559, "tags": {"addr:postcode": "3011", "amenity": "cafe", "name": "\u0645\u0642\u0647\u0649 \u0627\u0644\u0634\u0628\u0627\u0628", "name:ar": "\u0645\u0642\u0647\u0649 \u0627\u0644\u0634\u0628\u0627\u0628", "name:fr": "Caf\u00e9 La Jeunesse"}}, {"type": "node", "id": 6827258814, "lat": 34.7498354, "lon": 10.7611292, "tags": {"addr:city": "\u0635\u0641\u0627\u0642\u0633", "addr:city:ar": "\u0635\u0641\u0627\u0642\u0633", "addr:postcode": "3002", "addr:street": "Route Tunis Km 1", "amenity": "pharmacy", "dispensing": "yes", "drive_through": "yes", "healthcare": "pharmacy", "name": "\u0635\u064a\u062f\u0644\u064a\u0629 \u0645\u0627\u0644\u0643 \u0627\u0644\u06a4\u0631\u06a4\u0648\u0631\u064a", "name:ar": "\u0635\u064a\u062f\u0644\u064a\u0629 \u0645\u0627\u0644\u0643 \u0627\u0644\u06a4\u0631\u06a4\u0648\u0631\u064a", "name:fr": "Pharmacie Malek Gargouri", "opening_hours": "Mo-Fr 08:30-13:00, 15:00-19:30; Sa 08:30-13:00", "phone": "+216 74 216 661"}}, {"type": "node", "id": 6838911959, "lat": 34.7350165, "lon": 10.7313837, "tags": {"addr:city": "\u0635\u0641\u0627\u0642\u0633", "addr:city:ar": "\u0635\u0641\u0627\u0642\u0633", "addr:street": "Route de l'A\u00e9roport Km 2", "amenity": "pharmacy", "dispensing": "yes", "healthcare": "pharmacy", "name": "\u0635\u064a\u062f\u0644\u064a\u0629 \u0645\u0646\u064a\u0631 \u0627\u0644\u0633\u0644\u0627\u0645\u064a", "name:ar": "\u0635\u064a\u062f\u0644\u064a\u0629 \u0645\u0646\u064a\u0631 \u0627\u0644\u0633\u0644\u0627\u0645\u064a", "name:fr": "Pharmacie Mounir Sallemi", "opening_hours": "Mo-Fr 08:30-13:00, 15:00-19:30; Sa 08:30-13:00", "phone": "+216 74 242 809"}}, {"type": "node", "id": 6871285366, "lat": 34.7855506, "lon": 10.7784469, "tags": {"amenity": "pharmacy", "dispensing": "yes", "healthcare": "pharmacy", "name": "\u0635\u064a\u062f\u0644\u064a\u0629 \u0645\u0631\u0633\u064a \u0627\u0644\u062c\u0645\u0646\u064a", "name:ar": "\u0635\u064a\u062f\u0644\u064a\u0629 \u0645\u0631\u0633\u064a \u0627\u0644\u062c\u0645\u0646\u064a", "name:fr": "Pharmacie Morsi Jemni", "opening_hours": "Mo-Fr 08:30-13:00, 15:00-19:30; Sa 08:30-13:00", "phone": "+216 74 293 818"}}, {"type": "node", "id": 6898611320, "lat": 34.7380707, "lon": 10.7498133}, {"type": "node", "id": 6898611321, "lat": 34.7379542, "lon": 10.749974}, {"type": "node", "id": 6898611322, "lat": 34.7380272, "lon": 10.7500524}, {"type": "node", "id": 6898611323, "lat": 34.7381143, "lon": 10.7500615}, {"type": "node", "id": 6898611324, "lat": 34.73822, "lon": 10.7499735}, {"type": "node", "id": 6898611543, "lat": 34.7393984, "lon": 10.7508482}, {"type": "node", "id": 6898611544, "lat": 34.7393374, "lon": 10.750744}, {"type": "node", "id": 6898611545, "lat": 34.7392239, "lon": 10.7508425}, {"type": "node", "id": 6898611546, "lat": 34.7391432, "lon": 10.7508765}, {"type": "node", "id": 6898611547, "lat": 34.7391475, "lon": 10.7508918}, {"type": "node", "id": 6898611548, "lat": 34.7392644, "lon": 10.7509449}, {"type": "node", "id": 6898611549, "lat": 34.7392862, "lon": 10.750924}, {"type": "node", "id": 6898611550, "lat": 34.7393946, "lon": 10.7509314}, {"type": "node", "id": 6912090325, "lat": 34.7709393, "lon": 10.7524673, "tags": {"amenity": "pharmacy", "dispensing": "yes", "healthcare": "pharmacy", "name": "\u0635\u064a\u062f\u0644\u064a\u0629 \u0627\u0644\u0644\u064a\u0644 \u0646\u062c\u0648\u0649 \u0627\u0644\u0632\u0648\u0627\u0631\u064a", "name:ar": "\u0635\u064a\u062f\u0644\u064a\u0629 \u0627\u0644\u0644\u064a\u0644 \u0646\u062c\u0648\u0649 \u0627\u0644\u0632\u0648\u0627\u0631\u064a", "name:fr": "Pharmacie de Nuit Najwa Zouari", "opening_hours": "Mo-Su 19:30-08:30", "phone": "+216 74 231 611"}}, {"type": "node", "id": 6912090326, "lat": 34.7595716, "lon": 10.7422666, "tags": {"amenity": "pharmacy", "dispensing": "yes", "healthcare": "pharmacy", "name": "\u0635\u064a\u062f\u0644\u064a\u0629 \u0627\u0644\u0644\u064a\u0644 \u0633\u0644\u0645\u0649 \u0627\u0644\u0641\u0642\u064a", "name:ar": "\u0635\u064a\u062f\u0644\u064a\u0629 \u0627\u0644\u0644\u064a\u0644 \u0633\u0644\u0645\u0649 \u0627\u0644\u0641\u0642\u064a", "name:fr": "Pharmacie de Nuit Salma Feki", "opening_hours": "Mo-Su 19:30-08:30"}}, {"type": "node", "id": 6912690116, "lat": 34.750996, "lon": 10.7614048, "tags": {"amenity": "pharmacy", "dispensing": "yes", "healthcare": "pharmacy", "name": "\u0635\u064a\u062f\u0644\u064a\u0629 \u0627\u0644\u0644\u064a\u0644 \u0647\u0627\u062f\u064a\u0629 \u0627\u0644\u0631\u064a\u0627\u062d\u064a \u062d\u0631\u0645 \u0627\u0644\u0645\u0644\u0648\u0644\u064a", "name:ar": "\u0635\u064a\u062f\u0644\u064a\u0629 \u0627\u0644\u0644\u064a\u0644 \u0647\u0627\u062f\u064a\u0629 \u0627\u0644\u0631\u064a\u0627\u062d\u064a \u062d\u0631\u0645 \u0627\u0644\u0645\u0644\u0648\u0644\u064a", "name:fr": "Pharmacie de Nuit Hedia Riahi Ep. Mallouli", "opening_hours": "Mo-Su 19:30-08:30"}}, {"type": "node", "id": 6912690117, "lat": 34.7423619, "lon": 10.753726, "tags": {"addr:housenumber": "5", "addr:street": "Avenue Majida Boulila", "amenity": "pharmacy", "dispensing": "yes", "healthcare": "pharmacy", "name": "\u0635\u064a\u062f\u0644\u064a\u0629 \u0627\u0644\u0644\u064a\u0644 \u0639\u0628\u062f \u0627\u0644\u0631\u0632\u0627\u0642 \u0627\u0644\u062d\u0645\u0627\u0645\u064a", "name:ar": "\u0635\u064a\u062f\u0644\u064a\u0629 \u0627\u0644\u0644\u064a\u0644 \u0639\u0628\u062f \u0627\u0644\u0631\u0632\u0627\u0642 \u0627\u0644\u062d\u0645\u0627\u0645\u064a", "name:fr": "Pharmacie de Nuit Abderrazek Hammami", "opening_hours": "Mo-Su 19:30-08:30", "phone": "+216 74 244 345"}}, {"type": "node", "id": 6912690118, "lat": 34.7378625, "lon": 10.7553742, "tags": {"amenity": "pharmacy", "dispensing": "yes", "healthcare": "pharmacy", "name": "\u0635\u064a\u062f\u0644\u064a\u0629 \u0627\u0644\u0644\u064a\u0644 \u0639\u0628\u062f \u0627\u0644\u0631\u0632\u0627\u0642 \u0627\u0644\u0631\u0642\u064a\u0642", "name:ar": "\u0635\u064a\u062f\u0644\u064a\u0629 \u0627\u0644\u0644\u064a\u0644 \u0639\u0628\u062f \u0627\u0644\u0631\u0632\u0627\u0642 \u0627\u0644\u0631\u0642\u064a\u0642", "name:fr": "Pharmacie de Nuit Abderrazek Rekik", "opening_hours": "Mo-Su 19:30-08:30"}}, {"type": "node", "id": 6912690119, "lat": 34.7181347, "lon": 10.7214113, "tags": {"addr:street": "Cit\u00e9 El Habib", "amenity": "pharmacy", "dispensing": "yes", "healthcare": "pharmacy", "name": "\u0635\u064a\u062f\u0644\u064a\u0629 \u0627\u0644\u0644\u064a\u0644 \u0639\u0627\u062f\u0644 \u0639\u0634\u064a\u0634", "name:ar": "\u0635\u064a\u062f\u0644\u064a\u0629 \u0627\u0644\u0644\u064a\u0644 \u0639\u0627\u062f\u0644 \u0639\u0634\u064a\u0634", "name:fr": "Pharmacie de Nuit Adel Achich", "opening_hours": "Mo-Su 19:30-08:30", "phone": "+216 74 275 684"}}, {"type": "node", "id": 6912690120, "lat": 34.7554955, "lon": 10.7068052, "tags": {"addr:street": "Route de Menzel Chaker Km 4,5", "amenity": "pharmacy", "dispensing": "yes", "healthcare": "pharmacy", "name": "\u0635\u064a\u062f\u0644\u064a\u0629 \u0627\u0644\u0644\u064a\u0644 \u062f\u0631\u0629 \u0627\u0644\u0642\u0644\u0627\u0644 \u062d\u0631\u0645 \u0627\u0644\u0641\u0646\u062f\u0631\u064a", "name:ar": "\u0635\u064a\u062f\u0644\u064a\u0629 \u0627\u0644\u0644\u064a\u0644 \u062f\u0631\u0629 \u0627\u0644\u0642\u0644\u0627\u0644 \u062d\u0631\u0645 \u0627\u0644\u0641\u0646\u062f\u0631\u064a", "name:fr": "Pharmacie de Nuit Dorra Kallel Ep. Fendri", "opening_hours": "Mo-Su 19:30-08:30", "phone": "+216 74 621 353"}}, {"type": "node", "id": 6912690121, "lat": 34.8095321, "lon": 10.6977215, "tags": {"addr:street": "Rte Gremda Km 9.5 El Aouabed", "amenity": "pharmacy", "dispensing": "yes", "healthcare": "pharmacy", "name": "\u0635\u064a\u062f\u0644\u064a\u0629 \u0627\u0644\u0644\u064a\u0644 \u0623\u0645\u064a\u0646 \u0627\u0644\u0645\u0632\u063a\u0646\u064a", "name:ar": "\u0635\u064a\u062f\u0644\u064a\u0629 \u0627\u0644\u0644\u064a\u0644 \u0623\u0645\u064a\u0646 \u0627\u0644\u0645\u0632\u063a\u0646\u064a", "name:fr": "Pharmacie de Nuit Amine Mezghani", "opening_hours": "Mo-Su 19:30-08:30", "phone": "+216 74 669 006"}}, {"type": "node", "id": 6912737785, "lat": 34.9441501, "lon": 10.7450504, "tags": {"addr:city": "\u0627\u0644\u063a\u0631\u0627\u0628\u0629", "addr:city:ar": "\u0627\u0644\u063a\u0631\u0627\u0628\u0629", "addr:postcode": "3043", "addr:street": "Rte Tunis Km 23 El Gharaba", "amenity": "pharmacy", "dispensing": "yes", "healthcare": "pharmacy", "name": "\u0635\u064a\u062f\u0644\u064a\u0629 \u0627\u0644\u0644\u064a\u0644 \u0633\u0645\u064a\u0629 \u0627\u0644\u062f\u0632\u064a\u0631\u064a", "name:ar": "\u0635\u064a\u062f\u0644\u064a\u0629 \u0627\u0644\u0644\u064a\u0644 \u0633\u0645\u064a\u0629 \u0627\u0644\u062f\u0632\u064a\u0631\u064a", "name:fr": "Pharmacie de Nuit Soumaya Dziri", "opening_hours": "Mo-Su 19:30-08:30", "phone": "+216 74 842 288"}}, {"type": "node", "id": 6927694985, "lat": 34.7619974, "lon": 10.7397875, "tags": {"addr:street": "Route de Gremda", "name": "\u0627\u0644 \u0633\u064a \u0648\u0627\u0643\u064a\u0643\u064a", "name:ar": "\u0627\u0644 \u0633\u064a \u0648\u0627\u0643\u064a\u0643\u064a", "name:fr": "LC WAKIKI", "shop": "clothes"}}, {"type": "node", "id": 6942532053, "lat": 34.7310883, "lon": 10.7518122, "tags": {"amenity": "cafe", "name": "\u0645\u0642\u0647\u0649 \u0645\u062d\u0633\u0646", "name:ar": "\u0645\u0642\u0647\u0649 \u0645\u062d\u0633\u0646", "name:fr": "Caf\u00e9 Mohsen"}}, {"type": "node", "id": 6951963512, "lat": 34.7398853, "lon": 10.7575992, "tags": {"addr:city": "\u0635\u0641\u0627\u0642\u0633", "addr:city:ar": "\u0635\u0641\u0627\u0642\u0633", "addr:street": "Immeuble El Borj Ennasria", "amenity": "pharmacy", "dispensing": "yes", "healthcare": "pharmacy", "name": "\u0635\u064a\u062f\u0644\u064a\u0629 \u0631\u0636\u0627 \u0627\u0644\u0637\u0631\u0627\u0628\u0644\u0633\u064a", "name:ar": "\u0635\u064a\u062f\u0644\u064a\u0629 \u0631\u0636\u0627 \u0627\u0644\u0637\u0631\u0627\u0628\u0644\u0633\u064a", "name:fr": "Pharmacie Ridha Trabelsi", "opening_hours": "Mo-Fr 08:30-13:00, 15:00-19:30; Sa 08:30-13:00", "phone": "+216 74 400 602"}}, {"type": "node", "id": 6951963513, "lat": 34.7432527, "lon": 10.7547685, "tags": {"amenity": "pharmacy", "dispensing": "yes", "healthcare": "pharmacy", "name": "\u0635\u064a\u062f\u0644\u064a\u0629 \u062f\u0644\u0646\u062f\u0629 \u0634\u064a\u062e \u0631\u0648\u062d\u0647 \u062d\u0631\u0645 \u0627\u0644\u0642\u0637\u064a", "name:ar": "\u0635\u064a\u062f\u0644\u064a\u0629 \u062f\u0644\u0646\u062f\u0629 \u0634\u064a\u062e \u0631\u0648\u062d\u0647 \u062d\u0631\u0645 \u0627\u0644\u0642\u0637\u064a", "name:fr": "Pharmacie Dalenda Cheikhrouhou Ep. Kotti", "opening_hours": "Mo-Fr 08:30-13:00, 15:00-19:30; Sa 08:30-13:00", "phone": "+216 74 243 570"}}, {"type": "node", "id": 6951963514, "lat": 34.7862499, "lon": 10.720471, "tags": {"addr:city": "\u0635\u0641\u0627\u0642\u0633", "addr:city:ar": "\u0635\u0641\u0627\u0642\u0633", "addr:postcode": "3000", "addr:street": "Route de Gremda Km 6 Merkez Kamoun", "amenity": "pharmacy", "dispensing": "yes", "drive_through": "no", "healthcare": "pharmacy", "name": "\u0635\u064a\u062f\u0644\u064a\u0629 \u0633\u0646\u064a\u0629 \u0627\u0644\u062c\u0631\u0627\u064a\u0629", "name:ar": "\u0635\u064a\u062f\u0644\u064a\u0629 \u0633\u0646\u064a\u0629 \u0627\u0644\u062c\u0631\u0627\u064a\u0629", "name:fr": "Pharmacie Sonia Jarraya", "opening_hours": "Mo-Fr 08:30-13:00, 15:00-19:30; Sa 08:30-13:00", "phone": "+216 74 236 052"}}, {"type": "node", "id": 6951963515, "lat": 34.7716945, "lon": 10.7525323, "tags": {"amenity": "pharmacy", "dispensing": "yes", "healthcare": "pharmacy", "name": "\u0635\u064a\u062f\u0644\u064a\u0629 \u0643\u0645\u0627\u0644 \u0642\u064a\u0631\u0627\u0637", "name:ar": "\u0635\u064a\u062f\u0644\u064a\u0629 \u0643\u0645\u0627\u0644 \u0642\u064a\u0631\u0627\u0637", "name:fr": "Pharmacie Kamel Guirat", "opening_hours": "Mo-Fr 08:30-13:00, 15:00-19:30; Sa 08:30-13:00", "phone": "+216 74 259 973"}}, {"type": "node", "id": 6951963516, "lat": 34.7459473, "lon": 10.742013, "tags": {"addr:city": "\u0635\u0641\u0627\u0642\u0633", "addr:city:ar": "\u0635\u0641\u0627\u0642\u0633", "addr:street": "Route El Ain Km 1.5", "amenity": "pharmacy", "dispensing": "yes", "healthcare": "pharmacy", "name": "\u0635\u064a\u062f\u0644\u064a\u0629 \u0631\u0641\u064a\u0642 \u0628\u0648\u0639\u062a\u0648\u0631", "name:ar": "\u0635\u064a\u062f\u0644\u064a\u0629 \u0631\u0641\u064a\u0642 \u0628\u0648\u0639\u062a\u0648\u0631", "name:fr": "Pharmacie Rafik Bouattour", "opening_hours": "Mo-Fr 08:30-13:00, 15:00-19:30; Sa 08:30-13:00", "phone": "+216 74 464 155"}}, {"type": "node", "id": 6952471074, "lat": 34.7527981, "lon": 10.7614308, "tags": {"addr:city": "\u0635\u0641\u0627\u0642\u0633", "addr:city:ar": "\u0635\u0641\u0627\u0642\u0633", "addr:housename": "\u0628\u0646\u0627\u064a\u0629 \u0633\u0627\u0644\u0645", "addr:housename:ar": "\u0628\u0646\u0627\u064a\u0629 \u0633\u0627\u0644\u0645", "addr:postcode": "3002", "addr:street": "\u0627\u0644\u0637\u0631\u064a\u0642 \u0627\u0644\u0648\u0637\u0646\u064a\u0629 \u062a\u0648\u0646\u0633 - \u0631\u0623\u0633 \u062c\u062f\u064a\u0631", "addr:street:ar": "\u0627\u0644\u0637\u0631\u064a\u0642 \u0627\u0644\u0648\u0637\u0646\u064a\u0629 \u062a\u0648\u0646\u0633 - \u0631\u0623\u0633 \u062c\u062f\u064a\u0631", "amenity": "pharmacy", "dispensing": "yes", "healthcare": "pharmacy", "name": "\u0635\u064a\u062f\u0644\u064a\u0629 \u0639\u0641\u064a\u0641\u0629 \u0627\u0644\u062a\u0631\u064a\u0643\u064a \u062d\u0631\u0645 \u0627\u0644\u0633\u0648\u064a\u0633\u064a", "name:ar": "\u0635\u064a\u062f\u0644\u064a\u0629 \u0639\u0641\u064a\u0641\u0629 \u0627\u0644\u062a\u0631\u064a\u0643\u064a \u062d\u0631\u0645 \u0627\u0644\u0633\u0648\u064a\u0633\u064a", "name:fr": "Pharmacie Afifa Triki Ep. Souissi", "opening_hours": "Mo-Fr 08:30-13:00, 15:00-19:30; Sa 08:30-13:00", "phone": "+216 74 443 240"}}, {"type": "node", "id": 6952532831, "lat": 34.759996, "lon": 10.7418656, "tags": {"addr:city": "\u0635\u0641\u0627\u0642\u0633", "addr:city:ar": "\u0635\u0641\u0627\u0642\u0633", "addr:postcode": "3083", "addr:street": "Route Gremda Km 3", "amenity": "pharmacy", "dispensing": "no", "healthcare": "pharmacy", "name": "\u0635\u064a\u062f\u0644\u064a\u0629 \u0631\u0636\u0627 \u0627\u0644\u0639\u064a\u0627\u062f\u064a", "name:ar": "\u0635\u064a\u062f\u0644\u064a\u0629 \u0631\u0636\u0627 \u0627\u0644\u0639\u064a\u0627\u062f\u064a", "name:fr": "Pharmacie Ridha Ayadi", "opening_hours": "Mo-Fr 08:30-13:00, 15:00-19:30; Sa 08:30-13:00", "phone": "+216 74 261 838"}}, {"type": "node", "id": 6953494908, "lat": 34.790407, "lon": 10.6476772, "tags": {"addr:city": "\u0635\u0641\u0627\u0642\u0633", "addr:city:ar": "\u0635\u0641\u0627\u0642\u0633", "addr:postcode": "3059", "addr:street": "Khazanette Route Menzel Chaker Km 11", "amenity": "pharmacy", "dispensing": "yes", "drive_through": "yes", "healthcare": "pharmacy", "name": "\u0635\u064a\u062f\u0644\u064a\u0629 \u0646\u062c\u064a\u0628 \u0628\u0646 \u062d\u0645\u064a\u062f\u0629", "name:ar": "\u0635\u064a\u062f\u0644\u064a\u0629 \u0646\u062c\u064a\u0628 \u0628\u0646 \u062d\u0645\u064a\u062f\u0629", "name:fr": "Pharmacie Nejib Ben Hmida", "opening_hours": "Mo-Fr 08:30-13:00, 15:00-19:30; Sa 08:30-13:00", "phone": "+216 74 639 108"}}, {"type": "node", "id": 6953494909, "lat": 34.7624773, "lon": 10.7163956, "tags": {"addr:city": "\u0635\u0641\u0627\u0642\u0633", "addr:city:ar": "\u0635\u0641\u0627\u0642\u0633", "addr:postcode": "3082", "addr:street": "Route El Ain Km 4,5", "amenity": "pharmacy", "dispensing": "yes", "healthcare": "pharmacy", "name": "\u0635\u064a\u062f\u0644\u064a\u0629 \u0641\u0648\u0632\u064a \u0627\u0644\u0639\u0645\u0648\u0631\u064a", "name:ar": "\u0635\u064a\u062f\u0644\u064a\u0629 \u0641\u0648\u0632\u064a \u0627\u0644\u0639\u0645\u0648\u0631\u064a", "name:fr": "Pharmacie Faouzi Amouri", "opening_hours": "Mo-Fr 08:30-13:00, 15:00-19:30; Sa 08:30-13:00", "phone": "+216 74 263 678"}}, {"type": "node", "id": 6953494910, "lat": 34.7888569, "lon": 10.7452673, "tags": {"addr:city": "\u0635\u0641\u0627\u0642\u0633", "addr:city:ar": "\u0635\u0641\u0627\u0642\u0633", "addr:postcode": "3041", "addr:street": "Route de Teniour Km 5.5 Chihia", "amenity": "pharmacy", "dispensing": "yes", "healthcare": "pharmacy", "name": "\u0635\u064a\u062f\u0644\u064a\u0629 \u0633\u0644\u064a\u0645\u0629 \u0627\u0644\u062a\u0631\u064a\u0643\u064a \u062d\u0631\u0645 \u0627\u0644\u0634\u0631\u064a\u0641", "name:ar": "\u0635\u064a\u062f\u0644\u064a\u0629 \u0633\u0644\u064a\u0645\u0629 \u0627\u0644\u062a\u0631\u064a\u0643\u064a \u062d\u0631\u0645 \u0627\u0644\u0634\u0631\u064a\u0641", "name:fr": "Pharmacie Salima Triki Ep. Cherif", "opening_hours": "Mo-Fr 08:30-13:00, 15:00-19:30; Sa 08:30-13:00", "phone": "+216 74 255 205"}}, {"type": "node", "id": 6953494911, "lat": 34.7333478, "lon": 10.7070875, "tags": {"addr:city": "\u0635\u0641\u0627\u0642\u0633", "addr:city:ar": "\u0635\u0641\u0627\u0642\u0633", "addr:postcode": "3071", "addr:street": "Route Aeroport Km 4 Imm Abid", "amenity": "pharmacy", "dispensing": "yes", "healthcare": "pharmacy", "name": "\u0635\u064a\u062f\u0644\u064a\u0629 \u0641\u0627\u0637\u0645\u0629 \u0628\u0648\u0631\u064a\u0634\u0629 \u062d\u0631\u0645 \u0627\u0644\u0632\u062d\u0627\u0641", "name:ar": "\u0635\u064a\u062f\u0644\u064a\u0629 \u0641\u0627\u0637\u0645\u0629 \u0628\u0648\u0631\u064a\u0634\u0629 \u062d\u0631\u0645 \u0627\u0644\u0632\u062d\u0627\u0641", "name:fr": "Pharmacie Fatma Bouricha Ep. Zahaf", "opening_hours": "Mo-Fr 08:30-13:00, 15:00-19:30; Sa 08:30-13:00", "phone": "+216 74 279 550"}}, {"type": "node", "id": 6953494912, "lat": 34.6876574, "lon": 10.706836, "tags": {"addr:city": "\u0637\u064a\u0646\u0629", "addr:postcode": "3083", "addr:street": "Rte Gabes Km 7 Thyna", "amenity": "pharmacy", "dispensing": "yes", "healthcare": "pharmacy", "name": "\u0635\u064a\u062f\u0644\u064a\u0629 \u0627\u0644\u0644\u064a\u0644 \u0625\u064a\u0646\u0627\u0633 \u0627\u0644\u0643\u0634\u0648 \u062d\u0631\u0645 \u0627\u0644\u0633\u0645\u0627\u0648\u064a", "name:ar": "\u0635\u064a\u062f\u0644\u064a\u0629 \u0627\u0644\u0644\u064a\u0644 \u0625\u064a\u0646\u0627\u0633 \u0627\u0644\u0643\u0634\u0648 \u062d\u0631\u0645 \u0627\u0644\u0633\u0645\u0627\u0648\u064a", "name:fr": "Pharmacie Ines Kchaou Ep. Smaoui", "opening_hours": "Mo-Su 19:30-08:30", "operator": "\u0625\u064a\u0646\u0627\u0633 \u0627\u0644\u0643\u0634\u0648", "phone": "+216 74 289 241;+216 22 323 606"}}, {"type": "node", "id": 6953709935, "lat": 34.7377034, "lon": 10.7539206, "tags": {"addr:street": "Immeuble Nozha Rue Ahmed Aloulou Sfax Al Jadida", "amenity": "pharmacy", "dispensing": "yes", "healthcare": "pharmacy", "name": "\u0635\u064a\u062f\u0644\u064a\u0629 \u0646\u0628\u064a\u0647\u0629 \u0627\u0644\u0642\u0644\u0635\u064a \u062d\u0631\u0645 \u0628\u0646 \u0644\u0633\u0648\u062f", "name:ar": "\u0635\u064a\u062f\u0644\u064a\u0629 \u0646\u0628\u064a\u0647\u0629 \u0627\u0644\u0642\u0644\u0635\u064a \u062d\u0631\u0645 \u0628\u0646 \u0644\u0633\u0648\u062f", "name:fr": "Pharmacie Nabiha Kolsi Ep. Ben Lassoued", "opening_hours": "Mo-Fr 08:30-13:00, 15:00-19:30; Sa 08:30-13:00", "phone": "+216 74 401 062"}}, {"type": "node", "id": 6959945699, "lat": 34.803402, "lon": 10.7610105, "tags": {"amenity": "pharmacy", "dispensing": "yes", "healthcare": "pharmacy", "name": "\u0635\u064a\u062f\u0644\u064a\u0629 \u0623\u0646\u0648\u0631 \u0627\u0644\u0642\u0644\u0627\u0644", "name:ar": "\u0635\u064a\u062f\u0644\u064a\u0629 \u0623\u0646\u0648\u0631 \u0627\u0644\u0642\u0644\u0627\u0644", "name:fr": "Pharmacie Anouar Kallel", "opening_hours": "Mo-Fr 08:30-13:00, 15:00-19:30; Sa 08:30-13:00", "phone": "+216 74 251 133"}}, {"type": "node", "id": 6960003230, "lat": 34.807892, "lon": 10.7614493, "tags": {"addr:city": "\u0635\u0641\u0627\u0642\u0633", "addr:city:ar": "\u0635\u0641\u0627\u0642\u0633", "addr:postcode": "3021", "addr:street": "Route de Tunis Km 7 Sakiet Ezzit", "amenity": "pharmacy", "dispensing": "yes", "healthcare": "pharmacy", "name": "\u0635\u064a\u062f\u0644\u064a\u0629 \u0634\u0643\u0631\u064a \u0627\u0644\u0639\u0648\u062f", "name:ar": "\u0635\u064a\u062f\u0644\u064a\u0629 \u0634\u0643\u0631\u064a \u0627\u0644\u0639\u0648\u062f", "name:fr": "Pharmacie Chokri El Aoud", "opening_hours": "Mo-Fr 08:30-13:00, 15:00-19:30; Sa 08:30-13:00", "phone": "+216 74 253 900"}}, {"type": "node", "id": 6960056761, "lat": 34.7393407, "lon": 10.7503106, "tags": {"addr:street": "Rte Mensel Chaker Km 1", "amenity": "pharmacy", "dispensing": "yes", "healthcare": "pharmacy", "name": "\u0635\u064a\u062f\u0644\u064a\u0629 \u0641\u0648\u0632\u064a \u0627\u0644\u0634\u0639\u0631\u064a", "name:ar": "\u0635\u064a\u062f\u0644\u064a\u0629 \u0641\u0648\u0632\u064a \u0627\u0644\u0634\u0639\u0631\u064a", "name:fr": "Pharmacie Faouzi Chaari", "opening_hours": "Mo-Fr 08:30-13:00, 15:00-19:30; Sa 08:30-13:00", "phone": "+216 74 452 507"}}, {"type": "node", "id": 6960056762, "lat": 34.7657745, "lon": 10.7103241, "tags": {"addr:street": "Rte El Ain Km 6", "amenity": "pharmacy", "dispensing": "yes", "healthcare": "pharmacy", "name": "\u0635\u064a\u062f\u0644\u064a\u0629 \u0645\u062d\u0645\u062f \u062f\u0645\u0642", "name:ar": "\u0635\u064a\u062f\u0644\u064a\u0629 \u0645\u062d\u0645\u062f \u062f\u0645\u0642", "name:fr": "Pharmacie Mohamed Dammak", "opening_hours": "Mo-Fr 08:30-13:00, 15:00-19:30; Sa 08:30-13:00", "phone": "+216 74 650 928"}}, {"type": "node", "id": 6960081468, "lat": 34.7822242, "lon": 10.7602242, "tags": {"addr:street": "Route de Tunis Km 4.5", "amenity": "pharmacy", "healthcare": "pharmacy", "name": "\u0635\u064a\u062f\u0644\u064a\u0629 \u0639\u0627\u0626\u062f\u0629 \u0627\u0644\u062d\u0643\u0645\u0648\u0646\u064a \u062d\u0631\u0645 \u0627\u0644\u0642\u0644\u0627\u0644", "name:ar": "\u0635\u064a\u062f\u0644\u064a\u0629 \u0639\u0627\u0626\u062f\u0629 \u0627\u0644\u062d\u0643\u0645\u0648\u0646\u064a \u062d\u0631\u0645 \u0627\u0644\u0642\u0644\u0627\u0644", "name:fr": "Pharmacie Aida Hakmouni Ep. Kallel", "opening_hours": "Mo-Fr 08:30-13:00, 15:00-19:30; Sa 08:30-13:00", "phone": "+216 74 253 002;+216 98 817 020"}}, {"type": "node", "id": 6960144518, "lat": 34.7577921, "lon": 10.7437848, "tags": {"addr:street": "Route Gremda Km 2.5", "amenity": "pharmacy", "healthcare": "pharmacy", "name": "\u0635\u064a\u062f\u0644\u064a\u0629 \u0627\u0644\u0646\u0648\u0631\u064a \u0627\u0644\u0644\u0648\u0632", "name:ar": "\u0635\u064a\u062f\u0644\u064a\u0629 \u0627\u0644\u0646\u0648\u0631\u064a \u0627\u0644\u0644\u0648\u0632", "name:fr": "Pharmacie Ennouri Ellouze", "opening_hours": "Mo-Fr 08:30-13:00, 15:00-19:30; Sa 08:30-13:00", "phone": "+216 74 614 014"}}, {"type": "node", "id": 6960169022, "lat": 34.7452019, "lon": 10.7441282, "tags": {"addr:city": "\u0635\u0641\u0627\u0642\u0633", "addr:city:ar": "\u0635\u0641\u0627\u0642\u0633", "addr:street": "\u0637\u0631\u064a\u0642 \u0627\u0644\u0639\u064a\u0646", "amenity": "pharmacy", "healthcare": "pharmacy", "name": "\u0635\u064a\u062f\u0644\u064a\u0629 \u0632\u0647\u0631\u0629 \u0628\u0648\u062f\u0628\u0648\u0633 \u062d\u0631\u0645 \u0627\u0644\u062c\u0631\u0627\u064a\u0629", "name:ar": "\u0635\u064a\u062f\u0644\u064a\u0629 \u0632\u0647\u0631\u0629 \u0628\u0648\u062f\u0628\u0648\u0633 \u062d\u0631\u0645 \u0627\u0644\u062c\u0631\u0627\u064a\u0629", "name:fr": "Pharmacie Zohra Boudabbous Ep. Jarraya", "opening_hours": "Mo-Fr 08:30-13:00, 15:00-19:30; Sa 08:30-13:00", "phone": "+216 74 460 805"}}, {"type": "node", "id": 6960222439, "lat": 34.7380385, "lon": 10.7552449, "tags": {"addr:city": "\u0635\u0641\u0627\u0642\u0633", "addr:city:ar": "\u0635\u0641\u0627\u0642\u0633", "addr:housenumber": "32", "addr:street": "Avenue 14 Janvier El Arwika", "amenity": "pharmacy", "dispensing": "yes", "healthcare": "pharmacy", "name": "\u0635\u064a\u062f\u0644\u064a\u0629 \u0646\u062c\u064a\u0628 \u0627\u0644\u062c\u0631\u0627\u064a\u0629", "name:ar": "\u0635\u064a\u062f\u0644\u064a\u0629 \u0646\u062c\u064a\u0628 \u0627\u0644\u062c\u0631\u0627\u064a\u0629", "name:fr": "Pharmacie Najib Jarraya", "opening_hours": "Mo-Fr 08:30-13:00, 15:00-19:30; Sa 08:30-13:00", "phone": "+216 74 401 349"}}, {"type": "node", "id": 6960228499, "lat": 34.7643222, "lon": 10.7622194, "tags": {"addr:city": "\u0635\u0641\u0627\u0642\u0633", "addr:city:ar": "\u0635\u0641\u0627\u0642\u0633", "addr:street": "Route de Tunis Km 2,5 Dar Ettabib", "amenity": "pharmacy", "dispensing": "yes", "healthcare": "pharmacy", "name": "\u0635\u064a\u062f\u0644\u064a\u0629 \u0645\u0646\u064a\u0631 \u0628\u0648\u0639\u062a\u0648\u0631", "name:ar": "\u0635\u064a\u062f\u0644\u064a\u0629 \u0645\u0646\u064a\u0631 \u0628\u0648\u0639\u062a\u0648\u0631", "name:fr": "Pharmacie Mounir Bouattour", "opening_hours": "Mo-Fr 08:30-13:00, 15:00-19:30; Sa 08:30-13:00", "phone": "+216 74 695 780"}}, {"type": "node", "id": 6960731140, "lat": 34.7568117, "lon": 10.7031111, "tags": {"amenity": "pharmacy", "dispensing": "yes", "healthcare": "pharmacy", "opening_hours": "Mo-Fr 08:30-13:00, 15:00-19:30; Sa 08:30-13:00"}}, {"type": "node", "id": 6960731141, "lat": 34.7598849, "lon": 10.69695, "tags": {"addr:city": "\u0635\u0641\u0627\u0642\u0633", "addr:city:ar": "\u0635\u0641\u0627\u0642\u0633", "addr:street": "Route Menzel Chaker Km 5.5 Markez Ben Hmida", "amenity": "pharmacy", "dispensing": "yes", "healthcare": "pharmacy", "name": "\u0635\u064a\u062f\u0644\u064a\u0629 \u0625\u064a\u0645\u0627\u0646 \u0645\u0644\u0627\u0643 \u062d\u0631\u0645 \u0627\u0644\u0639\u0634", "name:ar": "\u0635\u064a\u062f\u0644\u064a\u0629 \u0625\u064a\u0645\u0627\u0646 \u0645\u0644\u0627\u0643 \u062d\u0631\u0645 \u0627\u0644\u0639\u0634", "name:fr": "Pharmacie Imen Mallek Ep. Elleuch", "opening_hours": "Mo-Fr 08:30-13:00, 15:00-19:30; Sa 08:30-13:00", "phone": "+216 74 632 412"}}, {"type": "node", "id": 6960731142, "lat": 34.7545114, "lon": 10.7086813, "tags": {"addr:street": "Route Menzel Chaker Km 4.5", "amenity": "pharmacy", "dispensing": "yes", "healthcare": "pharmacy", "name": "\u0635\u064a\u062f\u0644\u064a\u0629 \u0644\u064a\u0644\u0649 \u0627\u0644\u0645\u062c\u062f\u0648\u0628 \u062d\u0631\u0645 \u0627\u0644\u0641\u0646\u062f\u0631\u064a", "name:ar": "\u0635\u064a\u062f\u0644\u064a\u0629 \u0644\u064a\u0644\u0649 \u0627\u0644\u0645\u062c\u062f\u0648\u0628 \u062d\u0631\u0645 \u0627\u0644\u0641\u0646\u062f\u0631\u064a", "name:fr": "Pharmacie Leila Majdoub Ep. Fendri", "opening_hours": "Mo-Fr 08:30-13:00, 15:00-19:30; Sa 08:30-13:00", "phone": "+216 74 624 349"}}, {"type": "node", "id": 6960741593, "lat": 34.7504079, "lon": 10.7056394, "tags": {"addr:city": "\u0635\u0641\u0627\u0642\u0633", "addr:city:ar": "\u0635\u0641\u0627\u0642\u0633", "addr:street": "Route Menzel Chaker Km 4.5", "amenity": "pharmacy", "dispensing": "yes", "healthcare": "pharmacy", "name": "\u0635\u064a\u062f\u0644\u064a\u0629 \u0639\u0645\u0627\u062f \u0643\u0645\u0648\u0646", "name:ar": "\u0635\u064a\u062f\u0644\u064a\u0629 \u0639\u0645\u0627\u062f \u0643\u0645\u0648\u0646", "name:fr": "Pharmacie Imed Kammoun", "opening_hours": "Mo-Fr 08:30-13:00, 15:00-19:30; Sa 08:30-13:00", "phone": "+216 74 625 125"}}, {"type": "node", "id": 6961371759, "lat": 34.7444087, "lon": 10.7522161, "tags": {"addr:city": "\u0635\u0641\u0627\u0642\u0633", "addr:city:ar": "\u0635\u0641\u0627\u0642\u0633", "addr:street": "Route Lafrane km 0,5", "amenity": "pharmacy", "dispensing": "yes", "healthcare": "pharmacy", "name": "\u0635\u064a\u062f\u0644\u064a\u0629 \u0631\u0624\u0648\u0641 \u0639\u0628\u064a\u062f", "name:ar": "\u0635\u064a\u062f\u0644\u064a\u0629 \u0631\u0624\u0648\u0641 \u0639\u0628\u064a\u062f", "name:fr": "Pharmacie Raouf Abid", "opening_hours": "Mo-Fr 08:30-13:00, 15:00-19:30; Sa 08:30-13:00", "phone": "+216 74 241 390"}}, {"type": "node", "id": 6963368076, "lat": 34.6699658, "lon": 10.694965, "tags": {"amenity": "pharmacy", "dispensing": "yes", "healthcare": "pharmacy", "name": "\u0635\u064a\u062f\u0644\u064a\u0629 \u0637\u064a\u0646\u0629", "name:ar": "\u0635\u064a\u062f\u0644\u064a\u0629 \u0637\u064a\u0646\u0629", "name:fr": "Pharmacie Thyna", "opening_hours": "Mo-Fr 08:30-13:00, 15:00-19:30; Sa 08:30-13:00"}}, {"type": "node", "id": 6964137060, "lat": 34.6852024, "lon": 10.7048046, "tags": {"amenity": "pharmacy", "dispensing": "yes", "healthcare": "pharmacy", "name": "\u0635\u064a\u062f\u0644\u064a\u0629 \u0627\u0644\u0644\u064a\u0644", "name:ar": "\u0635\u064a\u062f\u0644\u064a\u0629 \u0627\u0644\u0644\u064a\u0644", "name:fr": "Pharmacie de Nuit", "opening_hours": "Mo-Su 19:30-08:30"}}, {"type": "node", "id": 6964149210, "lat": 34.6749483, "lon": 10.6922803, "tags": {"addr:city": "\u0635\u0641\u0627\u0642\u0633", "addr:city:ar": "\u0635\u0641\u0627\u0642\u0633", "addr:postcode": "3084", "addr:street": "Route de Gabes Km 9 Thyna", "amenity": "pharmacy", "dispensing": "yes", "healthcare": "pharmacy", "name": "\u0635\u064a\u062f\u0644\u064a\u0629 \u0633\u0627\u0631\u0629 \u0627\u0644\u0628\u0642\u0644\u0648\u0637\u064a \u062d\u0631\u0645 \u0639\u0634\u064a\u0634", "name:ar": "\u0635\u064a\u062f\u0644\u064a\u0629 \u0633\u0627\u0631\u0629 \u0627\u0644\u0628\u0642\u0644\u0648\u0637\u064a \u062d\u0631\u0645 \u0639\u0634\u064a\u0634", "name:fr": "Pharmacie Sarra Baklouti Ep. Achich", "opening_hours": "Mo-Fr 08:30-13:00, 15:00-19:30; Sa 08:30-13:00", "phone": "+216 74 289 886"}}, {"type": "node", "id": 6964149232, "lat": 34.6857901, "lon": 10.7049442, "tags": {"addr:city": "\u0635\u0641\u0627\u0642\u0633", "addr:city:ar": "\u0635\u0641\u0627\u0642\u0633", "addr:postcode": "3083", "addr:street": "Rte Gab\u00e8s Km 7 Face Cit\u00e9 Moez", "amenity": "pharmacy", "dispensing": "yes", "drive_through": "yes", "healthcare": "pharmacy", "name": "\u0635\u064a\u062f\u0644\u064a\u0629 \u0641\u062f\u0648\u0649 \u0627\u0644\u0637\u0631\u0627\u0628\u0644\u0633\u064a", "name:ar": "\u0635\u064a\u062f\u0644\u064a\u0629 \u0641\u062f\u0648\u0649 \u0627\u0644\u0637\u0631\u0627\u0628\u0644\u0633\u064a", "name:fr": "Pharmacie Fadoua Trabelsi", "opening_hours": "Mo-Fr 08:30-13:00, 15:00-19:30; Sa 08:30-13:00", "operator": "\u0641\u062f\u0648\u0649 \u0627\u0644\u0637\u0631\u0627\u0628\u0644\u0633\u064a", "phone": "+216 74 688 088"}}, {"type": "node", "id": 6964723116, "lat": 34.7829824, "lon": 10.722414, "tags": {"amenity": "pharmacy", "dispensing": "yes", "healthcare": "pharmacy", "opening_hours": "Mo-Fr 08:30-13:00, 15:00-19:30; Sa 08:30-13:00"}}, {"type": "node", "id": 6964768113, "lat": 34.791263, "lon": 10.7169311, "tags": {"amenity": "pharmacy", "dispensing": "yes", "healthcare": "pharmacy", "name": "\u0635\u064a\u062f\u0644\u064a\u0629 \u0646\u062c\u0648\u0649 \u0627\u0644\u0632\u063a\u0644 \u062d\u0631\u0645 \u0628\u0646 \u0639\u064a\u0627\u062f", "name:ar": "\u0635\u064a\u062f\u0644\u064a\u0629 \u0646\u062c\u0648\u0649 \u0627\u0644\u0632\u063a\u0644 \u062d\u0631\u0645 \u0628\u0646 \u0639\u064a\u0627\u062f", "name:fr": "Pharmacie Najoua Zghal Ep. Ben Ayed", "opening_hours": "Mo-Fr 08:30-13:00, 15:00-19:30; Sa 08:30-13:00", "phone": "+216 74 219 055"}}, {"type": "node", "id": 6966151176, "lat": 34.7543449, "lon": 10.7639437, "tags": {"addr:city": "\u0635\u0641\u0627\u0642\u0633", "addr:city:ar": "\u0635\u0641\u0627\u0642\u0633", "addr:housenumber": "11", "addr:postcode": "3002", "addr:street": "\u0634\u0627\u0631\u0639 \u0627\u0644\u0628\u0633\u062a\u0627\u0646", "addr:street:ar": "\u0634\u0627\u0631\u0639 \u0627\u0644\u0628\u0633\u062a\u0627\u0646", "addr:street:fr": "Avenue El Boust\u00e8ne", "amenity": "pharmacy", "dispensing": "yes", "healthcare": "pharmacy", "name": "\u0635\u064a\u062f\u0644\u064a\u0629 \u062e\u0644\u064a\u0641\u0629 \u0627\u0644\u0628\u0631\u0627\u062f\u0639\u064a", "name:ar": "\u0635\u064a\u062f\u0644\u064a\u0629 \u062e\u0644\u064a\u0641\u0629 \u0627\u0644\u0628\u0631\u0627\u062f\u0639\u064a", "name:fr": "Pharmacie Khalifa Bradai", "opening_hours": "Mo-Fr 08:30-13:00, 15:00-19:30; Sa 08:30-13:00", "phone": "+216 74 234 223"}}, {"type": "node", "id": 6966151177, "lat": 34.7748798, "lon": 10.7609374, "tags": {"addr:city": "\u0635\u0641\u0627\u0642\u0633", "addr:city:ar": "\u0635\u0641\u0627\u0642\u0633", "addr:postcode": "3021", "addr:street": "Merkez Bouassida Route de Tunis", "amenity": "pharmacy", "dispensing": "yes", "healthcare": "pharmacy", "name": "\u0635\u064a\u062f\u0644\u064a\u0629 \u062d\u0645\u0627\u062f\u064a \u0645\u0632\u064a\u062f", "name:ar": "\u0635\u064a\u062f\u0644\u064a\u0629 \u062d\u0645\u0627\u062f\u064a \u0645\u0632\u064a\u062f", "name:fr": "Pharmacie Hammadi Mzid", "opening_hours": "Mo-Fr 08:30-13:00, 15:00-19:30; Sa 08:30-13:00", "phone": "+216 74 230 415;+216 98 418 076"}}, {"type": "node", "id": 6966399407, "lat": 34.7852099, "lon": 10.7600844, "tags": {"amenity": "pharmacy", "dispensing": "yes", "healthcare": "pharmacy", "name": "\u0635\u064a\u062f\u0644\u064a\u0629 \u0633\u0646\u0627\u0621 \u0627\u0644\u0639\u064a\u0627\u062f\u064a \u062d\u0631\u0645 \u062d\u0645\u0632\u0629", "name:ar": "\u0635\u064a\u062f\u0644\u064a\u0629 \u0633\u0646\u0627\u0621 \u0627\u0644\u0639\u064a\u0627\u062f\u064a \u062d\u0631\u0645 \u062d\u0645\u0632\u0629", "name:fr": "Pharmacie Sana Ayadi Ep. Hamza", "opening_hours": "Mo-Fr 08:30-13:00, 15:00-19:30; Sa 08:30-13:00", "phone": "+216 74 802 370"}}, {"type": "node", "id": 6966739829, "lat": 34.8190544, "lon": 10.7621588, "tags": {"addr:city": "\u0635\u0641\u0627\u0642\u0633", "addr:city:ar": "\u0635\u0641\u0627\u0642\u0633", "addr:postcode": "3021", "addr:street": "Route Tunis Km 8,5 Markez Essedra", "amenity": "pharmacy", "dispensing": "yes", "healthcare": "pharmacy", "name": "\u0635\u064a\u062f\u0644\u064a\u0629 \u0627\u0644\u0637\u064a\u0628 \u0627\u0644\u062a\u0631\u064a\u0643\u064a", "name:ar": "\u0635\u064a\u062f\u0644\u064a\u0629 \u0627\u0644\u0637\u064a\u0628 \u0627\u0644\u062a\u0631\u064a\u0643\u064a", "name:fr": "Pharmacie Taieb Triki", "opening_hours": "Mo-Fr 08:30-13:00, 15:00-19:30; Sa 08:30-13:00", "phone": "+216 74 860 360;+216 23 410 209"}}, {"type": "node", "id": 6966742912, "lat": 34.7994585, "lon": 10.7576939, "tags": {"addr:city": "\u0635\u0641\u0627\u0642\u0633", "addr:city:ar": "\u0635\u0641\u0627\u0642\u0633", "addr:postcode": "3021", "addr:street": "Avenue Mongi Slim Route Tunis Km 6.5", "amenity": "pharmacy", "dispensing": "yes", "healthcare": "pharmacy", "name": "\u0635\u064a\u062f\u0644\u064a\u0629 \u0643\u0645\u0627\u0644 \u0627\u0644\u0645\u0647\u064a\u0631\u064a", "name:ar": "\u0635\u064a\u062f\u0644\u064a\u0629 \u0643\u0645\u0627\u0644 \u0627\u0644\u0645\u0647\u064a\u0631\u064a", "name:fr": "Pharmacie Kamel Mhiri", "opening_hours": "Mo-Fr 08:30-13:00, 15:00-19:30; Sa 08:30-13:00", "phone": "+216 74 251 914"}}, {"type": "node", "id": 6966742913, "lat": 34.8146109, "lon": 10.7618321, "tags": {"addr:city": "\u0635\u0641\u0627\u0642\u0633", "addr:city:ar": "\u0635\u0641\u0627\u0642\u0633", "addr:housenumber": "270", "addr:postcode": "3021", "addr:street": "Avenue Mohamed el Khames Sakiet Ezzit", "amenity": "pharmacy", "dispensing": "yes", "healthcare": "pharmacy", "name": "\u0635\u064a\u062f\u0644\u064a\u0629 \u0633\u0645\u064a\u0631 \u0627\u0644\u0642\u0637\u064a", "name:ar": "\u0635\u064a\u062f\u0644\u064a\u0629 \u0633\u0645\u064a\u0631 \u0627\u0644\u0642\u0637\u064a", "name:fr": "Pharmacie Samir Kotti", "opening_hours": "Mo-Fr 08:30-13:00, 15:00-19:30; Sa 08:30-13:00", "phone": "+216 74 251 330;+216 98 411 343"}}, {"type": "node", "id": 6966809462, "lat": 34.825796, "lon": 10.76385, "tags": {"addr:city": "\u0635\u0641\u0627\u0642\u0633", "addr:city:ar": "\u0635\u0641\u0627\u0642\u0633", "addr:postcode": "3021", "addr:street": "Route de Tunis Km 9", "amenity": "pharmacy", "dispensing": "yes", "healthcare": "pharmacy", "name": "\u0635\u064a\u062f\u0644\u064a\u0629 \u0627\u0644\u0623\u0646\u0633 \u0639\u0641\u0627\u0641 \u0627\u0644\u0643\u0634\u0648", "name:ar": "\u0635\u064a\u062f\u0644\u064a\u0629 \u0627\u0644\u0623\u0646\u0633 \u0639\u0641\u0627\u0641 \u0627\u0644\u0643\u0634\u0648", "name:fr": "Pharmacie El Ons Afef Kchaou", "opening_hours": "Mo-Fr 08:30-13:00, 15:00-19:30; Sa 08:30-13:00", "phone": "+216 74 861 243"}}, {"type": "node", "id": 6966809463, "lat": 34.7486354, "lon": 10.7588976, "tags": {"addr:city": "\u0635\u0641\u0627\u0642\u0633", "addr:city:ar": "\u0635\u0641\u0627\u0642\u0633", "addr:postcode": "3002", "addr:street": "Route de Teniour Km 0,5", "amenity": "pharmacy", "dispensing": "yes", "healthcare": "pharmacy", "name": "\u0635\u064a\u062f\u0644\u064a\u0629 \u0623\u0645\u0627\u0644 \u0627\u0644\u0632\u062d\u0627\u0641 \u062d\u0631\u0645 \u0627\u0644\u0641\u0646\u062f\u0631\u064a", "name:ar": "\u0635\u064a\u062f\u0644\u064a\u0629 \u0623\u0645\u0627\u0644 \u0627\u0644\u0632\u062d\u0627\u0641 \u062d\u0631\u0645 \u0627\u0644\u0641\u0646\u062f\u0631\u064a", "name:fr": "Pharmacie Amel Zahaf Ep. Fendri", "opening_hours": "Mo-Fr 08:30-13:00, 15:00-19:30; Sa 08:30-13:00", "phone": "+216 74 445 005"}}, {"type": "node", "id": 6966809464, "lat": 34.7773687, "lon": 10.7493451, "tags": {"addr:city": "\u0635\u0641\u0627\u0642\u0633", "addr:city:ar": "\u0635\u0641\u0627\u0642\u0633", "addr:street": "Route Teniour Km 5 Chihia", "amenity": "pharmacy", "dispensing": "yes", "healthcare": "pharmacy", "name": "\u0635\u064a\u062f\u0644\u064a\u0629 \u062d\u0633\u0627\u0646 \u0627\u0644\u0645\u0638\u0641\u0631", "name:ar": "\u0635\u064a\u062f\u0644\u064a\u0629 \u062d\u0633\u0627\u0646 \u0627\u0644\u0645\u0638\u0641\u0631", "name:fr": "Pharmacie Hassen Mdhaffar", "opening_hours": "Mo-Fr 08:30-13:00, 15:00-19:30; Sa 08:30-13:00", "phone": "+216 74 281 440"}}, {"type": "node", "id": 6966809473, "lat": 34.7850445, "lon": 10.7460167, "tags": {"addr:city": "\u0635\u0641\u0627\u0642\u0633", "addr:city:ar": "\u0635\u0641\u0627\u0642\u0633", "addr:postcode": "3041", "addr:street": "Route Teniour Km 5.5 Markez Gdoura", "amenity": "pharmacy", "dispensing": "yes", "healthcare": "pharmacy", "name": "\u0635\u064a\u062f\u0644\u064a\u0629 \u0631\u0634\u064a\u062f\u0629 \u0628\u0646 \u064a\u0648\u0633\u0641 \u062d\u0631\u0645 \u0639\u062c\u0631\u0648\u062f", "name:ar": "\u0635\u064a\u062f\u0644\u064a\u0629 \u0631\u0634\u064a\u062f\u0629 \u0628\u0646 \u064a\u0648\u0633\u0641 \u062d\u0631\u0645 \u0639\u062c\u0631\u0648\u062f", "name:fr": "Pharmacie Rachida Ben Youssef Ajroud", "opening_hours": "Mo-Fr 08:30-13:00, 15:00-19:30; Sa 08:30-13:00", "phone": "+216 74 251 037"}}, {"type": "node", "id": 6970992208, "lat": 34.7935687, "lon": 10.7432281, "tags": {"addr:city": "\u0635\u0641\u0627\u0642\u0633", "addr:city:ar": "\u0635\u0641\u0627\u0642\u0633", "addr:postcode": "3041", "addr:street": "Avenue de l'Environnement Chihia", "amenity": "pharmacy", "dispensing": "yes", "healthcare": "pharmacy", "name": "\u0635\u064a\u062f\u0644\u064a\u0629 \u0627\u0644\u0634\u064a\u062d\u064a\u0629 \u0644\u0628\u0646\u0649 \u0645\u0631\u0648\u0627\u0646 \u062d\u0631\u0645 \u0627\u0644\u0644\u0648\u0627\u062a\u064a", "name:ar": "\u0635\u064a\u062f\u0644\u064a\u0629 \u0627\u0644\u0634\u064a\u062d\u064a\u0629 \u0644\u0628\u0646\u0649 \u0645\u0631\u0648\u0627\u0646 \u062d\u0631\u0645 \u0627\u0644\u0644\u0648\u0627\u062a\u064a", "name:fr": "Pharmacie Chihia Lobna Marouan Ep. Louati", "opening_hours": "Mo-Fr 08:30-13:00, 15:00-19:30; Sa 08:30-13:00", "phone": "+216 74 848 884"}}, {"type": "node", "id": 6971041572, "lat": 34.7966028, "lon": 10.7422723, "tags": {"amenity": "pharmacy", "dispensing": "yes", "healthcare": "pharmacy", "opening_hours": "Mo-Fr 08:30-13:00, 15:00-19:30; Sa 08:30-13:00"}}, {"type": "node", "id": 6971041573, "lat": 34.7998954, "lon": 10.7416438, "tags": {"addr:street": "Route Teniour Km 7.5", "amenity": "pharmacy", "dispensing": "yes", "healthcare": "pharmacy", "name": "\u0635\u064a\u062f\u0644\u064a\u0629 \u0648\u0627\u0635\u0641 \u0639\u0628\u062f \u0627\u0644\u0643\u0627\u0641\u064a", "name:ar": "\u0635\u064a\u062f\u0644\u064a\u0629 \u0648\u0627\u0635\u0641 \u0639\u0628\u062f \u0627\u0644\u0643\u0627\u0641\u064a", "name:fr": "Pharmacie Wassef Abdelkefi", "opening_hours": "Mo-Fr 08:30-13:00, 15:00-19:30; Sa 08:30-13:00", "phone": "+216 74 847 757"}}, {"type": "node", "id": 6971041574, "lat": 34.8030207, "lon": 10.7404774, "tags": {"amenity": "pharmacy", "dispensing": "yes", "healthcare": "pharmacy", "name": "\u0635\u064a\u062f\u0644\u064a\u0629 \u0639\u0645\u0627\u0631", "name:ar": "\u0635\u064a\u062f\u0644\u064a\u0629 \u0639\u0645\u0627\u0631", "name:fr": "Pharmacie Ammar", "opening_hours": "Mo-Fr 08:30-13:00, 15:00-19:30; Sa 08:30-13:00"}}, {"type": "node", "id": 6971095986, "lat": 34.7555201, "lon": 10.7452494, "tags": {"amenity": "pharmacy", "dispensing": "yes", "healthcare": "pharmacy", "opening_hours": "Mo-Fr 08:30-13:00, 15:00-19:30; Sa 08:30-13:00"}}, {"type": "node", "id": 6971095987, "lat": 34.7933716, "lon": 10.7150224, "tags": {"addr:street": "Route Gremda Km 7 Markez Sahnoun", "amenity": "pharmacy", "dispensing": "yes", "healthcare": "pharmacy", "name": "\u0635\u064a\u062f\u0644\u064a\u0629 \u0645\u0631\u0643\u0632 \u0633\u062d\u0646\u0648\u0646 \u0645\u062d\u0645\u062f \u0627\u0644\u0641\u0631\u0627\u062a\u064a", "name:ar": "\u0635\u064a\u062f\u0644\u064a\u0629 \u0645\u0631\u0643\u0632 \u0633\u062d\u0646\u0648\u0646 \u0645\u062d\u0645\u062f \u0627\u0644\u0641\u0631\u0627\u062a\u064a", "name:fr": "Pharmacie Markez Sahnoun Mohamed Fourati", "opening_hours": "Mo-Fr 08:30-13:00, 15:00-19:30; Sa 08:30-13:00", "phone": "+216 74 268 455"}}, {"type": "node", "id": 6971095988, "lat": 34.7956909, "lon": 10.7137201, "tags": {"addr:street": "Route Gremda Km 7,5 Merkez Sahnoun", "amenity": "pharmacy", "dispensing": "yes", "healthcare": "pharmacy", "name": "\u0635\u064a\u062f\u0644\u064a\u0629 \u0633\u0645\u064a\u0631\u0629 \u0627\u0644\u0642\u0631\u0642\u0648\u0631\u064a \u062d\u0631\u0645 \u0627\u0644\u0646\u064a\u0641\u0631", "name:ar": "\u0635\u064a\u062f\u0644\u064a\u0629 \u0633\u0645\u064a\u0631\u0629 \u0627\u0644\u0642\u0631\u0642\u0648\u0631\u064a \u062d\u0631\u0645 \u0627\u0644\u0646\u064a\u0641\u0631", "name:fr": "Pharmacie Samira Gargouri Ep. Neifar", "opening_hours": "Mo-Fr 08:30-13:00, 15:00-19:30; Sa 08:30-13:00", "phone": "+216 74 659 450"}}, {"type": "node", "id": 6971379491, "lat": 34.7678681, "lon": 10.7218808, "tags": {"amenity": "pharmacy", "dispensing": "yes", "healthcare": "pharmacy", "opening_hours": "Mo-Fr 08:30-13:00, 15:00-19:30; Sa 08:30-13:00"}}, {"type": "node", "id": 6973093271, "lat": 34.7580522, "lon": 10.7332432, "tags": {"addr:city": "\u0635\u0641\u0627\u0642\u0633", "addr:city:ar": "\u0635\u0641\u0627\u0642\u0633", "addr:postcode": "3062", "addr:street": "Route de Lafrane Km 3 Polyclinique Errachid", "amenity": "pharmacy", "dispensing": "yes", "healthcare": "pharmacy", "name": "\u0635\u064a\u062f\u0644\u064a\u0629 \u0646\u062c\u064a\u0628\u0629 \u0639\u0645\u0627\u0631 \u062d\u0631\u0645 \u0627\u0644\u0644\u0648\u0632", "name:ar": "\u0635\u064a\u062f\u0644\u064a\u0629 \u0646\u062c\u064a\u0628\u0629 \u0639\u0645\u0627\u0631 \u062d\u0631\u0645 \u0627\u0644\u0644\u0648\u0632", "name:fr": "Pharmacie Nejiba Ammar Ep. Ellouze", "opening_hours": "Mo-Fr 08:30-13:00, 15:00-19:30; Sa 08:30-13:00", "phone": "+216 74 613 333"}}, {"type": "node", "id": 6973093272, "lat": 34.7473404, "lon": 10.7474346, "tags": {"addr:city": "\u0635\u0641\u0627\u0642\u0633", "addr:city:ar": "\u0635\u0641\u0627\u0642\u0633", "addr:street": "Route de Lafrane Km 1,5", "amenity": "pharmacy", "dispensing": "yes", "healthcare": "pharmacy", "name": "\u0635\u064a\u062f\u0644\u064a\u0629 \u0633\u0627\u0644\u0645 \u0627\u0644\u0633\u0645\u0627\u0648\u064a", "name:ar": "\u0635\u064a\u062f\u0644\u064a\u0629 \u0633\u0627\u0644\u0645 \u0627\u0644\u0633\u0645\u0627\u0648\u064a", "name:fr": "Pharmacie Salem Smaoui", "opening_hours": "Mo-Fr 08:30-13:00, 15:00-19:30; Sa 08:30-13:00", "phone": "+216 74 241 760"}}, {"type": "node", "id": 6973093273, "lat": 34.7417666, "lon": 10.7535273, "tags": {"addr:street": "Avenue Majida Boulila Immeuble Abdelkefi", "amenity": "pharmacy", "dispensing": "yes", "healthcare": "pharmacy", "name": "\u0635\u064a\u062f\u0644\u064a\u0629 \u0645\u062d\u0645\u062f \u0639\u0644\u064a \u0627\u0644\u062a\u0631\u064a\u0643\u064a", "name:ar": "\u0635\u064a\u062f\u0644\u064a\u0629 \u0645\u062d\u0645\u062f \u0639\u0644\u064a \u0627\u0644\u062a\u0631\u064a\u0643\u064a", "name:fr": "Pharmacie Mohamed Ali Triki", "opening_hours": "Mo-Fr 08:30-13:00, 15:00-19:30; Sa 08:30-13:00", "phone": "+216 74 402 118"}}, {"type": "node", "id": 6973093274, "lat": 34.7396718, "lon": 10.7560886, "tags": {"addr:city": "\u0635\u0641\u0627\u0642\u0633", "addr:city:ar": "\u0635\u0641\u0627\u0642\u0633", "addr:housenumber": "5", "addr:street": "Immeuble La Perla Rue Sidi Belhsan Ellakhmi", "amenity": "pharmacy", "dispensing": "yes", "healthcare": "pharmacy", "name": "\u0635\u064a\u062f\u0644\u064a\u0629 \u0635\u0627\u062f\u0642 \u0627\u0644\u0639\u064a\u0627\u062f\u064a", "name:ar": "\u0635\u064a\u062f\u0644\u064a\u0629 \u0635\u0627\u062f\u0642 \u0627\u0644\u0639\u064a\u0627\u062f\u064a", "name:fr": "Pharmacie Sadok Ayadi", "opening_hours": "Mo-Fr 08:30-13:00, 15:00-19:30; Sa 08:30-13:00", "phone": "+216 74 406 864"}}, {"type": "node", "id": 6973121485, "lat": 34.736031, "lon": 10.7540234, "tags": {"amenity": "pharmacy", "dispensing": "yes", "healthcare": "pharmacy", "opening_hours": "Mo-Fr 08:30-13:00, 15:00-19:30; Sa 08:30-13:00"}}, {"type": "node", "id": 6973121488, "lat": 34.7423798, "lon": 10.7513699, "tags": {"addr:city": "\u0635\u0641\u0627\u0642\u0633", "addr:city:ar": "\u0635\u0641\u0627\u0642\u0633", "addr:street": "Route El Ain Km 0,7 Face Hopital", "amenity": "pharmacy", "dispensing": "yes", "healthcare": "pharmacy", "name": "\u0635\u064a\u062f\u0644\u064a\u0629 \u0627\u0644\u0645\u0646\u062c\u064a \u0642\u0637\u0627\u0637\u0629", "name:ar": "\u0635\u064a\u062f\u0644\u064a\u0629 \u0627\u0644\u0645\u0646\u062c\u064a \u0642\u0637\u0627\u0637\u0629", "name:fr": "Pharmacie Mongi Ketata", "opening_hours": "Mo-Fr 08:30-13:00, 15:00-19:30; Sa 08:30-13:00", "phone": "+216 74 243 159"}}, {"type": "node", "id": 6973121489, "lat": 34.7427104, "lon": 10.7494347, "tags": {"addr:street": "Rte El Ain Km 0.5", "amenity": "pharmacy", "dispensing": "yes", "healthcare": "pharmacy", "name": "\u0635\u064a\u062f\u0644\u064a\u0629 \u0639\u0628\u062f \u0627\u0644\u062c\u0644\u064a\u0644 \u0627\u0644\u062c\u0631\u0628\u064a", "name:ar": "\u0635\u064a\u062f\u0644\u064a\u0629 \u0639\u0628\u062f \u0627\u0644\u062c\u0644\u064a\u0644 \u0627\u0644\u062c\u0631\u0628\u064a", "name:fr": "Pharmacie Abdeljelil Jerbi", "opening_hours": "Mo-Fr 08:30-13:00, 15:00-19:30; Sa 08:30-13:00", "phone": "+216 74 464 195"}}, {"type": "node", "id": 6973121490, "lat": 34.7489254, "lon": 10.7355654, "tags": {"addr:street": "Rte El Ain Km 2.5 Imm. La Caravane", "amenity": "pharmacy", "dispensing": "yes", "healthcare": "pharmacy", "name": "\u0635\u064a\u062f\u0644\u064a\u0629 \u0647\u0646\u0627\u0621 \u0639\u0645\u0627\u0631 \u062d\u0631\u0645 \u0628\u0646 \u0639\u064a\u0627\u062f", "name:ar": "\u0635\u064a\u062f\u0644\u064a\u0629 \u0647\u0646\u0627\u0621 \u0639\u0645\u0627\u0631 \u062d\u0631\u0645 \u0628\u0646 \u0639\u064a\u0627\u062f", "name:fr": "Pharmacie Hana Ammar Ep. Ben Ayed", "opening_hours": "Mo-Fr 08:30-13:00, 15:00-19:30; Sa 08:30-13:00", "phone": "+216 31 531 140;+216 23 048 751"}}, {"type": "node", "id": 6973121491, "lat": 34.7648949, "lon": 10.7127986, "tags": {"addr:street": "Route El Ain Km 5", "amenity": "pharmacy", "dispensing": "yes", "healthcare": "pharmacy", "name": "\u0635\u064a\u062f\u0644\u064a\u0629 \u0632\u0647\u064a\u0631 \u0639\u0628\u064a\u062f", "name:ar": "\u0635\u064a\u062f\u0644\u064a\u0629 \u0632\u0647\u064a\u0631 \u0639\u0628\u064a\u062f", "name:fr": "Pharmacie Zouhir Abid", "opening_hours": "Mo-Fr 08:30-13:00, 15:00-19:30; Sa 08:30-13:00", "phone": "+216 74 650 595"}}, {"type": "node", "id": 6973121492, "lat": 34.7709219, "lon": 10.7051827, "tags": {"addr:postcode": "3042", "addr:street": "Route El Ain Km 6.2", "amenity": "pharmacy", "dispensing": "yes", "healthcare": "pharmacy", "name": "\u0635\u064a\u062f\u0644\u064a\u0629 \u0623\u0633\u0645\u0627\u0621 \u062e\u0631\u0648\u0641 \u062d\u0631\u0645 \u0627\u0644\u062a\u0631\u064a\u0643\u064a", "name:ar": "\u0635\u064a\u062f\u0644\u064a\u0629 \u0623\u0633\u0645\u0627\u0621 \u062e\u0631\u0648\u0641 \u062d\u0631\u0645 \u0627\u0644\u062a\u0631\u064a\u0643\u064a", "name:fr": "Pharmacie Asma Khrouf Ep. Triki", "opening_hours": "Mo-Fr 08:30-13:00, 15:00-19:30; Sa 08:30-13:00", "phone": "+216 74 652 778"}}, {"type": "node", "id": 6973121493, "lat": 34.7507675, "lon": 10.7176928, "tags": {"amenity": "pharmacy", "dispensing": "yes", "healthcare": "pharmacy", "opening_hours": "Mo-Fr 08:30-13:00, 15:00-19:30; Sa 08:30-13:00"}}, {"type": "node", "id": 6973345631, "lat": 34.7396562, "lon": 10.7410163, "tags": {"addr:city": "\u0635\u0641\u0627\u0642\u0633", "addr:city:ar": "\u0635\u0641\u0627\u0642\u0633", "amenity": "pharmacy", "dispensing": "yes", "healthcare": "pharmacy", "opening_hours": "Mo-Fr 08:30-13:00, 15:00-19:30; Sa 08:30-13:00"}}, {"type": "node", "id": 6973345632, "lat": 34.7377928, "lon": 10.7461377, "tags": {"addr:street": "Route Menzel Chaker Km 0,5", "amenity": "pharmacy", "dispensing": "yes", "healthcare": "pharmacy", "name": "\u0635\u064a\u062f\u0644\u064a\u0629 \u062a\u0648\u0641\u064a\u0642 \u0632\u0643\u0631\u064a", "name:ar": "\u0635\u064a\u062f\u0644\u064a\u0629 \u062a\u0648\u0641\u064a\u0642 \u0632\u0643\u0631\u064a", "name:fr": "Pharmacie Taoufik Zekri", "opening_hours": "Mo-Fr 08:30-13:00, 15:00-19:30; Sa 08:30-13:00", "phone": "+216 74 243 702"}}, {"type": "node", "id": 6973345633, "lat": 34.7357789, "lon": 10.7489555, "tags": {"addr:street": "Centre Mirage 3 Angle Majida Boulila Route Menzel Chaker", "amenity": "pharmacy", "dispensing": "yes", "healthcare": "pharmacy", "name": "\u0635\u064a\u062f\u0644\u064a\u0629 \u0639\u0627\u062f\u0644 \u0627\u0644\u0639\u0641\u0627\u0633", "name:ar": "\u0635\u064a\u062f\u0644\u064a\u0629 \u0639\u0627\u062f\u0644 \u0627\u0644\u0639\u0641\u0627\u0633", "name:fr": "Pharmacie Adel Affes", "opening_hours": "Mo-Fr 08:30-13:00, 15:00-19:30; Sa 08:30-13:00", "phone": "+216 74 222 779"}}, {"type": "node", "id": 6973345634, "lat": 34.73769, "lon": 10.7496659, "tags": {"addr:housenumber": "5", "addr:street": "Avenue Majida Boulila", "amenity": "pharmacy", "dispensing": "yes", "healthcare": "pharmacy", "name": "\u0635\u064a\u062f\u0644\u064a\u0629 \u062f\u0644\u0646\u062f\u0629 \u0627\u0644\u0632\u0648\u0627\u0631\u064a \u062d\u0631\u0645 \u0627\u0644\u0639\u0643\u0631\u0648\u062a", "name:ar": "\u0635\u064a\u062f\u0644\u064a\u0629 \u062f\u0644\u0646\u062f\u0629 \u0627\u0644\u0632\u0648\u0627\u0631\u064a \u062d\u0631\u0645 \u0627\u0644\u0639\u0643\u0631\u0648\u062a", "name:fr": "Pharmacie Dalenda Zouari Ep. Akrout", "opening_hours": "Mo-Fr 08:30-13:00, 15:00-19:30; Sa 08:30-13:00", "phone": "+216 74 240 032"}}, {"type": "node", "id": 6973899193, "lat": 34.7294729, "lon": 10.7050191, "tags": {"addr:city": "\u0635\u0641\u0627\u0642\u0633", "addr:city:ar": "\u0635\u0641\u0627\u0642\u0633", "addr:housenumber": "9", "addr:postcode": "3064", "addr:street": "Avenue du Niger Cit\u00e9 El Bahri 3", "amenity": "pharmacy", "dispensing": "yes", "healthcare": "pharmacy", "name": "\u0635\u064a\u062f\u0644\u064a\u0629 \u0645\u062d\u0645\u062f \u0639\u0628\u062f \u0627\u0644\u0646\u0627\u0635\u0631 \u0627\u0644\u0641\u0646\u062f\u0631\u064a", "name:ar": "\u0635\u064a\u062f\u0644\u064a\u0629 \u0645\u062d\u0645\u062f \u0639\u0628\u062f \u0627\u0644\u0646\u0627\u0635\u0631 \u0627\u0644\u0641\u0646\u062f\u0631\u064a", "name:fr": "Pharmacie Mohamed Abdennaceur Fendri", "opening_hours": "Mo-Fr 08:30-13:00, 15:00-19:30; Sa 08:30-13:00", "phone": "+216 74 671 710"}}, {"type": "node", "id": 6973899196, "lat": 34.7339989, "lon": 10.6868259, "tags": {"addr:street": "Rte A\u00e9roport Km 6 Sfax", "amenity": "pharmacy", "dispensing": "yes", "healthcare": "pharmacy", "name": "\u0635\u064a\u062f\u0644\u064a\u0629 \u0627\u0644\u0645\u0637\u0627\u0631 \u0648\u0633\u064a\u0644\u0629 \u0628\u0646 \u062c\u0645\u0627\u0639\u0629 \u062d\u0631\u0645 \u0627\u0644\u0634\u0639\u0628\u0648\u0646\u064a", "name:ar": "\u0635\u064a\u062f\u0644\u064a\u0629 \u0627\u0644\u0645\u0637\u0627\u0631 \u0648\u0633\u064a\u0644\u0629 \u0628\u0646 \u062c\u0645\u0627\u0639\u0629 \u062d\u0631\u0645 \u0627\u0644\u0634\u0639\u0628\u0648\u0646\u064a", "name:fr": "Pharmacie A\u00e9roport Wassila Ben Jemaa Ep. Chaabouni", "opening_hours": "Mo-Fr 08:30-13:00, 15:00-19:30; Sa 08:30-13:00", "phone": "+216 74 672 120;+216 22 660 855"}}, {"type": "node", "id": 6973899197, "lat": 34.731192, "lon": 10.6715806, "tags": {"addr:postcode": "3083", "addr:street": "Route A\u00e9roport Km 7", "amenity": "pharmacy", "dispensing": "yes", "healthcare": "pharmacy", "name": "\u0635\u064a\u062f\u0644\u064a\u0629 \u0647\u0627\u062f\u064a\u0629 \u0627\u0644\u0635\u0627\u0645\u062a", "name:ar": "\u0635\u064a\u062f\u0644\u064a\u0629 \u0647\u0627\u062f\u064a\u0629 \u0627\u0644\u0635\u0627\u0645\u062a", "name:fr": "Pharmacie Hedia Samet", "opening_hours": "Mo-Fr 08:30-13:00, 15:00-19:30; Sa 08:30-13:00", "phone": "+216 74 681 291"}}, {"type": "node", "id": 6973899198, "lat": 34.7307389, "lon": 10.6648496, "tags": {"addr:city": "\u0635\u0641\u0627\u0642\u0633", "addr:city:ar": "\u0635\u0641\u0627\u0642\u0633", "addr:street": "Route A\u00e9roport Km 8", "amenity": "pharmacy", "dispensing": "yes", "healthcare": "pharmacy", "name": "\u0635\u064a\u062f\u0644\u064a\u0629 \u0641\u0627\u0637\u0645\u0629 \u0639\u0645\u0627\u0631", "name:ar": "\u0635\u064a\u062f\u0644\u064a\u0629 \u0641\u0627\u0637\u0645\u0629 \u0639\u0645\u0627\u0631", "name:fr": "Pharmacie Fatma Ammar", "opening_hours": "Mo-Fr 08:30-13:00, 15:00-19:30; Sa 08:30-13:00", "phone": "+216 36 116 611"}}, {"type": "node", "id": 6975827317, "lat": 34.7299141, "lon": 10.7336437, "tags": {"addr:city": "\u0635\u0641\u0627\u0642\u0633", "addr:city:ar": "\u0635\u0641\u0627\u0642\u0633", "addr:street": "Route Sokra Km 1.5", "amenity": "pharmacy", "dispensing": "yes", "healthcare": "pharmacy", "name": "\u0635\u064a\u062f\u0644\u064a\u0629 \u0645\u0641\u064a\u062f\u0629 \u062c\u0628\u0644 \u062d\u0631\u0645 \u0634\u0637\u0627\u0631\u0629", "name:ar": "\u0635\u064a\u062f\u0644\u064a\u0629 \u0645\u0641\u064a\u062f\u0629 \u062c\u0628\u0644 \u062d\u0631\u0645 \u0634\u0637\u0627\u0631\u0629", "name:fr": "Pharmacie Moufida Jebel Ep. Chtara", "opening_hours": "Mo-Fr 08:30-13:00, 15:00-19:30; Sa 08:30-13:00", "phone": "+216 74 462 220"}}, {"type": "node", "id": 6976151803, "lat": 34.7200273, "lon": 10.7206634, "tags": {"addr:street": "Rte El Mharza Km 4 Cit\u00e9 El Habib", "amenity": "pharmacy", "dispensing": "yes", "healthcare": "pharmacy", "name": "\u0635\u064a\u062f\u0644\u064a\u0629 \u0646\u062c\u064a\u0628 \u0627\u0644\u062d\u062f\u064a\u062c\u064a", "name:ar": "\u0635\u064a\u062f\u0644\u064a\u0629 \u0646\u062c\u064a\u0628 \u0627\u0644\u062d\u062f\u064a\u062c\u064a", "name:fr": "Pharmacie Najib Hadiji", "opening_hours": "Mo-Fr 08:30-13:00, 15:00-19:30; Sa 08:30-13:00", "phone": "+216 74 274 019"}}, {"type": "node", "id": 6976151804, "lat": 34.7177503, "lon": 10.7217037, "tags": {"addr:city": "\u0635\u0641\u0627\u0642\u0633", "addr:city:ar": "\u0635\u0641\u0627\u0642\u0633", "addr:postcode": "3052", "addr:street": "Route Mharza Cit\u00e9 El Habib", "amenity": "pharmacy", "dispensing": "yes", "healthcare": "pharmacy", "name": "\u0635\u064a\u062f\u0644\u064a\u0629 \u0637\u0647 \u0627\u0644\u0645\u0644\u0648\u0644\u064a", "name:ar": "\u0635\u064a\u062f\u0644\u064a\u0629 \u0637\u0647 \u0627\u0644\u0645\u0644\u0648\u0644\u064a", "name:fr": "Pharmacie Taha Mallouli", "opening_hours": "Mo-Fr 08:30-13:00, 15:00-19:30; Sa 08:30-13:00", "phone": "+216 74 276 989"}}, {"type": "node", "id": 6976151815, "lat": 34.7299198, "lon": 10.7410944, "tags": {"addr:city": "\u0635\u0641\u0627\u0642\u0633", "addr:city:ar": "\u0635\u0641\u0627\u0642\u0633", "addr:street": "Route Mharza Km 1.5", "amenity": "pharmacy", "dispensing": "yes", "healthcare": "pharmacy", "name": "\u0635\u064a\u062f\u0644\u064a\u0629 \u0633\u0627\u0645\u064a \u0634\u064a\u062e \u0631\u0648\u062d\u0647", "name:ar": "\u0635\u064a\u062f\u0644\u064a\u0629 \u0633\u0627\u0645\u064a \u0634\u064a\u062e \u0631\u0648\u062d\u0647", "name:fr": "Pharmacie Sami Cheikhrouhou", "opening_hours": "Mo-Fr 08:30-13:00, 15:00-19:30; Sa 08:30-13:00", "phone": "+216 74 241 561;+216 98 413 173"}}, {"type": "node", "id": 6976151816, "lat": 34.6923402, "lon": 10.7122465, "tags": {"addr:street": "Rte Gab\u00e8s Km 8", "amenity": "pharmacy", "dispensing": "yes", "healthcare": "pharmacy", "name": "\u0635\u064a\u062f\u0644\u064a\u0629 \u0645\u062d\u0645\u062f \u0648\u0627\u0626\u0644 \u0627\u0644\u0641\u0642\u064a", "name:ar": "\u0635\u064a\u062f\u0644\u064a\u0629 \u0645\u062d\u0645\u062f \u0648\u0627\u0626\u0644 \u0627\u0644\u0641\u0642\u064a", "name:fr": "Pharmacie Mohamed Wael Feki", "opening_hours": "Mo-Fr 08:30-13:00, 15:00-19:30; Sa 08:30-13:00", "phone": "+216 74 679 464"}}, {"type": "node", "id": 6986924931, "lat": 34.7851357, "lon": 10.7459884, "tags": {"amenity": "cafe", "name": "\u0645\u0642\u0647\u0649 \u0631\u0645\u0632\u064a", "name:ar": "\u0645\u0642\u0647\u0649 \u0631\u0645\u0632\u064a", "name:fr": "Caf\u00e9 Ramzi"}}, {"type": "node", "id": 7001458385, "lat": 34.7546282, "lon": 10.7725329, "tags": {"amenity": "cafe", "name": "\u0645\u0642\u0647\u0649 2 \u0645\u0627\u0631\u0633", "name:ar": "\u0645\u0642\u0647\u0649 2 \u0645\u0627\u0631\u0633", "name:fr": "Caf\u00e9 2 Mars"}}, {"type": "node", "id": 7001458387, "lat": 34.7462838, "lon": 10.7674312, "tags": {"amenity": "cafe", "name": "\u0645\u0642\u0647\u0649 \u0643\u0627\u0643\u062a\u064a\u0633", "name:ar": "\u0645\u0642\u0647\u0649 \u0643\u0627\u0643\u062a\u064a\u0633", "name:fr": "Caf\u00e9 Cactus"}}, {"type": "node", "id": 7001458389, "lat": 34.7447277, "lon": 10.768359, "tags": {"amenity": "cafe", "name": "\u0645\u0642\u0647\u0649 \u0627\u0644\u0623\u0646\u062f\u0644\u0633", "name:ar": "\u0645\u0642\u0647\u0649 \u0627\u0644\u0623\u0646\u062f\u0644\u0633", "name:fr": "Caf\u00e9 El Andalous"}}, {"type": "node", "id": 7001469657, "lat": 34.7453449, "lon": 10.768791, "tags": {"amenity": "cafe", "name": "\u0645\u0642\u0647\u0649 \u0641\u0631\u064a \u062c\u064a\u0645\u0648", "name:ar": "\u0645\u0642\u0647\u0649 \u0641\u0631\u064a \u062c\u064a\u0645\u0648", "name:fr": "Caf\u00e9 Free Jumeaux"}}, {"type": "node", "id": 7001680403, "lat": 34.7484502, "lon": 10.7690637, "tags": {"amenity": "cafe", "name": "\u0642\u0627\u0639\u0629 \u0634\u0627\u064a \u0641\u0631\u064a\u062f\u0648\u0645", "name:ar": "\u0642\u0627\u0639\u0629 \u0634\u0627\u064a \u0641\u0631\u064a\u062f\u0648\u0645", "name:fr": "Salon de Th\u00e9 Freedom"}}, {"type": "node", "id": 7001680409, "lat": 34.7464604, "lon": 10.7681795, "tags": {"amenity": "cafe", "name": "\u0645\u0642\u0647\u0649 \u0644\u064a\u062f\u0648\u0633", "name:ar": "\u0645\u0642\u0647\u0649 \u0644\u064a\u062f\u0648\u0633", "name:fr": "Caf\u00e9 Ludo's"}}, {"type": "node", "id": 7001680410, "lat": 34.7479841, "lon": 10.7613427, "tags": {"amenity": "cafe", "name": "\u0633\u064a\u062a\u064a \u0643\u0648\u0641\u064a \u0634\u0648\u0628", "name:ar": "\u0633\u064a\u062a\u064a \u0643\u0648\u0641\u064a \u0634\u0648\u0628", "name:fr": "City Coffee Shop"}}, {"type": "node", "id": 7001680411, "lat": 34.7478625, "lon": 10.7611736, "tags": {"amenity": "cafe", "name": "\u0628\u064a\u0643\u0627\u0633\u0648", "name:ar": "\u0628\u064a\u0643\u0627\u0633\u0648", "name:fr": "Picasso"}}, {"type": "node", "id": 7001680412, "lat": 34.7453487, "lon": 10.7624866, "tags": {"amenity": "cafe", "name": "\u0643\u0627\u0641\u064a\u062a\u064a\u0631\u064a\u0627 \u062a\u0627\u0646\u064a\u062a", "name:ar": "\u0643\u0627\u0641\u064a\u062a\u064a\u0631\u064a\u0627 \u062a\u0627\u0646\u064a\u062a", "name:fr": "Caf\u00e9t\u00e9ria Tanit"}}, {"type": "node", "id": 7001680415, "lat": 34.7446917, "lon": 10.7630237, "tags": {"amenity": "cafe", "name": "\u0633\u062a\u0627\u0631\u062a \u0627\u0628", "name:ar": "\u0633\u062a\u0627\u0631\u062a \u0627\u0628", "name:fr": "Start Up"}}, {"type": "node", "id": 7001680416, "lat": 34.744123, "lon": 10.763339, "tags": {"amenity": "cafe", "name": "\u0642\u0627\u0639\u0629 \u0634\u0627\u064a \u0627\u0644\u0645\u0644\u0643", "name:ar": "\u0642\u0627\u0639\u0629 \u0634\u0627\u064a \u0627\u0644\u0645\u0644\u0643", "name:fr": "Salon de Th\u00e9 Le Roi"}}, {"type": "node", "id": 7001680417, "lat": 34.743813, "lon": 10.7632346, "tags": {"addr:city": "\u0635\u0641\u0627\u0642\u0633", "addr:city:ar": "\u0635\u0641\u0627\u0642\u0633", "addr:postcode": "3000", "addr:street": "\u0634\u0627\u0631\u0639 5 \u0623\u0648\u062a", "amenity": "pharmacy", "dispensing": "yes", "healthcare": "pharmacy", "name": "\u0635\u064a\u062f\u0644\u064a\u0629 \u0646\u062c\u064a\u0628 \u0628\u0643\u0648\u0631", "name:ar": "\u0635\u064a\u062f\u0644\u064a\u0629 \u0646\u062c\u064a\u0628 \u0628\u0643\u0648\u0631", "name:fr": "Pharmacie Najib Baccour", "opening_hours": "Mo-Fr 08:30-13:00, 15:00-19:30; Sa 08:30-13:00", "phone": "+216 74 220 088"}}, {"type": "node", "id": 7006069557, "lat": 34.7328636, "lon": 10.7639775}, {"type": "node", "id": 7006069558, "lat": 34.7328665, "lon": 10.7639875}, {"type": "node", "id": 7006069559, "lat": 34.7328665, "lon": 10.7639982}, {"type": "node", "id": 7006069560, "lat": 34.7328635, "lon": 10.7640081}, {"type": "node", "id": 7006069561, "lat": 34.7328578, "lon": 10.7640163}, {"type": "node", "id": 7006069562, "lat": 34.7328503, "lon": 10.7640216}, {"type": "node", "id": 7006069563, "lat": 34.7328168, "lon": 10.7639982}, {"type": "node", "id": 7006069564, "lat": 34.7328167, "lon": 10.7639886}, {"type": "node", "id": 7006069565, "lat": 34.7328189, "lon": 10.7639795}, {"type": "node", "id": 7006069566, "lat": 34.7328233, "lon": 10.7639717}, {"type": "node", "id": 7006069567, "lat": 34.7328295, "lon": 10.7639658}, {"type": "node", "id": 7006069568, "lat": 34.7328368, "lon": 10.7639626}, {"type": "node", "id": 7006069569, "lat": 34.7328417, "lon": 10.7640234}, {"type": "node", "id": 7006069570, "lat": 34.7328331, "lon": 10.7640216}, {"type": "node", "id": 7006069571, "lat": 34.7328255, "lon": 10.7640163}, {"type": "node", "id": 7006069572, "lat": 34.7328199, "lon": 10.7640081}, {"type": "node", "id": 7006069573, "lat": 34.7328447, "lon": 10.7639622}, {"type": "node", "id": 7006069574, "lat": 34.7328522, "lon": 10.7639648}, {"type": "node", "id": 7006069575, "lat": 34.7328587, "lon": 10.7639701}, {"type": "node", "id": 7037953425, "lat": 34.8253465, "lon": 10.6756784, "tags": {"addr:city": "\u0627\u0644\u0639\u0648\u0627\u0628\u062f", "addr:postcode": "3074", "addr:street": "\u0637\u0631\u064a\u0642 \u0642\u0631\u0645\u062f\u0629 \u0643\u0644\u0645 12 \u0627\u0644\u0639\u0648\u0627\u0628\u062f", "amenity": "pharmacy", "dispensing": "yes", "healthcare": "pharmacy", "name": "\u0635\u064a\u062f\u0644\u064a\u0629 \u0646\u062c\u064a\u0628 \u0627\u0644\u0634\u0639\u0628\u0648\u0646\u064a", "name:ar": "\u0635\u064a\u062f\u0644\u064a\u0629 \u0646\u062c\u064a\u0628 \u0627\u0644\u0634\u0639\u0628\u0648\u0646\u064a", "name:fr": "Pharmacie Najib Chaabouni", "opening_hours": "Mo-Fr 08:30-13:00, 15:00-19:30; Sa 08:30-13:00", "phone": "+216 74 658 904"}}, {"type": "node", "id": 7061249185, "lat": 34.7811213, "lon": 10.7235009, "tags": {"addr:city": "\u0635\u0641\u0627\u0642\u0633", "addr:city:ar": "\u0635\u0641\u0627\u0642\u0633", "addr:street": "\u0637\u0631\u064a\u0642 \u0642\u0631\u0645\u062f\u0629", "amenity": "pharmacy", "healthcare": "pharmacy", "name": "\u0635\u064a\u062f\u0644\u064a\u0629 \u0633\u0627\u0645\u064a\u0629 \u0628\u0646 \u062c\u0645\u0627\u0639\u0629 \u062d\u0631\u0645 \u0627\u0644\u062d\u062f\u064a\u062c\u064a", "name:ar": "\u0635\u064a\u062f\u0644\u064a\u0629 \u0633\u0627\u0645\u064a\u0629 \u0628\u0646 \u062c\u0645\u0627\u0639\u0629 \u062d\u0631\u0645 \u0627\u0644\u062d\u062f\u064a\u062c\u064a", "name:fr": "Pharmacie Samia Ben Djemaa Ep. Hadiji", "opening_hours": "Mo-Fr 08:30-13:00, 15:00-19:30; Sa 08:30-13:00", "phone": "+216 74 267 067"}}, {"type": "node", "id": 7111838180, "lat": 34.7952757, "lon": 10.7730493, "tags": {"amenity": "cafe", "name": "\u0645\u0642\u0647\u0649 \u0627\u0644\u062f\u064a\u0648\u0627\u0646", "name:ar": "\u0645\u0642\u0647\u0649 \u0627\u0644\u062f\u064a\u0648\u0627\u0646", "name:fr": "Caf\u00e9 Diwan"}}, {"type": "node", "id": 7176173985, "lat": 34.7716833, "lon": 10.7318916, "tags": {"amenity": "cafe", "name": "Apero", "name:fr": "Apero"}}, {"type": "node", "id": 7176174785, "lat": 34.7664498, "lon": 10.7365066, "tags": {"amenity": "cafe", "name": "El Majles", "name:fr": "El Majles"}}, {"type": "node", "id": 7309142190, "lat": 34.8281267, "lon": 10.6701891, "tags": {"amenity": "cafe", "name": "\u0645\u0642\u0647\u0649 \u0627\u0644\u0643\u0648\u0631\u0646\u064a\u0634", "name:ar": "\u0645\u0642\u0647\u0649 \u0627\u0644\u0643\u0648\u0631\u0646\u064a\u0634", "name:fr": "Caf\u00e9 Corniche"}}, {"type": "node", "id": 7309142191, "lat": 34.8311947, "lon": 10.6658404, "tags": {"amenity": "cafe", "name": "\u0645\u0642\u0647\u0649 \u0627\u0644\u0627\u062e\u0648\u0629", "name:ar": "\u0645\u0642\u0647\u0649 \u0627\u0644\u0627\u062e\u0648\u0629", "name:fr": "Caf\u00e9 Les Fr\u00e8res"}}, {"type": "node", "id": 7309142192, "lat": 34.8323859, "lon": 10.6646536, "tags": {"amenity": "cafe", "name": "\u0645\u0642\u0647\u0649 \u0634\u0642\u0627\u0631", "name:ar": "\u0645\u0642\u0647\u0649 \u0634\u0642\u0627\u0631", "name:fr": "Caf\u00e9 Chaggar"}}, {"type": "node", "id": 7312330861, "lat": 34.736157, "lon": 10.7519793, "tags": {"addr:city": "\u0635\u0641\u0627\u0642\u0633", "addr:city:ar": "\u0635\u0641\u0627\u0642\u0633", "addr:postcode": "3027", "addr:street": "Imm. Ragheb Rue Ahmed Aloulou", "amenity": "pharmacy", "dispensing": "no", "drive_through": "no", "healthcare": "pharmacy", "name": "\u0635\u064a\u062f\u0644\u064a\u0629 \u0633\u0647\u064a\u0631 \u0627\u0644\u0639\u0648\u064a", "name:ar": "\u0635\u064a\u062f\u0644\u064a\u0629 \u0633\u0647\u064a\u0631 \u0627\u0644\u0639\u0648\u064a", "name:fr": "Pharmacie Souhir Aouay", "opening_hours": "Mo-Fr 08:30-13:00, 15:00-19:30; Sa 08:30-13:00", "phone": "+216 74 418 433"}}, {"type": "node", "id": 7441474790, "lat": 34.7429145, "lon": 10.5272853, "tags": {"addr:city": "Agareb", "addr:housenumber": "1", "addr:street": "Rue 27", "amenity": "pharmacy", "dispensing": "yes", "healthcare": "pharmacy", "name": "\u0635\u064a\u062f\u0644\u064a\u0629 \u0623\u0644\u0641\u0629 \u0647\u062f\u0631\u064a\u0634 \u062d\u0631\u0645 \u0643\u0633\u064a\u0633", "name:ar": "\u0635\u064a\u062f\u0644\u064a\u0629 \u0623\u0644\u0641\u0629 \u0647\u062f\u0631\u064a\u0634 \u062d\u0631\u0645 \u0643\u0633\u064a\u0633", "name:fr": "Pharmacie Olfa Hadriche et \u00c9picerie Kessis", "opening_hours": "Mo-Fr 08:30-13:00, 15:00-19:30; Sa 08:30-13:00", "phone": "+216 74 403 800;+216 74 644 144"}}, {"type": "node", "id": 7441474791, "lat": 34.7407934, "lon": 10.5287103, "tags": {"addr:street": "Av. Hedi Chaker Agareb", "amenity": "pharmacy", "dispensing": "yes", "healthcare": "pharmacy", "name": "\u0635\u064a\u062f\u0644\u064a\u0629 \u0639\u0645\u0631 \u0627\u0644\u0639\u064a\u0627\u062f\u064a", "name:ar": "\u0635\u064a\u062f\u0644\u064a\u0629 \u0639\u0645\u0631 \u0627\u0644\u0639\u064a\u0627\u062f\u064a", "name:fr": "Pharmacie Amor El Ayadi", "opening_hours": "Mo-Fr 08:30-13:00, 15:00-19:30; Sa 08:30-13:00", "phone": "+216 74 271 056"}}, {"type": "node", "id": 7441685327, "lat": 34.7390407, "lon": 10.528143, "tags": {"addr:street": "Av. Habib Bourguiba Agareb", "amenity": "pharmacy", "dispensing": "yes", "healthcare": "pharmacy", "name": "\u0635\u064a\u062f\u0644\u064a\u0629 \u0645\u0646\u0649 \u0627\u0644\u0643\u0634\u0648 \u062d\u0631\u0645 \u0627\u0644\u0645\u0647\u064a\u0631\u064a", "name:ar": "\u0635\u064a\u062f\u0644\u064a\u0629 \u0645\u0646\u0649 \u0627\u0644\u0643\u0634\u0648 \u062d\u0631\u0645 \u0627\u0644\u0645\u0647\u064a\u0631\u064a", "name:fr": "Pharmacie Mouna Kchaou Ep. Mhiri", "opening_hours": "Mo-Fr 08:30-13:00, 15:00-19:30; Sa 08:30-13:00", "phone": "+216 74 271 177"}}, {"type": "node", "id": 7687571270, "lat": 34.7651376, "lon": 10.6884802, "tags": {"amenity": "cafe", "name": "Caf\u00e9 Brown", "name:fr": "Caf\u00e9 Brown"}}, {"type": "node", "id": 7786788435, "lat": 34.7858621, "lon": 10.7600401, "tags": {"amenity": "cafe", "name": "My Coffee"}}, {"type": "node", "id": 7786788436, "lat": 34.7810533, "lon": 10.7471999, "tags": {"amenity": "cafe", "name": "\u0645\u0642\u0647\u0649 \u0627\u0644\u0623\u0637\u0644\u0633", "name:ar": "\u0645\u0642\u0647\u0649 \u0627\u0644\u0623\u0637\u0644\u0633", "name:fr": "Caf\u00e9 Atlas"}}, {"type": "node", "id": 7786788437, "lat": 34.7806804, "lon": 10.747607, "tags": {"amenity": "cafe", "name": "My Cup"}}, {"type": "node", "id": 7786788439, "lat": 34.778839, "lon": 10.7485953, "tags": {"name": "\u0645\u063a\u0627\u0632\u0629 \u0627\u0644\u0645\u0635\u0645\u0648\u062f\u064a", "name:ar": "\u0645\u063a\u0627\u0632\u0629 \u0627\u0644\u0645\u0635\u0645\u0648\u062f\u064a", "name:fr": "Magasin Masmoudi", "shop": "supermarket"}}, {"type": "node", "id": 7786788440, "lat": 34.7779535, "lon": 10.7488918, "tags": {"amenity": "cafe", "name": "Brother's Coffee"}}, {"type": "node", "id": 7786788441, "lat": 34.7734013, "lon": 10.7520187, "tags": {"amenity": "cafe", "name": "Caf\u00e9 L'estrada"}}, {"type": "node", "id": 7810421009, "lat": 34.8002387, "lon": 10.7666357, "tags": {"amenity": "cafe", "name": "Caf\u00e9 100 Fa 100", "name:fr": "Caf\u00e9 100 Fa 100"}}, {"type": "node", "id": 7812346502, "lat": 34.8315398, "lon": 10.7643098, "tags": {"amenity": "cafe", "name": "Caf\u00e9 Paradiso", "name:fr": "Caf\u00e9 Paradiso"}}, {"type": "node", "id": 7812383459, "lat": 34.8161287, "lon": 10.7619601, "tags": {"amenity": "cafe", "name": "\u0645\u0642\u0647\u0649 \u0623\u064a\u0645\u0646", "name:ar": "\u0645\u0642\u0647\u0649 \u0623\u064a\u0645\u0646", "name:fr": "Caf\u00e9 Ayman"}}, {"type": "node", "id": 7812476765, "lat": 34.8051987, "lon": 10.7613517, "tags": {"amenity": "cafe", "name": "\u0645\u0642\u0647\u0649 \u0644\u0648\u0643\u0648\u0627\u0646", "name:ar": "\u0645\u0642\u0647\u0649 \u0644\u0648\u0643\u0648\u0627\u0646", "name:fr": "Caf\u00e9 Le Coin"}}, {"type": "node", "id": 7812865959, "lat": 34.7800502, "lon": 10.7603766, "tags": {"amenity": "cafe", "name": "Salon de Th\u00e9 Falena", "name:fr": "Salon de Th\u00e9 Falena"}}, {"type": "node", "id": 7831463895, "lat": 34.7919506, "lon": 10.7764774, "tags": {"amenity": "cafe", "name": "Slouma Coffee"}}, {"type": "node", "id": 7831546091, "lat": 34.7930564, "lon": 10.7749558, "tags": {"amenity": "cafe", "name": "\u0645\u0642\u0647\u0649 \u0627\u0644\u0623\u0645\u064a\u0631", "name:ar": "\u0645\u0642\u0647\u0649 \u0627\u0644\u0623\u0645\u064a\u0631", "name:fr": "Caf\u00e9 Le Prince"}}, {"type": "node", "id": 7834637408, "lat": 34.6760352, "lon": 10.69411, "tags": {"amenity": "cafe", "name": "\u0645\u0642\u0647\u0649 \u0633\u0644\u0637\u0627\u0646", "name:ar": "\u0645\u0642\u0647\u0649 \u0633\u0644\u0637\u0627\u0646", "name:fr": "Caf\u00e9 Soltan"}}, {"type": "node", "id": 7834637409, "lat": 34.677599, "lon": 10.6956213, "tags": {"amenity": "cafe", "name": "\u0645\u0642\u0647\u0649 \u0627\u0644\u0623\u0645\u0627\u0646\u0629", "name:ar": "\u0645\u0642\u0647\u0649 \u0627\u0644\u0623\u0645\u0627\u0646\u0629", "name:fr": "Caf\u00e9 El Amena"}}, {"type": "node", "id": 7834637411, "lat": 34.6784009, "lon": 10.6965313, "tags": {"amenity": "cafe", "name": "Caf\u00e9 d'Or", "name:fr": "Caf\u00e9 d'Or"}}, {"type": "node", "id": 7834637413, "lat": 34.6819296, "lon": 10.7008506, "tags": {"amenity": "cafe", "name": "Caf\u00e9t\u00e9ria Relaxe", "name:fr": "Caf\u00e9t\u00e9ria Relaxe"}}, {"type": "node", "id": 7834637415, "lat": 34.6831843, "lon": 10.7022022, "tags": {"amenity": "cafe", "name": "\u0645\u0642\u0647\u0649 \u0645\u0631\u0645\u0631\u0627", "name:ar": "\u0645\u0642\u0647\u0649 \u0645\u0631\u0645\u0631\u0627", "name:fr": "Caf\u00e9 Marmara"}}, {"type": "node", "id": 7834637416, "lat": 34.6851514, "lon": 10.704345, "tags": {"amenity": "cafe", "name": "\u0645\u0642\u0647\u0649 \u0643\u0631\u064a\u0645", "name:ar": "\u0645\u0642\u0647\u0649 \u0643\u0631\u064a\u0645", "name:fr": "Caf\u00e9 Karim"}}, {"type": "node", "id": 7834686027, "lat": 34.6865913, "lon": 10.7058102, "tags": {"amenity": "cafe", "name": "\u0645\u0642\u0647\u0649 \u0628\u0648\u0639\u0632\u064a\u0632", "name:ar": "\u0645\u0642\u0647\u0649 \u0628\u0648\u0639\u0632\u064a\u0632", "name:fr": "Caf\u00e9 Bouaziz"}}, {"type": "node", "id": 7834686028, "lat": 34.6870209, "lon": 10.7057524, "tags": {"name": "BUT", "name:fr": "BUT", "shop": "supermarket"}}, {"type": "node", "id": 7834686029, "lat": 34.6871922, "lon": 10.7068614, "tags": {"amenity": "cafe", "name": "\u0643\u0627\u0641\u064a\u062a\u064a\u0631\u064a\u0627 \u062a\u0627\u062c", "name:ar": "\u0643\u0627\u0641\u064a\u062a\u064a\u0631\u064a\u0627 \u062a\u0627\u062c", "name:fr": "Caf\u00e9t\u00e9ria Tej"}}, {"type": "node", "id": 7834686032, "lat": 34.6900131, "lon": 10.7100765, "tags": {"amenity": "cafe", "name": "\u0643\u0627\u0641\u064a\u062a\u064a\u0631\u064a\u0627 \u0628\u064a\u0629", "name:ar": "\u0643\u0627\u0641\u064a\u062a\u064a\u0631\u064a\u0627 \u0628\u064a\u0629", "name:fr": "Caf\u00e9t\u00e9ria Baya"}}, {"type": "node", "id": 7834686033, "lat": 34.6905594, "lon": 10.7102265, "tags": {"amenity": "pharmacy", "dispensing": "yes", "healthcare": "pharmacy", "opening_hours": "Mo-Fr 08:30-13:00, 15:00-19:30; Sa 08:30-13:00"}}, {"type": "node", "id": 7834686035, "lat": 34.713829, "lon": 10.7273335, "tags": {"amenity": "cafe", "name": "\u0645\u0642\u0647\u0649 \u0644\u0627\u062c\u0648\u0627", "name:ar": "\u0645\u0642\u0647\u0649 \u0644\u0627\u062c\u0648\u0627", "name:fr": "Caf\u00e9 La Joie"}}, {"type": "node", "id": 7834686036, "lat": 34.71563, "lon": 10.728889, "tags": {"amenity": "cafe", "name": "\u0645\u0642\u0647\u0649 \u0642\u0627\u0644\u0627\u0631\u064a\u0627", "name:ar": "\u0645\u0642\u0647\u0649 \u0642\u0627\u0644\u0627\u0631\u064a\u0627", "name:fr": "Caf\u00e9 Galeria"}}, {"type": "node", "id": 7834731763, "lat": 34.7193669, "lon": 10.7312428, "tags": {"amenity": "cafe"}}, {"type": "node", "id": 7834797640, "lat": 34.7237369, "lon": 10.7366973, "tags": {"amenity": "cafe", "name": "\u0645\u0642\u0647\u0649 \u0647\u0634\u0627\u0645", "name:ar": "\u0645\u0642\u0647\u0649 \u0647\u0634\u0627\u0645", "name:fr": "Caf\u00e9 Hichem"}}, {"type": "node", "id": 7834797643, "lat": 34.7254109, "lon": 10.7393016, "tags": {"amenity": "cafe", "name": "Caf\u00e9 Bonjour", "name:fr": "Caf\u00e9 Bonjour"}}, {"type": "node", "id": 7834797644, "lat": 34.7288455, "lon": 10.7449847, "tags": {"amenity": "cafe", "name": "Caf\u00e9 Rio", "name:fr": "Caf\u00e9 Rio"}}, {"type": "node", "id": 7834797645, "lat": 34.7337605, "lon": 10.7519505, "tags": {"amenity": "cafe", "name": "\u0645\u0642\u0647\u0649 \u0627\u0644\u0645\u062d\u0637\u0629", "name:ar": "\u0645\u0642\u0647\u0649 \u0627\u0644\u0645\u062d\u0637\u0629", "name:fr": "Caf\u00e9 La Station"}}, {"type": "node", "id": 7834797646, "lat": 34.7342769, "lon": 10.7522055, "tags": {"amenity": "cafe", "name": "\u0645\u0642\u0647\u0649 \u0628\u064a\u0643 \u0641\u064a\u0644 \u0633\u0646\u062a\u0631", "name:ar": "\u0645\u0642\u0647\u0649 \u0628\u064a\u0643 \u0641\u064a\u0644 \u0633\u0646\u062a\u0631", "name:fr": "Caf\u00e9 Pic Ville Center"}}, {"type": "node", "id": 7834797672, "lat": 34.7296335, "lon": 10.6505299, "tags": {"amenity": "cafe", "name": "\u0645\u0642\u0647\u0649 \u062a\u0633\u0646\u064a\u0645", "name:ar": "\u0645\u0642\u0647\u0649 \u062a\u0633\u0646\u064a\u0645", "name:fr": "Caf\u00e9 Tasnim"}}, {"type": "node", "id": 7834876661, "lat": 34.72986, "lon": 10.6571652, "tags": {"amenity": "cafe", "name": "\u0645\u0642\u0647\u0649 \u0627\u0644\u062a\u0642\u0627\u0633\u064a\u0645", "name:ar": "\u0645\u0642\u0647\u0649 \u0627\u0644\u062a\u0642\u0627\u0633\u064a\u0645", "name:fr": "Caf\u00e9 Ettakassim"}}, {"type": "node", "id": 7834876662, "lat": 34.7311537, "lon": 10.66738, "tags": {"amenity": "cafe", "name": "\u0645\u0642\u0647\u0649 \u0623\u0645\u064a\u0642\u0648\u0633", "name:ar": "\u0645\u0642\u0647\u0649 \u0623\u0645\u064a\u0642\u0648\u0633", "name:fr": "Caf\u00e9 Amigos"}}, {"type": "node", "id": 7834876663, "lat": 34.7310257, "lon": 10.6691947, "tags": {"amenity": "cafe", "name": "\u0645\u0642\u0647\u0649 \u0627\u0644\u0643\u0648\u0646\u064a", "name:ar": "\u0645\u0642\u0647\u0649 \u0627\u0644\u0643\u0648\u0646\u064a", "name:fr": "Caf\u00e9 El Kouni"}}, {"type": "node", "id": 7834876668, "lat": 34.7319683, "lon": 10.6753743, "tags": {"amenity": "cafe", "name": "\u0645\u0642\u0647\u0649 \u0627\u0644\u062c\u0631\u0628\u0648\u0639\u064a", "name:ar": "\u0645\u0642\u0647\u0649 \u0627\u0644\u062c\u0631\u0628\u0648\u0639\u064a", "name:fr": "Caf\u00e9 Jarboui"}}, {"type": "node", "id": 7835302599, "lat": 34.7328564, "lon": 10.681132, "tags": {"amenity": "cafe", "name": "\u0645\u0642\u0647\u0649 \u0631\u064a\u0627\u0646", "name:ar": "\u0645\u0642\u0647\u0649 \u0631\u064a\u0627\u0646", "name:fr": "Caf\u00e9 Rayen"}}, {"type": "node", "id": 7835302600, "lat": 34.7329138, "lon": 10.6834843, "tags": {"amenity": "cafe", "name": "\u0645\u0642\u0647\u0649 \u0628\u0648\u064a\u0646\u0642", "name:ar": "\u0645\u0642\u0647\u0649 \u0628\u0648\u064a\u0646\u0642", "name:fr": "Caf\u00e9 Boeing"}}, {"type": "node", "id": 7835302601, "lat": 34.7334185, "lon": 10.6857347, "tags": {"amenity": "cafe", "name": "\u0645\u0642\u0647\u0649 \u0635\u0641\u0627\u0621", "name:ar": "\u0645\u0642\u0647\u0649 \u0635\u0641\u0627\u0621", "name:fr": "Caf\u00e9 Safa"}}, {"type": "node", "id": 7835302603, "lat": 34.7344105, "lon": 10.6886798, "tags": {"amenity": "cafe", "name": "\u0645\u0642\u0647\u0649 \u0627\u0644\u062d\u0631\u064a\u0629", "name:ar": "\u0645\u0642\u0647\u0649 \u0627\u0644\u062d\u0631\u064a\u0629", "name:fr": "Caf\u00e9 La Libert\u00e9"}}, {"type": "node", "id": 7835753695, "lat": 34.7343332, "lon": 10.7002162, "tags": {"amenity": "cafe", "name": "\u0645\u0642\u0647\u0649 \u064a\u0627\u0633\u0645\u064a\u0646", "name:ar": "\u0645\u0642\u0647\u0649 \u064a\u0627\u0633\u0645\u064a\u0646", "name:fr": "Caf\u00e9 Yesmine"}}, {"type": "node", "id": 7835753698, "lat": 34.7338651, "lon": 10.7023489, "tags": {"amenity": "cafe", "name": "\u0643\u0627\u0641\u064a\u062a\u064a\u0631\u064a\u0627 \u0643\u0627\u0633\u062a\u0627\u0644\u0648", "name:ar": "\u0643\u0627\u0641\u064a\u062a\u064a\u0631\u064a\u0627 \u0643\u0627\u0633\u062a\u0627\u0644\u0648", "name:fr": "Caf\u00e9t\u00e9ria Castello"}}, {"type": "node", "id": 7835753699, "lat": 34.7337707, "lon": 10.7033285, "tags": {"amenity": "cafe", "name": "\u0645\u0642\u0647\u0649 \u0628\u0627\u0646\u0648\u0631\u0627\u0645\u0627", "name:ar": "\u0645\u0642\u0647\u0649 \u0628\u0627\u0646\u0648\u0631\u0627\u0645\u0627", "name:fr": "Caf\u00e9 Panorama"}}, {"type": "node", "id": 7835753700, "lat": 34.7335188, "lon": 10.7051, "tags": {"amenity": "cafe", "name": "\u0645\u0642\u0647\u0649 \u0627\u0644\u063a\u0646\u0648\u0634\u064a", "name:ar": "\u0645\u0642\u0647\u0649 \u0627\u0644\u063a\u0646\u0648\u0634\u064a", "name:fr": "Caf\u00e9 Ghannouchi"}}, {"type": "node", "id": 7835997358, "lat": 34.7337416, "lon": 10.7076569, "tags": {"amenity": "cafe", "name": "Caf\u00e9 Locomotive"}}, {"type": "node", "id": 7835997359, "lat": 34.7333829, "lon": 10.7075377, "tags": {"amenity": "cafe", "name": "\u0645\u0642\u0647\u0649 \u0641\u0636\u0627\u0621 \u0625\u0642\u0628\u0627\u0644", "name:ar": "\u0645\u0642\u0647\u0649 \u0641\u0636\u0627\u0621 \u0625\u0642\u0628\u0627\u0644", "name:fr": "Caf\u00e9 Espace Ikbel"}}, {"type": "node", "id": 7835997363, "lat": 34.7331084, "lon": 10.7175742, "tags": {"amenity": "cafe", "name": "Caf\u00e9 Real", "name:fr": "Caf\u00e9 Real"}}, {"type": "node", "id": 7835997364, "lat": 34.7359105, "lon": 10.738943, "tags": {"amenity": "cafe", "name": "\u0645\u0642\u0647\u0649 \u0627\u0644\u0633\u0646\u062f\u0628\u0627\u062f", "name:ar": "\u0645\u0642\u0647\u0649 \u0627\u0644\u0633\u0646\u062f\u0628\u0627\u062f", "name:fr": "Caf\u00e9 Sindibad"}}, {"type": "node", "id": 7835997365, "lat": 34.7356515, "lon": 10.7457858, "tags": {"amenity": "cafe", "name": "\u0645\u0642\u0647\u0649 \u0627\u0644\u0628\u0627\u0634\u0627 \u0628\u0644\u0648\u0633", "name:ar": "\u0645\u0642\u0647\u0649 \u0627\u0644\u0628\u0627\u0634\u0627 \u0628\u0644\u0648\u0633", "name:fr": "Caf\u00e9 El Becha Plus"}}, {"type": "node", "id": 7836077071, "lat": 34.7355999, "lon": 10.7482673, "tags": {"amenity": "cafe", "name": "Caf\u00e9 Dreams", "name:fr": "Caf\u00e9 Dreams"}}, {"type": "node", "id": 7836077072, "lat": 34.7366617, "lon": 10.7475736, "tags": {"amenity": "cafe", "name": "My Way", "name:fr": "My Way"}}, {"type": "node", "id": 7836077073, "lat": 34.7372504, "lon": 10.7468138, "tags": {"amenity": "cafe", "name": "Caf\u00e9 Jet Set", "name:fr": "Caf\u00e9 Jet Set"}}, {"type": "node", "id": 7836092592, "lat": 34.7383717, "lon": 10.7444621, "tags": {"amenity": "cafe", "name": "Caf\u00e9 Sallem", "name:fr": "Caf\u00e9 Sallem"}}, {"type": "node", "id": 7836092599, "lat": 34.7394644, "lon": 10.7423942, "tags": {"amenity": "cafe", "name": "Caf\u00e9 Neros", "name:fr": "Caf\u00e9 Neros"}}, {"type": "node", "id": 7836092601, "lat": 34.7423115, "lon": 10.7352498, "tags": {"amenity": "cafe", "name": "Caf\u00e9 Havana", "name:fr": "Caf\u00e9 Havana"}}, {"type": "node", "id": 7836092602, "lat": 34.7429444, "lon": 10.7326525, "tags": {"amenity": "cafe", "name": "Caf\u00e9 El Hamra"}}, {"type": "node", "id": 7837253010, "lat": 34.7446789, "lon": 10.7287482, "tags": {"amenity": "cafe", "name": "\u0643\u0627\u0641\u064a\u062a\u064a\u0631\u064a\u0627 \u0627\u0644\u0645\u0648\u0639\u062f", "name:ar": "\u0643\u0627\u0641\u064a\u062a\u064a\u0631\u064a\u0627 \u0627\u0644\u0645\u0648\u0639\u062f", "name:fr": "Caf\u00e9t\u00e9ria Le Rendez-vous"}}, {"type": "node", "id": 7837253014, "lat": 34.7463759, "lon": 10.7250664, "tags": {"amenity": "cafe", "name": "\u0645\u0642\u0647\u0649 \u0642\u0631\u0627\u062c\u0629", "name:ar": "\u0645\u0642\u0647\u0649 \u0642\u0631\u0627\u062c\u0629", "name:fr": "Caf\u00e9 Graja"}}, {"type": "node", "id": 7837253015, "lat": 34.747651, "lon": 10.723553, "tags": {"amenity": "cafe", "name": "Caf\u00e9 Storia", "name:fr": "Caf\u00e9 Storia"}}, {"type": "node", "id": 7837253016, "lat": 34.7494836, "lon": 10.7193993, "tags": {"amenity": "cafe", "name": "\u0645\u0642\u0647\u0649 \u0631\u064a\u0627\u0646", "name:ar": "\u0645\u0642\u0647\u0649 \u0631\u064a\u0627\u0646", "name:fr": "Caf\u00e9 Rayen"}}, {"type": "node", "id": 7837253017, "lat": 34.7505504, "lon": 10.7173353, "tags": {"amenity": "cafe"}}, {"type": "node", "id": 7837253041, "lat": 34.7528756, "lon": 10.713249, "tags": {"amenity": "cafe", "name": "Caf\u00e9 Twins", "name:fr": "Caf\u00e9 Twins"}}, {"type": "node", "id": 7837253042, "lat": 34.7539739, "lon": 10.710701, "tags": {"amenity": "cafe", "name": "Caf\u00e9 Carr\u00e9 d'Or", "name:fr": "Caf\u00e9 Carr\u00e9 d'Or"}}, {"type": "node", "id": 7837253044, "lat": 34.7585113, "lon": 10.7137639, "tags": {"amenity": "cafe", "name": "\u0645\u0642\u0647\u0649 \u0648\u062c\u062f\u064a", "name:ar": "\u0645\u0642\u0647\u0649 \u0648\u062c\u062f\u064a", "name:fr": "Caf\u00e9 Wajdi"}}, {"type": "node", "id": 7837253045, "lat": 34.7544635, "lon": 10.7095482, "tags": {"amenity": "cafe", "name": "\u0645\u0642\u0647\u0649 \u0627\u0644\u0642\u0635\u0627\u0635", "name:ar": "\u0645\u0642\u0647\u0649 \u0627\u0644\u0642\u0635\u0627\u0635", "name:fr": "Caf\u00e9 El Kassas"}}, {"type": "node", "id": 7837764188, "lat": 34.7609039, "lon": 10.7175906, "tags": {"amenity": "cafe", "name": "\u0645\u0642\u0647\u0649 \u0627\u0644\u0623\u0635\u064a\u0644", "name:ar": "\u0645\u0642\u0647\u0649 \u0627\u0644\u0623\u0635\u064a\u0644", "name:fr": "Caf\u00e9 El Assil"}}, {"type": "node", "id": 7837764191, "lat": 34.7577929, "lon": 10.7008069, "tags": {"amenity": "cafe", "name": "\u0645\u0642\u0647\u0649 \u0645\u0639\u0644\u0649", "name:ar": "\u0645\u0642\u0647\u0649 \u0645\u0639\u0644\u0649", "name:fr": "Caf\u00e9 Moalla"}}, {"type": "node", "id": 7837764194, "lat": 34.759458, "lon": 10.697097, "tags": {"amenity": "cafe", "name": "\u0645\u0642\u0647\u0649 \u0639\u0627\u0645\u0631 \u062e\u0634\u0644\u0648\u0641", "name:ar": "\u0645\u0642\u0647\u0649 \u0639\u0627\u0645\u0631 \u062e\u0634\u0644\u0648\u0641", "name:fr": "Caf\u00e9 Ameur Khachlouf"}}, {"type": "node", "id": 7837764195, "lat": 34.7631295, "lon": 10.691149, "tags": {"amenity": "cafe", "name": "\u0645\u0642\u0647\u0649 \u0646\u0648\u0631", "name:ar": "\u0645\u0642\u0647\u0649 \u0646\u0648\u0631", "name:fr": "Caf\u00e9 Nour"}}, {"type": "node", "id": 7837764196, "lat": 34.7645037, "lon": 10.6885467, "tags": {"amenity": "cafe", "name": "Caf\u00e9 Jawhar", "name:fr": "Caf\u00e9 Jawhar"}}, {"type": "node", "id": 7837764238, "lat": 34.7863202, "lon": 10.6914584, "tags": {"amenity": "cafe", "name": "\u0645\u0642\u0647\u0649 \u0627\u0644\u063a\u0631\u064a\u0627\u0646\u064a", "name:ar": "\u0645\u0642\u0647\u0649 \u0627\u0644\u063a\u0631\u064a\u0627\u0646\u064a", "name:fr": "Caf\u00e9 Ghariani"}}, {"type": "node", "id": 7837764241, "lat": 34.7824272, "lon": 10.6953431, "tags": {"amenity": "cafe", "name": "\u0645\u0642\u0647\u0649 \u0627\u0644\u0646\u0627\u0639\u0648\u0631\u0629 \u0627\u0644\u0643\u0628\u0631\u0649", "name:ar": "\u0645\u0642\u0647\u0649 \u0627\u0644\u0646\u0627\u0639\u0648\u0631\u0629 \u0627\u0644\u0643\u0628\u0631\u0649", "name:fr": "Caf\u00e9 Grand Moulin"}}, {"type": "node", "id": 7837764245, "lat": 34.7765581, "lon": 10.7008477, "tags": {"amenity": "cafe", "name": "Caf\u00e9 Abouda", "name:fr": "Caf\u00e9 Abouda"}}, {"type": "node", "id": 7837764248, "lat": 34.774969, "lon": 10.7021269, "tags": {"amenity": "cafe", "name": "Caf\u00e9 Neji", "name:fr": "Caf\u00e9 Neji"}}, {"type": "node", "id": 7837764251, "lat": 34.7728745, "lon": 10.7033578, "tags": {"amenity": "cafe", "name": "Caf\u00e9 Caviana", "name:fr": "Caf\u00e9 Caviana"}}, {"type": "node", "id": 7837764253, "lat": 34.7706529, "lon": 10.7053881, "tags": {"amenity": "cafe", "name": "Caf\u00e9 Freza", "name:fr": "Caf\u00e9 Freza"}}, {"type": "node", "id": 7837764254, "lat": 34.7703195, "lon": 10.7065892, "tags": {"amenity": "cafe", "name": "Caf\u00e9 Paviette", "name:fr": "Caf\u00e9 Paviette"}}, {"type": "node", "id": 7837764255, "lat": 34.7696453, "lon": 10.7057706, "tags": {"amenity": "cafe", "name": "Caf\u00e9 Caramel", "name:fr": "Caf\u00e9 Caramel"}}, {"type": "node", "id": 7837841423, "lat": 34.7640401, "lon": 10.7150131, "tags": {"amenity": "cafe", "name": "Caf\u00e9 Mia Amore", "name:fr": "Caf\u00e9 Mia Amore"}}, {"type": "node", "id": 7837841425, "lat": 34.7623694, "lon": 10.7165054, "tags": {"amenity": "cafe", "name": "Caf\u00e9 The Crown", "name:fr": "Caf\u00e9 The Crown"}}, {"type": "node", "id": 7837841426, "lat": 34.7617687, "lon": 10.7172067, "tags": {"amenity": "cafe", "name": "Caf\u00e9 Victoria", "name:fr": "Caf\u00e9 Victoria"}}, {"type": "node", "id": 7837841427, "lat": 34.7588676, "lon": 10.7202148, "tags": {"amenity": "cafe", "name": "Caf\u00e9 Hammadi", "name:fr": "Caf\u00e9 Hammadi"}}, {"type": "node", "id": 7837841429, "lat": 34.7541843, "lon": 10.7255043, "tags": {"amenity": "cafe", "name": "\u0645\u0642\u0647\u0649 \u0627\u0644\u0632\u064a\u062a\u0648\u0646\u0629 \u0627\u0644\u0632\u0631\u0642\u0627\u0621", "name:ar": "\u0645\u0642\u0647\u0649 \u0627\u0644\u0632\u064a\u062a\u0648\u0646\u0629 \u0627\u0644\u0632\u0631\u0642\u0627\u0621", "name:fr": "Caf\u00e9 L'Olivier Bleu"}}, {"type": "node", "id": 7837841430, "lat": 34.7518075, "lon": 10.7294609, "tags": {"amenity": "cafe", "name": "\u0645\u0642\u0647\u0649 \u0634\u064a\u0634\u062e\u0627\u0646 \u0628\u0644\u0648\u0633", "name:ar": "\u0645\u0642\u0647\u0649 \u0634\u064a\u0634\u062e\u0627\u0646 \u0628\u0644\u0648\u0633", "name:fr": "Caf\u00e9 Chichkhan Plus"}}, {"type": "node", "id": 7837941026, "lat": 34.7503979, "lon": 10.7318531, "tags": {"amenity": "cafe", "name": "Avanti"}}, {"type": "node", "id": 7837941027, "lat": 34.7501238, "lon": 10.732432, "tags": {"amenity": "cafe", "name": "Capello D'Oro"}}, {"type": "node", "id": 7837941031, "lat": 34.7485878, "lon": 10.7358113, "tags": {"amenity": "cafe", "name": "Caf\u00e9 El Alia", "name:fr": "Caf\u00e9 El Alia"}}, {"type": "node", "id": 7837941034, "lat": 34.7450349, "lon": 10.7429706, "tags": {"amenity": "cafe", "name": "Caf\u00e9 Blue Ice", "name:fr": "Caf\u00e9 Blue Ice"}}, {"type": "node", "id": 7837997163, "lat": 34.7441868, "lon": 10.7454392, "tags": {"amenity": "cafe", "name": "Caf\u00e9 Jemal", "name:fr": "Caf\u00e9 Jemal"}}, {"type": "node", "id": 7837997164, "lat": 34.7425223, "lon": 10.7490354, "tags": {"amenity": "cafe", "name": "Caf\u00e9 Palermo", "name:fr": "Caf\u00e9 Palermo"}}, {"type": "node", "id": 7840117178, "lat": 34.7446646, "lon": 10.7518946, "tags": {"amenity": "cafe", "name": "\u0645\u0642\u0647\u0649 \u0633\u0641\u064a\u0627\u0646", "name:ar": "\u0645\u0642\u0647\u0649 \u0633\u0641\u064a\u0627\u0646", "name:fr": "Caf\u00e9 Soufien"}}, {"type": "node", "id": 7840117179, "lat": 34.7449847, "lon": 10.7510974, "tags": {"amenity": "cafe", "name": "\u0645\u0642\u0647\u0649 \u0623\u0645 \u0643\u0644\u062b\u0648\u0645", "name:ar": "\u0645\u0642\u0647\u0649 \u0623\u0645 \u0643\u0644\u062b\u0648\u0645", "name:fr": "Caf\u00e9 Om Kalthoum"}}, {"type": "node", "id": 7840117181, "lat": 34.7460205, "lon": 10.7495841, "tags": {"amenity": "cafe", "name": "Caf\u00e9 Hmani", "name:fr": "Caf\u00e9 Hmani"}}, {"type": "node", "id": 7840139886, "lat": 34.7480238, "lon": 10.7467538, "tags": {"amenity": "cafe", "name": "Caf\u00e9 Lassaad", "name:fr": "Caf\u00e9 Lassaad"}}, {"type": "node", "id": 7840139890, "lat": 34.7583065, "lon": 10.7330349, "tags": {"amenity": "cafe", "name": "Caf\u00e9t\u00e9ria Clinique Errachid", "name:fr": "Caf\u00e9t\u00e9ria Clinique Errachid"}}, {"type": "node", "id": 7840139894, "lat": 34.7758336, "lon": 10.7137183, "tags": {"amenity": "cafe", "name": "Le Comptoir", "name:fr": "Le Comptoir"}}, {"type": "node", "id": 7840139900, "lat": 34.8082627, "lon": 10.6989642, "tags": {"amenity": "cafe"}}, {"type": "node", "id": 7840139901, "lat": 34.8034176, "lon": 10.7053015, "tags": {"amenity": "cafe", "name": "Caf\u00e9 Monalisa", "name:fr": "Caf\u00e9 Monalisa"}}, {"type": "node", "id": 7840139902, "lat": 34.8008253, "lon": 10.7077973, "tags": {"amenity": "cafe", "name": "Caf\u00e9 Relax", "name:ar": ""}}, {"type": "node", "id": 7840139903, "lat": 34.7969969, "lon": 10.7123099, "tags": {"amenity": "cafe", "name": "Caf\u00e9 Hassen", "name:fr": "Caf\u00e9 Hassen"}}, {"type": "node", "id": 7841268332, "lat": 34.7868156, "lon": 10.7197793, "tags": {"amenity": "cafe", "name": "Caf\u00e9 El Fawz", "name:fr": "Caf\u00e9 El Fawz"}}, {"type": "node", "id": 7841268336, "lat": 34.781553, "lon": 10.7230178, "tags": {"amenity": "cafe", "name": "Caf\u00e9 Azaiez", "name:fr": "Caf\u00e9 Azaiez"}}, {"type": "node", "id": 7841268337, "lat": 34.7624704, "lon": 10.7390861, "tags": {"amenity": "cafe", "name": "L'Ardoise", "name:fr": "L'Ardoise"}}, {"type": "node", "id": 7841268338, "lat": 34.7607808, "lon": 10.7411795, "tags": {"amenity": "cafe", "name": "Caf\u00e9t\u00e9ria Les Cousins", "name:fr": "Caf\u00e9t\u00e9ria Les Cousins"}}, {"type": "node", "id": 7841268339, "lat": 34.758235, "lon": 10.7433697, "tags": {"amenity": "cafe", "name": "Caf\u00e9 Jazz One", "name:fr": "Caf\u00e9 Jazz One"}}, {"type": "node", "id": 7841268340, "lat": 34.7578268, "lon": 10.7434143, "tags": {"amenity": "cafe", "name": "Caf\u00e9 Abdelhedi", "name:fr": "Caf\u00e9 Abdelhedi"}}, {"type": "node", "id": 7841268350, "lat": 34.7530525, "lon": 10.747114, "tags": {"amenity": "cafe", "name": "Black And White", "name:fr": "Black And White"}}, {"type": "node", "id": 7841268351, "lat": 34.7445322, "lon": 10.7542889, "tags": {"amenity": "cafe", "name": "Caf\u00e9 Casting", "name:fr": "Caf\u00e9 Casting"}}, {"type": "node", "id": 7841268352, "lat": 34.7438997, "lon": 10.7543828, "tags": {"amenity": "cafe", "name": "Caf\u00e9 El Andalib", "name:ar": "\u0645\u0642\u0647\u0649 \u0627\u0644\u0639\u0646\u062f\u0644\u064a\u0628", "name:fr": "Caf\u00e9 El Andalib"}}, {"type": "node", "id": 7841268353, "lat": 34.7423068, "lon": 10.7558558, "tags": {"amenity": "cafe", "name": "Caf\u00e9 Nero"}}, {"type": "node", "id": 7841268354, "lat": 34.7418235, "lon": 10.7560959, "tags": {"amenity": "cafe", "name": "Caf\u00e9 Bon Kif"}}, {"type": "node", "id": 7841268355, "lat": 34.7417731, "lon": 10.7565172, "tags": {"amenity": "cafe", "name": "Caf\u00e9 My Time"}}, {"type": "node", "id": 7841268357, "lat": 34.7412722, "lon": 10.756935, "tags": {"amenity": "cafe", "name": "Holiday", "name:fr": "Holiday"}}, {"type": "node", "id": 7843017587, "lat": 34.7584798, "lon": 10.7509816, "tags": {"amenity": "cafe", "name": "Caf\u00e9 Mosa\u00efque", "name:fr": "Caf\u00e9 Mosa\u00efque"}}, {"type": "node", "id": 7843017589, "lat": 34.7617703, "lon": 10.7490948, "tags": {"amenity": "cafe", "name": "Caf\u00e9 Factory", "name:fr": "Caf\u00e9 Factory"}}, {"type": "node", "id": 7843017591, "lat": 34.7635102, "lon": 10.7464787, "tags": {"amenity": "cafe", "name": "Caf\u00e9 VIP"}}, {"type": "node", "id": 7843017592, "lat": 34.765294, "lon": 10.7450063, "tags": {"amenity": "cafe", "name": "Al Jumeirah", "name:fr": "Al Jumeirah"}}, {"type": "node", "id": 7843017594, "lat": 34.7507482, "lon": 10.7587156, "tags": {"amenity": "cafe", "name": "Caf\u00e9 Misk Ellil"}}, {"type": "node", "id": 7843017595, "lat": 34.7522507, "lon": 10.7581903, "tags": {"amenity": "cafe", "name": "Caf\u00e9 Mosaique"}}, {"type": "node", "id": 7843017597, "lat": 34.7543621, "lon": 10.757489, "tags": {"amenity": "cafe", "name": "Caf\u00e9 Les Oranges"}}, {"type": "node", "id": 7843017600, "lat": 34.7571365, "lon": 10.7562475, "tags": {"amenity": "cafe", "name": "Scood"}}, {"type": "node", "id": 7843017602, "lat": 34.7576165, "lon": 10.7560266, "tags": {"amenity": "cafe", "name": "Craft"}}, {"type": "node", "id": 7843017603, "lat": 34.7583682, "lon": 10.7561982, "tags": {"amenity": "cafe", "name": "Caf\u00e9 El Machmoum"}}, {"type": "node", "id": 7843017606, "lat": 34.7632002, "lon": 10.7550926, "tags": {"amenity": "cafe", "name": "Oxyg\u00e8ne"}}, {"type": "node", "id": 7843017607, "lat": 34.7645365, "lon": 10.7547119, "tags": {"amenity": "cafe", "name": "Caf\u00e9 Select"}}, {"type": "node", "id": 7843017609, "lat": 34.7664729, "lon": 10.7536838, "tags": {"amenity": "cafe", "name": "\u0645\u0642\u0647\u0649 \u0627\u0644\u0645\u0644\u0643\u0629"}}, {"type": "node", "id": 7843017611, "lat": 34.7841001, "lon": 10.7461722, "tags": {"amenity": "cafe", "name": "Caf\u00e9 Dauphin"}}, {"type": "node", "id": 7843017612, "lat": 34.7863007, "lon": 10.7458083, "tags": {"amenity": "cafe", "name": "\u0645\u0642\u0647\u0649 \u0627\u0644\u0645\u0635\u0645\u0648\u062f\u064a", "name:ar": "\u0645\u0642\u0647\u0649 \u0627\u0644\u0645\u0635\u0645\u0648\u062f\u064a", "name:fr": "Caf\u00e9 Masmoudi"}}, {"type": "node", "id": 7843017613, "lat": 34.7874798, "lon": 10.745698, "tags": {"amenity": "cafe", "name": "Caf\u00e9 Olympia"}}, {"type": "node", "id": 7843017614, "lat": 34.790621, "lon": 10.7442595, "tags": {"amenity": "cafe", "name": "Caf\u00e9 Orangina"}}, {"type": "node", "id": 7843017615, "lat": 34.7910946, "lon": 10.744388, "tags": {"amenity": "cafe", "name": "Caf\u00e9 Nesma"}}, {"type": "node", "id": 7843017616, "lat": 34.7943402, "lon": 10.7432929, "tags": {"amenity": "cafe", "name": "Caf\u00e9 Dream"}}, {"type": "node", "id": 7843017617, "lat": 34.7975406, "lon": 10.7422599, "tags": {"amenity": "cafe", "name": "\u0645\u0642\u0647\u0649 \u0627\u0644\u0642\u062f\u0633", "name:ar": "\u0645\u0642\u0647\u0649 \u0627\u0644\u0642\u062f\u0633", "name:fr": "Caf\u00e9 J\u00e9rusalem"}}, {"type": "node", "id": 7843017618, "lat": 34.7992616, "lon": 10.7419448, "tags": {"amenity": "cafe", "name": "Caf\u00e9 La Terrasse", "name:fr": "Caf\u00e9 La Terrasse"}}, {"type": "node", "id": 7843017619, "lat": 34.8004667, "lon": 10.7413715, "tags": {"amenity": "cafe", "name": "Caf\u00e9 Sirius", "name:fr": "Caf\u00e9 Sirius"}}, {"type": "node", "id": 7843017620, "lat": 34.801767, "lon": 10.7408308, "tags": {"amenity": "cafe", "name": "Caf\u00e9 Arabesque"}}, {"type": "node", "id": 7843017621, "lat": 34.803326, "lon": 10.7400015, "tags": {"amenity": "cafe", "name": "Caf\u00e9 Abida", "name:fr": "Caf\u00e9 Abida"}}, {"type": "node", "id": 7843130178, "lat": 34.8059714, "lon": 10.7385739, "tags": {"amenity": "cafe", "name": "Caf\u00e9t\u00e9ria Hannibal"}}, {"type": "node", "id": 7843130179, "lat": 34.8069448, "lon": 10.7384566, "tags": {"amenity": "cafe", "name": "Caf\u00e9 Aziz"}}, {"type": "node", "id": 7843130180, "lat": 34.8079442, "lon": 10.7377369, "tags": {"amenity": "cafe", "name": "Caf\u00e9 Marina"}}, {"type": "node", "id": 7843130181, "lat": 34.8089032, "lon": 10.7373501, "tags": {"amenity": "cafe", "name": "Caf\u00e9 Vinicia"}}, {"type": "node", "id": 7843130182, "lat": 34.813267, "lon": 10.7359939, "tags": {"amenity": "cafe", "name": "Caf\u00e9 Marouen"}}, {"type": "node", "id": 7843130183, "lat": 34.8140948, "lon": 10.7352696, "tags": {"amenity": "cafe", "name": "Caf\u00e9 Lotfi"}}, {"type": "node", "id": 7843154585, "lat": 34.8380137, "lon": 10.7645737, "tags": {"amenity": "cafe", "name": "Caf\u00e9 Trabelsi"}}, {"type": "node", "id": 7843154587, "lat": 34.8263642, "lon": 10.7634056, "tags": {"amenity": "cafe", "name": "Caf\u00e9 Amir"}}, {"type": "node", "id": 7843154588, "lat": 34.8226061, "lon": 10.7630869, "tags": {"amenity": "cafe", "name": "Caf\u00e9 Dolce"}}, {"type": "node", "id": 7843154589, "lat": 34.8203323, "lon": 10.7623111, "tags": {"amenity": "cafe", "name": "Caf\u00e9 Zaphir"}}, {"type": "node", "id": 7843154590, "lat": 34.7884187, "lon": 10.7599546, "tags": {"amenity": "cafe", "name": "Caf\u00e9 Happy"}}, {"type": "node", "id": 7843154591, "lat": 34.7774129, "lon": 10.7606759, "tags": {"amenity": "cafe", "name": "Caf\u00e9 La Fiesta"}}, {"type": "node", "id": 7843199710, "lat": 34.772386, "lon": 10.7595722, "tags": {"amenity": "cafe", "name": "Caf\u00e9 Yassine"}}, {"type": "node", "id": 7843199711, "lat": 34.7648515, "lon": 10.7621788, "tags": {"amenity": "cafe", "name": "Caf\u00e9 Rozario", "name:fr": "Caf\u00e9 Rozario"}}, {"type": "node", "id": 7843774702, "lat": 34.7599964, "lon": 10.7719219, "tags": {"amenity": "cafe", "name": "Caf\u00e9t\u00e9ria Imed", "name:fr": "Caf\u00e9t\u00e9ria Imed"}}, {"type": "node", "id": 7843774708, "lat": 34.7521165, "lon": 10.7680076, "tags": {"amenity": "cafe", "name": "La Bocca"}}, {"type": "node", "id": 7843774710, "lat": 34.743597, "lon": 10.763363, "tags": {"amenity": "cafe", "name": "Caf\u00e9 Sabra"}}, {"type": "node", "id": 7843774711, "lat": 34.7430083, "lon": 10.7631417, "tags": {"amenity": "cafe", "name": "Caf\u00e9 Slaiem Bousarsar", "name:ar": "\u0645\u0642\u0647\u0649 \u0633\u0644\u064a\u0651\u0645 \u0628\u0648\u0635\u0631\u0635\u0627\u0631", "name:fr": "Caf\u00e9 Slaiem Bousarsar"}}, {"type": "node", "id": 7846178391, "lat": 34.7504062, "lon": 10.7612088, "tags": {"amenity": "cafe", "name": "Caf\u00e9 Moulin Ville"}}, {"type": "node", "id": 7846178392, "lat": 34.7530821, "lon": 10.7617816, "tags": {"amenity": "cafe", "name": "Caf\u00e9t\u00e9ria 2F", "name:fr": "Caf\u00e9t\u00e9ria 2F"}}, {"type": "node", "id": 7846465016, "lat": 34.8173618, "lon": 10.7620154, "tags": {"amenity": "cafe", "name": "Contessa"}}, {"type": "node", "id": 7846917981, "lat": 34.7612848, "lon": 10.7728583, "tags": {"amenity": "cafe", "name": "Caf\u00e9t\u00e9ria Hamza", "name:fr": "Caf\u00e9t\u00e9ria Hamza"}}, {"type": "node", "id": 7877342911, "lat": 34.7495204, "lon": 10.7622361, "tags": {"amenity": "cafe", "name": "\u0645\u0642\u0647\u0649 \u0627\u0644\u0643\u0634\u0648", "name:ar": "\u0645\u0642\u0647\u0649 \u0627\u0644\u0643\u0634\u0648", "name:fr": "Caf\u00e9 Kchaou"}}, {"type": "node", "id": 7880617580, "lat": 34.7291876, "lon": 10.7541717, "tags": {"amenity": "cafe", "name": "\u0627\u0644\u0631\u0635\u064a\u0641", "name:ar": "\u0627\u0644\u0631\u0635\u064a\u0641", "name:fr": "Le Quai"}}, {"type": "node", "id": 8157433982, "lat": 34.755309, "lon": 10.7765409, "tags": {"amenity": "cafe", "name": "\u0645\u0642\u0647\u0649 \u0627\u0644\u0633\u064a \u0622\u0633 \u0622\u0633", "name:ar": "\u0645\u0642\u0647\u0649 \u0627\u0644\u0633\u064a \u0622\u0633 \u0622\u0633", "name:fr": "Caf\u00e9 CSS"}}, {"type": "node", "id": 8157740946, "lat": 34.7417036, "lon": 10.7483764, "tags": {"amenity": "cafe", "name": "Caf\u00e9 Azzouz", "name:fr": "Caf\u00e9 Azzouz"}}, {"type": "node", "id": 8157740949, "lat": 34.7418855, "lon": 10.7486314, "tags": {"amenity": "cafe", "name": "Caf\u00e9 Lotfi", "name:fr": "Caf\u00e9 Lotfi"}}, {"type": "node", "id": 8157740950, "lat": 34.7417235, "lon": 10.7514886, "tags": {"amenity": "cafe", "name": "Caf\u00e9 Frero", "name:fr": "Caf\u00e9 Frero"}}, {"type": "node", "id": 8157740951, "lat": 34.7416725, "lon": 10.7533642, "tags": {"amenity": "cafe", "name": "Caf\u00e9 El Borj", "name:fr": "Caf\u00e9 El Borj"}}, {"type": "node", "id": 8157740952, "lat": 34.7422456, "lon": 10.7535701, "tags": {"amenity": "cafe", "name": "Caf\u00e9 Faiez", "name:fr": "Caf\u00e9 Faiez"}}, {"type": "node", "id": 8157740953, "lat": 34.7491599, "lon": 10.7603717, "tags": {"amenity": "cafe", "name": "Caf\u00e9 Relax", "name:fr": "Caf\u00e9 Relax"}}, {"type": "node", "id": 8178772787, "lat": 34.7448106, "lon": 10.7638269, "tags": {"amenity": "cafe", "name": "\u0645\u0642\u0647\u0649 \u0627\u0644\u0623\u0647\u0631\u0627\u0645", "name:ar": "\u0645\u0642\u0647\u0649 \u0627\u0644\u0623\u0647\u0631\u0627\u0645", "name:fr": "Caf\u00e9 Les Pyramides"}}, {"type": "node", "id": 8178772788, "lat": 34.7471722, "lon": 10.7646189, "tags": {"amenity": "cafe", "name": "Havana 53", "name:fr": "Havana 53"}}, {"type": "node", "id": 8178772789, "lat": 34.747682, "lon": 10.7647734, "tags": {"amenity": "cafe", "name": "Caf\u00e9 Toumi", "name:ar": "\u0645\u0642\u0647\u0649 \u0627\u0644\u062a\u0648\u0645\u064a", "name:fr": "Caf\u00e9 Toumi"}}, {"type": "node", "id": 8178772791, "lat": 34.7417325, "lon": 10.7638686, "tags": {"amenity": "cafe", "name": "\u0645\u0642\u0647\u0649 \u0643\u0627\u0631\u062a\u0627\u0642\u0648", "name:ar": "\u0645\u0642\u0647\u0649 \u0643\u0627\u0631\u062a\u0627\u0642\u0648", "name:fr": "Caf\u00e9 Cartago"}}, {"type": "node", "id": 8186462735, "lat": 34.7841298, "lon": 10.6669865, "tags": {"amenity": "cafe", "name": "Caf\u00e9 Bouchanab"}}, {"type": "node", "id": 8186462736, "lat": 34.7287458, "lon": 10.6252008, "tags": {"amenity": "cafe", "name": "Caf\u00e9 Saber"}}, {"type": "node", "id": 8186476765, "lat": 34.7302364, "lon": 10.6066705, "tags": {"amenity": "cafe", "name": "\u0645\u0642\u0647\u0649 \u0639\u0645\u0627\u0631", "name:ar": "\u0645\u0642\u0647\u0649 \u0639\u0645\u0627\u0631", "name:fr": "Caf\u00e9 Ammar"}}, {"type": "node", "id": 8187049484, "lat": 34.7276972, "lon": 10.5142099, "tags": {"amenity": "cafe", "name": "Caf\u00e9 Sami", "name:fr": "Caf\u00e9 Sami"}}, {"type": "node", "id": 8187049487, "lat": 34.7296655, "lon": 10.5164342, "tags": {"amenity": "cafe", "name": "Caf\u00e9 Dan"}}, {"type": "node", "id": 8187049488, "lat": 34.7302166, "lon": 10.5178665, "tags": {"amenity": "cafe", "name": "Caf\u00e9 Chbechba"}}, {"type": "node", "id": 8187111415, "lat": 34.7411408, "lon": 10.3704589, "tags": {"amenity": "cafe", "name": "Caf\u00e9 Bousaa", "name:fr": "Caf\u00e9 Bousaa"}}, {"type": "node", "id": 8194443871, "lat": 34.7395589, "lon": 10.7411872, "tags": {"brand": "Carrefour Express", "brand:wikidata": "Q2940190", "brand:wikipedia": "fr:Carrefour Express", "name": "Carrefour Express", "name:fr": "Carrefour Express", "shop": "convenience"}}, {"type": "node", "id": 8201561772, "lat": 34.9368103, "lon": 10.7437779, "tags": {"amenity": "cafe", "name": "Caf\u00e9 Station Total", "name:fr": "Caf\u00e9 Station Total"}}, {"type": "node", "id": 8201561773, "lat": 34.936685, "lon": 10.7438369, "tags": {"amenity": "cafe", "name": "Caf\u00e9 Jalel"}}, {"type": "node", "id": 8201932250, "lat": 34.9387892, "lon": 10.7441286, "tags": {"amenity": "cafe", "name": "Caf\u00e9 Errayen"}}, {"type": "node", "id": 8201932252, "lat": 34.9395539, "lon": 10.7441508, "tags": {"amenity": "cafe", "name": "Caf\u00e9 Les Arcades", "name:fr": "Caf\u00e9 Les Arcades"}}, {"type": "node", "id": 8201932255, "lat": 34.9423322, "lon": 10.744512, "tags": {"amenity": "cafe", "name": "Caf\u00e9 Essaraya"}}, {"type": "node", "id": 8201932256, "lat": 34.943597, "lon": 10.7450436, "tags": {"amenity": "cafe", "name": "Caf\u00e9 Safsaf", "name:fr": "Caf\u00e9 Safsaf"}}, {"type": "node", "id": 8201932260, "lat": 34.943459, "lon": 10.7445537, "tags": {"amenity": "pharmacy", "dispensing": "yes", "healthcare": "pharmacy", "name": "Pharmacie Inayet Baklouti", "name:fr": "Pharmacie Anayet Baklouti"}}, {"type": "node", "id": 8201932261, "lat": 34.9456385, "lon": 10.7449298, "tags": {"amenity": "cafe", "name": "Caf\u00e9 El Andalous", "name:fr": "Caf\u00e9 El Andalous"}}, {"type": "node", "id": 8300096128, "lat": 34.7936232, "lon": 10.7339671, "tags": {"amenity": "cafe", "name": "Caf\u00e9 22", "name:fr": "Caf\u00e9 22"}}, {"type": "node", "id": 8614162854, "lat": 34.8179232, "lon": 10.7749879, "tags": {"amenity": "cafe", "name": "Caf\u00e9 Cappuccino", "name:fr": "Caf\u00e9 Cappuccino"}}, {"type": "node", "id": 8614162856, "lat": 34.8208381, "lon": 10.7791884, "tags": {"amenity": "cafe", "name": "Express Midou", "name:fr": "Express Midou"}}, {"type": "node", "id": 8708672406, "lat": 35.0369768, "lon": 10.3669482, "tags": {"amenity": "cafe", "name": "Caf\u00e9 Nour"}}, {"type": "node", "id": 8829137357, "lat": 34.8041126, "lon": 10.785037, "tags": {"amenity": "cafe", "name": "\u0645\u0642\u0647\u0649 \u0631\u0628\u0627\u0644", "name:ar": "\u0645\u0642\u0647\u0649 \u0631\u0628\u0627\u0644", "name:fr": "Rebel Cafe"}}, {"type": "node", "id": 8943583970, "lat": 34.8021862, "lon": 10.7599488, "tags": {"amenity": "cafe", "name": "\u0645\u0642\u0647\u0649 \u0627\u0644\u0631\u0627\u0634\u062f\u064a\u0629", "name:ar": "\u0645\u0642\u0647\u0649 \u0627\u0644\u0631\u0627\u0634\u062f\u064a\u0629", "name:fr": "Caf\u00e9 Errachidia"}}, {"type": "node", "id": 8943583972, "lat": 34.7993179, "lon": 10.7568242, "tags": {"amenity": "cafe", "name": "Sosta Coffee"}}, {"type": "node", "id": 8943583973, "lat": 34.7978421, "lon": 10.7538264, "tags": {"amenity": "cafe", "name": "Coach Coffee"}}, {"type": "node", "id": 8943583974, "lat": 34.7931064, "lon": 10.7447542, "tags": {"amenity": "cafe", "name": "Caf\u00e9 Tarek"}}, {"type": "node", "id": 9059549420, "lat": 35.0794893, "lon": 10.6389797, "tags": {"amenity": "cafe", "name": "Caf\u00e9 Errayhane"}}, {"type": "node", "id": 9329093806, "lat": 34.7248362, "lon": 10.7222845, "tags": {"amenity": "cafe", "name": "Salon de Th\u00e9 Cheers", "name:fr": "Salon de Th\u00e9 Cheers", "opening_hours": "Mo-Su 08:00-22:00", "phone": "+216 36 170 070"}}, {"type": "node", "id": 9534911071, "lat": 34.7733656, "lon": 10.7761013, "tags": {"name": "\u0645\u063a\u0627\u0632\u0629 \u0627\u0644\u0645\u0635\u0645\u0648\u062f\u064a", "name:ar": "\u0645\u063a\u0627\u0632\u0629 \u0627\u0644\u0645\u0635\u0645\u0648\u062f\u064a", "name:fr": "Sup\u00e9rette Fawzi Masmoudi", "shop": "convenience"}}, {"type": "node", "id": 9686134189, "lat": 34.7404073, "lon": 10.7574773}, {"type": "node", "id": 9686134190, "lat": 34.7404015, "lon": 10.7574087}, {"type": "node", "id": 9686134193, "lat": 34.7403936, "lon": 10.7573161}, {"type": "node", "id": 9686134194, "lat": 34.7403142, "lon": 10.7572185}, {"type": "node", "id": 9686180724, "lat": 34.7408016, "lon": 10.7577399}, {"type": "node", "id": 9686180725, "lat": 34.7407353, "lon": 10.757671}, {"type": "node", "id": 9686180726, "lat": 34.7406467, "lon": 10.75767}, {"type": "node", "id": 9686180731, "lat": 34.7409486, "lon": 10.75753}, {"type": "node", "id": 9686180738, "lat": 34.7409504, "lon": 10.7573799}, {"type": "node", "id": 9686180769, "lat": 34.7405335, "lon": 10.7569487}, {"type": "node", "id": 9686180770, "lat": 34.7406065, "lon": 10.7570355}, {"type": "node", "id": 9686180771, "lat": 34.7407359, "lon": 10.7570348}, {"type": "node", "id": 9686180777, "lat": 34.7405614, "lon": 10.7576691}, {"type": "node", "id": 9686180778, "lat": 34.7409525, "lon": 10.7571966}, {"type": "node", "id": 9686180779, "lat": 34.7408135, "lon": 10.7570344}, {"type": "node", "id": 9810617127, "lat": 34.6839081, "lon": 10.7035506, "tags": {"addr:street": "Thyna", "amenity": "pharmacy", "dispensing": "yes", "healthcare": "pharmacy", "name": "\u0635\u064a\u062f\u0644\u064a\u0629 \u0644\u064a\u0644\u0649 \u0634\u0637\u0648\u0631\u0648", "name:ar": "\u0635\u064a\u062f\u0644\u064a\u0629 \u0644\u064a\u0644\u0649 \u0634\u0637\u0648\u0631\u0648", "name:fr": "Pharmacie Leila Chtourou Ep. Ben Ayed", "opening_hours": "Mo-Fr 08:30-13:00, 15:00-19:30; Sa 08:30-13:00", "phone": "+216 74 289 200"}}, {"type": "node", "id": 9815328083, "lat": 34.8410468, "lon": 10.7626311, "tags": {"brand": "Carrefour", "brand:wikidata": "Q217599", "name": "Carrefour", "name:ar": "\u0643\u0627\u0631\u0641\u0648\u0631", "name:en": "Carrefour", "name:fr": "Carrefour", "shop": "supermarket"}}, {"type": "node", "id": 9868120541, "lat": 34.8238528, "lon": 10.6779936, "tags": {"amenity": "cafe", "name": "Caf\u00e9 Carthage", "name:fr": "Caf\u00e9 Carthage"}}, {"type": "node", "id": 9868120542, "lat": 34.8250643, "lon": 10.6761638, "tags": {"amenity": "cafe", "name": "Caf\u00e9 Tour Eiffel", "name:fr": "Caf\u00e9 Tour Eiffel"}}, {"type": "node", "id": 9872355305, "lat": 34.8139438, "lon": 10.7832414, "tags": {"amenity": "cafe", "name": "Caf\u00e9t\u00e9ria Errached", "name:fr": "Caf\u00e9t\u00e9ria Errached"}}, {"type": "node", "id": 9872355306, "lat": 34.8127172, "lon": 10.7830992, "tags": {"amenity": "cafe", "name": "Express Caf\u00e9", "name:fr": "Express Caf\u00e9"}}, {"type": "node", "id": 9872355307, "lat": 34.8105192, "lon": 10.7821397, "tags": {"name": "\u0645\u063a\u0627\u0632\u0629 \u0633\u0631\u062d\u0627\u0646", "name:ar": "\u0645\u063a\u0627\u0632\u0629 \u0633\u0631\u062d\u0627\u0646", "name:fr": "Sup\u00e9rette Sarhane", "shop": "convenience"}}, {"type": "node", "id": 9872355308, "lat": 34.8076414, "lon": 10.7816696, "tags": {"name": "El Majd Fruits Secs", "shop": "convenience"}}, {"type": "node", "id": 9872355309, "lat": 34.80669, "lon": 10.7814338, "tags": {"amenity": "cafe", "name": "Caf\u00e9 Royal"}}, {"type": "node", "id": 9872355310, "lat": 34.8053599, "lon": 10.7810723, "tags": {"amenity": "cafe", "name": "Caf\u00e9 La Lune"}}, {"type": "node", "id": 9874086309, "lat": 34.7995901, "lon": 10.7698333, "tags": {"name": "Frip Coccinelle", "shop": "clothes"}}, {"type": "node", "id": 9994294987, "lat": 34.7769058, "lon": 10.7773914, "tags": {"amenity": "cafe", "name": "\u0643\u0627\u0628\u0633\u064a\u0644", "name:ar": "\u0643\u0627\u0628\u0633\u064a\u0644", "name:fr": "Capsule"}}, {"type": "node", "id": 10006515479, "lat": 35.0151821, "lon": 10.4155343, "tags": {"amenity": "cafe", "name": "Caf\u00e9 Cactus", "name:fr": "Caf\u00e9 Cactus"}}, {"type": "node", "id": 10604254625, "lat": 34.6827777, "lon": 10.7017779, "tags": {"addr:city": "\u0637\u064a\u0646\u0629", "addr:postcode": "3083", "addr:street": "\u0627\u0644\u0637\u0631\u064a\u0642 \u0627\u0644\u0648\u0637\u0646\u064a\u0629 \u062a\u0648\u0646\u0633 - \u0631\u0623\u0633 \u062c\u062f\u064a\u0631", "name": "Liliane", "opening_hours": "Mo-Sa 08:00-20:00", "payment:credit_cards": "yes", "shop": "convenience"}}, {"type": "node", "id": 10632764969, "lat": 34.8039961, "lon": 10.7612731, "tags": {"shop": "supermarket"}}, {"type": "node", "id": 10889869456, "lat": 34.7369723, "lon": 10.7511167, "tags": {"amenity": "cafe", "name": "takasim"}}, {"type": "node", "id": 10889869457, "lat": 34.7393156, "lon": 10.7509055, "tags": {"amenity": "cafe", "name": "friends"}}, {"type": "node", "id": 10889869458, "lat": 34.7380979, "lon": 10.7499925, "tags": {"amenity": "cafe", "name": "mallorca"}}, {"type": "node", "id": 11131396097, "lat": 34.7948812, "lon": 10.7431703, "tags": {"name": "Stop & Shop", "name:fr": "Stop & Shop", "shop": "clothes"}}, {"type": "node", "id": 11148081455, "lat": 34.8035056, "lon": 10.7847237, "tags": {"amenity": "cafe", "name": "Caf\u00e9 Prestige", "name:ar": "\u0645\u0642\u0647\u0649 \u0628\u0631\u0627\u0633\u062a\u064a\u062c", "name:fr": "Caf\u00e9 Prestige"}}, {"type": "node", "id": 11152504655, "lat": 34.806701, "lon": 10.7546606, "tags": {"name": "Elkhal", "shop": "supermarket"}}, {"type": "node", "id": 11465099887, "lat": 34.7851627, "lon": 10.7783553, "tags": {"name": "\u0639\u0632\u064a\u0632\u0629", "name:ar": "\u0639\u0632\u064a\u0632\u0629", "name:fr": "Aziza", "shop": "supermarket"}}, {"type": "node", "id": 11491236588, "lat": 34.7996648, "lon": 10.7694537, "tags": {"amenity": "cafe", "name": "Bora Bora Caf\u00e9", "name:fr": "Bora Bora Caf\u00e9"}}, {"type": "node", "id": 12046379679, "lat": 34.7629909, "lon": 10.7823559, "tags": {"amenity": "cafe", "name": "Galaxy Coffee", "name:fr": "Galaxy Coffee"}}, {"type": "node", "id": 12118934507, "lat": 34.8763735, "lon": 10.6364047, "tags": {"amenity": "cafe", "name": "\u0645\u0642\u0647\u0649 \u0627\u0644\u0631\u064a\u0641", "name:ar": "\u0645\u0642\u0647\u0649 \u0627\u0644\u0631\u064a\u0641", "name:fr": "Caf\u00e9 Errif"}}, {"type": "node", "id": 12172977517, "lat": 34.8002066, "lon": 10.7565834, "tags": {"amenity": "cafe", "name": "Pause Caf\u00e9", "name:fr": "Pause Caf\u00e9"}}, {"type": "node", "id": 12449852329, "lat": 34.7966843, "lon": 10.7423857, "tags": {"name": "\u0639\u0632\u064a\u0632\u0629 20 \u0645\u0627\u0631\u0633", "name:fr": "Aziza 20 Mars", "shop": "supermarket"}}, {"type": "node", "id": 12449852330, "lat": 34.7965724, "lon": 10.742407, "tags": {"name": "\u0645\u063a\u0627\u0632\u0629 \u0639\u0628\u064a\u062f\u0629", "name:fr": "Magasin Abida", "shop": "supermarket"}}, {"type": "node", "id": 12449852339, "lat": 34.7938186, "lon": 10.7423682, "tags": {"brand": "Carrefour", "brand:wikidata": "Q217599", "name": "Carrefour", "shop": "supermarket"}}, {"type": "node", "id": 12549628888, "lat": 34.796997, "lon": 10.7843439, "tags": {"amenity": "cafe", "name": "Chippa Shoops", "name:fr": "Chippa Shoops"}}, {"type": "node", "id": 12565352658, "lat": 34.8122791, "lon": 10.7673249, "tags": {"name": "Superette Kais", "shop": "supermarket"}}, {"type": "node", "id": 12587515363, "lat": 34.8052931, "lon": 10.7562338, "tags": {"shop": "supermarket"}}, {"type": "node", "id": 12587515364, "lat": 34.8054463, "lon": 10.7558921, "tags": {"addr:city": "sfax", "addr:housenumber": "2025800", "addr:postcode": "3021", "addr:street": "wed grawa", "name": "bonus", "opening_hours": "Mo-Fr 09:00-18:00", "payment:cash": "yes", "payment:credit_cards": "yes", "phone": "98251616", "shop": "supermarket"}}, {"type": "node", "id": 12587529345, "lat": 34.8267389, "lon": 10.756931, "tags": {"amenity": "cafe", "name": "cafe dali"}}, {"type": "way", "id": 39972259, "nodes": [1975700905, 1975700903, 1975700898, 1975700900, 1975700905]}, {"type": "way", "id": 40695715, "nodes": [494264863, 6594685019, 494264864, 494264865, 6594685021, 6594685020, 494264858, 494264859, 494264860, 494264866, 494264863], "tags": {"name": "\u0627\u0644\u0645\u063a\u0627\u0632\u0629 \u0627\u0644\u0639\u0627\u0645\u0629", "name:ar": "\u0627\u0644\u0645\u063a\u0627\u0632\u0629 \u0627\u0644\u0639\u0627\u0645\u0629", "name:fr": "MG Maxi", "shop": "supermarket"}}, {"type": "way", "id": 40695716, "nodes": [494264734, 494264733, 494264727, 494264726, 494264729, 494264728, 494264744, 6594885808, 6594885807, 6594885806, 6594885805, 494264745, 494264739, 6594885809, 6594885810, 6594885811, 6594885812, 494264743, 494264737, 494264738, 494264734], "tags": {"name": "\u0627\u0644\u0633\u0648\u0642 \u0627\u0644\u0634\u0639\u0628\u064a\u0629 \u062d\u064a \u0627\u0644\u0628\u062d\u0631\u064a 3", "name:ar": "\u0627\u0644\u0633\u0648\u0642 \u0627\u0644\u0634\u0639\u0628\u064a\u0629 \u062d\u064a \u0627\u0644\u0628\u062d\u0631\u064a 3", "name:fr": "March\u00e9 Populaire Cit\u00e9 Bahri 3", "shop": "supermarket"}}, {"type": "way", "id": 40786011, "nodes": [495806518, 495806521, 495806524, 495806527, 495806518], "tags": {"addr:city": "\u0635\u0641\u0627\u0642\u0633", "addr:city:ar": "\u0635\u0641\u0627\u0642\u0633", "addr:street": "\u0634\u0627\u0631\u0639 \u0627\u0644\u0634\u0647\u062f\u0627\u0621", "building": "retail", "name": "\u0633\u0648\u0631\u064a\u0645\u0627\u0643\u0633", "name:ar": "\u0633\u0648\u0631\u064a\u0645\u0627\u0643\u0633", "name:fr": "Sorimex", "operator": "\u0633\u0648\u0631\u064a\u0645\u0627\u0643\u0633", "shop": "supermarket"}}, {"type": "way", "id": 186502164, "nodes": [1972195165, 1972195171, 1972195164, 1972195161, 6484265137, 1972195165], "tags": {"name": "\u0628\u0627\u0646\u064a\u0627\u064a \u062f\u0648\u0631", "name:ar": "\u0628\u0627\u0646\u064a\u0627\u064a \u062f\u0648\u0631", "name:fr": "Panier d'Or", "shop": "supermarket"}}, {"type": "way", "id": 698776297, "nodes": [6561724719, 6561724720, 6561724721, 6561724722, 6561724723, 6561724724, 6561724719], "tags": {"addr:postcode": "3021", "building": "yes", "name": "\u0628\u0631\u064a \u0634\u0648\u0643", "name:ar": "\u0628\u0631\u064a \u0634\u0648\u0643", "name:fr": "Prix Choc", "shop": "supermarket"}}, {"type": "way", "id": 699922921, "nodes": [6572783254, 6572783255, 6572783256, 6572783257, 6572783258, 6572783259, 6572783260, 6572783261, 6572783262, 6572783263, 6572783264, 6572783265, 6572783266, 6572783267, 6572783268, 6572783269, 6572783270, 6572783271, 6572783272, 6572783273, 6572783274, 6572783275, 6572783276, 6572783277, 6572783254], "tags": {"amenity": "pharmacy", "brand": "Pharmacie Principale", "brand:wikidata": "Q1547749", "brand:wikipedia": "fr:Groupe PP Holding", "building": "yes", "dispensing": "yes", "healthcare": "pharmacy", "name": "\u0627\u0644\u0635\u064a\u062f\u0644\u064a\u0629 \u0627\u0644\u0645\u0631\u0643\u0632\u064a\u0629 \u0628\u0635\u0641\u0627\u0642\u0633", "name:ar": "\u0627\u0644\u0635\u064a\u062f\u0644\u064a\u0629 \u0627\u0644\u0645\u0631\u0643\u0632\u064a\u0629 \u0628\u0635\u0641\u0627\u0642\u0633", "name:fr": "Pharmacie Centrale de Sfax", "opening_hours": "Mo-Fr 08:00-16:30; Sa 08:00-12:00"}}, {"type": "way", "id": 700308864, "nodes": [6576478205, 6576478206, 6576478207, 6576478208, 6576478205], "tags": {"brand": "Carrefour Market", "brand:wikidata": "Q2689639", "brand:wikipedia": "fr:Carrefour Market", "building": "yes", "name": "\u0643\u0627\u0631\u0641\u0648\u0631 \u0645\u0627\u0631\u0643\u062a", "name:ar": "\u0643\u0627\u0631\u0641\u0648\u0631 \u0645\u0627\u0631\u0643\u062a", "name:en": "Carrefour Market", "name:fr": "Carrefour Market", "operator": "\u0645\u062c\u0645\u0648\u0639\u0629 \u0643\u0627\u0631\u0641\u0648\u0631", "operator:ar": "\u0645\u062c\u0645\u0648\u0639\u0629 \u0643\u0627\u0631\u0641\u0648\u0631", "operator:wikidata": "Q3117359", "operator:wikipedia": "ar:\u0643\u0627\u0631\u0641\u0648\u0631", "operator:wikipedia:ar": "\u0643\u0627\u0631\u0641\u0648\u0631", "shop": "supermarket"}}, {"type": "way", "id": 700694307, "nodes": [6580138622, 6580138623, 6580138624, 6580138625, 6580138626, 6580138627, 6580138628, 6580138629, 6580138630, 6580138631, 6580138622], "tags": {"branch": "\u0633\u0627\u0642\u064a\u0629 \u0627\u0644\u062f\u0627\u0626\u0631", "building": "yes", "name": "G\u00e9ant Market", "name:fr": "G\u00e9ant Market", "shop": "supermarket"}}, {"type": "way", "id": 736841494, "nodes": [6898611320, 6898611321, 6898611322, 6898611323, 6898611324, 6898611320], "tags": {"amenity": "cafe", "building": "yes"}}, {"type": "way", "id": 736841544, "nodes": [6898611543, 6898611544, 6898611545, 6898611546, 6898611547, 6898611548, 6898611549, 6898611550, 6898611543], "tags": {"amenity": "cafe", "building": "yes", "name": "Friends"}}, {"type": "way", "id": 749185338, "nodes": [7006069573, 7006069574, 7006069575, 7006069557, 7006069558, 7006069559, 7006069560, 7006069561, 7006069562, 7006069569, 7006069570, 7006069571, 7006069572, 7006069563, 7006069564, 7006069565, 7006069566, 7006069567, 7006069568, 7006069573], "tags": {"addr:city": "\u0635\u0641\u0627\u0642\u0633", "addr:city:ar": "\u0635\u0641\u0627\u0642\u0633", "building": "yes", "shop": "kiosk"}}, {"type": "way", "id": 1054014422, "nodes": [9686180769, 9686134194, 9686134193, 9686134190, 9686134189, 9686180777, 9686180726, 9686180725, 9686180724, 9686180731, 9686180738, 9686180778, 9686180779, 9686180771, 9686180770, 9686180769], "tags": {"branch": "Sfax El Jadida", "brand": "Carrefour Market", "brand:wikidata": "Q2689639", "building": "yes", "name": "Carrefour Market", "name:ar": "\u0643\u0627\u0631\u0641\u0648\u0631 \u0645\u0627\u0631\u0643\u062a", "name:en": "Carrefour Market", "name:es": "Carrefour Market", "name:fr": "Carrefour Market", "shop": "supermarket"}}, {"type": "relation", "id": 2516506, "members": [{"type": "way", "ref": 39972259, "role": "outer"}], "tags": {"addr:city": "\u0635\u0641\u0627\u0642\u0633", "addr:city:ar": "\u0635\u0641\u0627\u0642\u0633", "building": "yes", "name": "\u0627\u0644\u0633\u0648\u0642 \u0627\u0644\u0645\u0631\u0643\u0632\u064a", "name:ar": "\u0627\u0644\u0633\u0648\u0642 \u0627\u0644\u0645\u0631\u0643\u0632\u064a", "name:fr": "March\u00e9 Central", "shop": "supermarket", "type": "multipolygon"}}]}